{
"type": "FeatureCollection",
"name": "site_border",
"crs": { "type": "name", "properties": { "name": "urn:ogc:def:crs:OGC:1.3:CRS84" } },
"xy_coordinate_resolution": 1e-06,
"features": [
{ "type": "Feature", "properties": { }, "geometry": { "type": "Polygon", "coordinates": [ [ [ -83.723051, 32.434312 ], [ -83.721351, 32.432768 ], [ -83.7214, 32.432465 ], [ -83.722238, 32.431793 ], [ -83.72238, 32.431682 ], [ -83.722526, 32.431575 ], [ -83.722676, 32.431473 ], [ -83.72283, 32.431375 ], [ -83.722989, 32.431281 ], [ -83.72315, 32.431192 ], [ -83.723315, 32.431107 ], [ -83.723483, 32.431028 ], [ -83.723655, 32.430953 ], [ -83.723829, 32.430882 ], [ -83.724006, 32.430817 ], [ -83.724185, 32.430757 ], [ -83.724367, 32.430702 ], [ -83.72455, 32.430652 ], [ -83.724736, 32.430607 ], [ -83.724959, 32.43056 ], [ -83.725335, 32.430499 ], [ -83.725492, 32.430521 ], [ -83.726286, 32.430478 ], [ -83.726733, 32.43048 ], [ -83.726896, 32.430439 ], [ -83.73015, 32.430453 ], [ -83.730396, 32.430454 ], [ -83.734832, 32.430472 ], [ -83.735322, 32.430545 ], [ -83.735808, 32.430547 ], [ -83.736329, 32.43073 ], [ -83.736372, 32.431405 ], [ -83.736474, 32.431723 ], [ -83.736512, 32.432866 ], [ -83.736603, 32.435863 ], [ -83.736673, 32.438517 ], [ -83.736032, 32.438466 ], [ -83.735463, 32.438403 ], [ -83.735042, 32.438365 ], [ -83.73462, 32.438338 ], [ -83.734198, 32.438322 ], [ -83.733775, 32.438316 ], [ -83.733352, 32.438322 ], [ -83.732493, 32.438345 ], [ -83.730676, 32.43842 ], [ -83.728856, 32.438487 ], [ -83.728696, 32.438489 ], [ -83.728536, 32.438488 ], [ -83.728376, 32.438483 ], [ -83.728317, 32.438479 ], [ -83.728257, 32.438474 ], [ -83.728198, 32.438467 ], [ -83.72814, 32.438458 ], [ -83.728076, 32.438456 ], [ -83.728025, 32.438462 ], [ -83.727974, 32.43847 ], [ -83.727923, 32.43848 ], [ -83.727873, 32.438491 ], [ -83.727824, 32.438503 ], [ -83.727775, 32.438517 ], [ -83.726416, 32.437357 ], [ -83.725086, 32.436174 ], [ -83.723373, 32.434602 ], [ -83.723051, 32.434312 ] ] ] } }
]
}
