{
"type": "FeatureCollection",
"name": "soil_series",
"crs": { "type": "name", "properties": { "name": "urn:ogc:def:crs:OGC:1.3:CRS84" } },
"xy_coordinate_resolution": 1e-06,
"features": [
{ "type": "Feature", "properties": { "series": "Orangeburg", "musym": "OgA", "muname": "Orangeburg loamy fine sand, 0 to 2 percent slopes", "fill": "#E69800" }, "geometry": { "type": "Polygon", "coordinates": [ [ [ -83.724701, 32.431119 ], [ -83.724354, 32.431063 ], [ -83.72393, 32.430845 ], [ -83.724367, 32.430702 ], [ -83.724809, 32.430592 ], [ -83.725203, 32.430911 ], [ -83.725318, 32.430985 ], [ -83.725101, 32.431011 ], [ -83.724896, 32.431111 ], [ -83.724701, 32.431119 ] ] ] } },
{ "type": "Feature", "properties": { "series": "Faceville", "musym": "FoA", "muname": "Faceville fine sandy loam, 0 to 2 percent slopes", "fill": "#FF5500" }, "geometry": { "type": "Polygon", "coordinates": [ [ [ -83.730967, 32.431021 ], [ -83.73077, 32.43105 ], [ -83.730712, 32.431083 ], [ -83.730687, 32.43112 ], [ -83.730613, 32.430905 ], [ -83.730611, 32.430767 ], [ -83.730704, 32.43056 ], [ -83.730777, 32.430491 ], [ -83.73084, 32.430456 ], [ -83.732646, 32.430463 ], [ -83.732521, 32.43055 ], [ -83.732133, 32.430721 ], [ -83.731808, 32.430944 ], [ -83.731558, 32.431036 ], [ -83.731377, 32.431146 ], [ -83.730967, 32.431021 ] ] ] } },
{ "type": "Feature", "properties": { "series": "Faceville", "musym": "FoA", "muname": "Faceville fine sandy loam, 0 to 2 percent slopes", "fill": "#FF5500" }, "geometry": { "type": "Polygon", "coordinates": [ [ [ -83.731377, 32.431146 ], [ -83.731558, 32.431036 ], [ -83.731826, 32.430934 ], [ -83.732133, 32.430721 ], [ -83.732521, 32.43055 ], [ -83.732646, 32.430463 ], [ -83.734832, 32.430472 ], [ -83.735318, 32.430544 ], [ -83.735131, 32.430588 ], [ -83.733807, 32.431025 ], [ -83.732461, 32.431347 ], [ -83.732352, 32.431386 ], [ -83.731377, 32.431146 ] ] ] } },
{ "type": "Feature", "properties": { "series": "Wagram", "musym": "WaB", "muname": "Wagram loamy sand, 0 to 6 percent slopes", "fill": "#E8D08A" }, "geometry": { "type": "Polygon", "coordinates": [ [ [ -83.727051, 32.431605 ], [ -83.726912, 32.431579 ], [ -83.726594, 32.431434 ], [ -83.725819, 32.431133 ], [ -83.725318, 32.430985 ], [ -83.725203, 32.430911 ], [ -83.724809, 32.430592 ], [ -83.725335, 32.430499 ], [ -83.725492, 32.430521 ], [ -83.726286, 32.430478 ], [ -83.726413, 32.43082 ], [ -83.726614, 32.431023 ], [ -83.726696, 32.431074 ], [ -83.727, 32.431186 ], [ -83.727639, 32.431602 ], [ -83.727051, 32.431605 ] ] ] } },
{ "type": "Feature", "properties": { "series": "Norfolk", "musym": "NgA", "muname": "Norfolk loamy fine sand, 0 to 2 percent slopes", "fill": "#FFAA00" }, "geometry": { "type": "Polygon", "coordinates": [ [ [ -83.728773, 32.432155 ], [ -83.727651, 32.431609 ], [ -83.726982, 32.431177 ], [ -83.726644, 32.431046 ], [ -83.726413, 32.43082 ], [ -83.726286, 32.430478 ], [ -83.726733, 32.43048 ], [ -83.726896, 32.430439 ], [ -83.728754, 32.430447 ], [ -83.728954, 32.430745 ], [ -83.729036, 32.431142 ], [ -83.728881, 32.431086 ], [ -83.72847, 32.430996 ], [ -83.728287, 32.43098 ], [ -83.727997, 32.430989 ], [ -83.727844, 32.431025 ], [ -83.727839, 32.431287 ], [ -83.727853, 32.431386 ], [ -83.727924, 32.431471 ], [ -83.728245, 32.431758 ], [ -83.728773, 32.432155 ] ] ] } },
{ "type": "Feature", "properties": { "series": "Wagram", "musym": "WaB", "muname": "Wagram loamy sand, 0 to 6 percent slopes", "fill": "#E8D08A" }, "geometry": { "type": "Polygon", "coordinates": [ [ [ -83.730264, 32.431977 ], [ -83.730194, 32.431914 ], [ -83.729961, 32.431584 ], [ -83.729829, 32.431203 ], [ -83.729371, 32.430812 ], [ -83.729286, 32.430586 ], [ -83.729292, 32.430506 ], [ -83.72933, 32.430449 ], [ -83.73084, 32.430456 ], [ -83.730712, 32.430548 ], [ -83.730628, 32.430714 ], [ -83.730608, 32.430794 ], [ -83.730616, 32.430918 ], [ -83.730687, 32.43112 ], [ -83.730638, 32.431467 ], [ -83.730727, 32.432274 ], [ -83.730264, 32.431977 ] ] ] } },
{ "type": "Feature", "properties": { "series": "Dothan", "musym": "DoA", "muname": "Dothan fine sandy loam, 0 to 2 percent slopes", "fill": "#E6E600" }, "geometry": { "type": "Polygon", "coordinates": [ [ [ -83.729127, 32.432318 ], [ -83.728777, 32.432156 ], [ -83.728245, 32.431758 ], [ -83.72791, 32.431457 ], [ -83.727862, 32.431401 ], [ -83.727844, 32.431355 ], [ -83.727844, 32.431025 ], [ -83.727971, 32.430993 ], [ -83.728105, 32.430982 ], [ -83.728347, 32.430983 ], [ -83.728509, 32.431003 ], [ -83.728938, 32.431103 ], [ -83.729165, 32.431194 ], [ -83.729448, 32.43128 ], [ -83.729556, 32.431342 ], [ -83.729591, 32.43148 ], [ -83.72958, 32.431839 ], [ -83.72954, 32.431885 ], [ -83.729349, 32.431981 ], [ -83.729202, 32.432099 ], [ -83.729149, 32.43218 ], [ -83.729153, 32.432299 ], [ -83.729147, 32.432316 ], [ -83.729127, 32.432318 ] ] ] } },
{ "type": "Feature", "properties": { "series": "Orangeburg", "musym": "OgA", "muname": "Orangeburg loamy fine sand, 0 to 2 percent slopes", "fill": "#E69800" }, "geometry": { "type": "Polygon", "coordinates": [ [ [ -83.725615, 32.432318 ], [ -83.724308, 32.432242 ], [ -83.724176, 32.432214 ], [ -83.724089, 32.432147 ], [ -83.723991, 32.432038 ], [ -83.723606, 32.431242 ], [ -83.72355, 32.43117 ], [ -83.723421, 32.431057 ], [ -83.72393, 32.430845 ], [ -83.724335, 32.431056 ], [ -83.724621, 32.431113 ], [ -83.724896, 32.431111 ], [ -83.725101, 32.431011 ], [ -83.725318, 32.430985 ], [ -83.725857, 32.431147 ], [ -83.726594, 32.431434 ], [ -83.72697, 32.431597 ], [ -83.726851, 32.43204 ], [ -83.726839, 32.432161 ], [ -83.726862, 32.432217 ], [ -83.726407, 32.432285 ], [ -83.725615, 32.432318 ] ] ] } },
{ "type": "Feature", "properties": { "series": "Marvyn", "musym": "MaA", "muname": "Marvyn loamy sand, 1 to 6 percent slopes", "fill": "#BA7049" }, "geometry": { "type": "Polygon", "coordinates": [ [ [ -83.735922, 32.432802 ], [ -83.735853, 32.432761 ], [ -83.735703, 32.432656 ], [ -83.735601, 32.43245 ], [ -83.73546, 32.432311 ], [ -83.735283, 32.432102 ], [ -83.735209, 32.432058 ], [ -83.735093, 32.432035 ], [ -83.735125, 32.431925 ], [ -83.735258, 32.431658 ], [ -83.735515, 32.431975 ], [ -83.735693, 32.432095 ], [ -83.735809, 32.432114 ], [ -83.735945, 32.432081 ], [ -83.736199, 32.431903 ], [ -83.736429, 32.43158 ], [ -83.736474, 32.431723 ], [ -83.73651, 32.432804 ], [ -83.735922, 32.432802 ] ] ] } },
{ "type": "Feature", "properties": { "series": "Faceville", "musym": "FoA", "muname": "Faceville fine sandy loam, 0 to 2 percent slopes", "fill": "#FF5500" }, "geometry": { "type": "Polygon", "coordinates": [ [ [ -83.72926, 32.432429 ], [ -83.729139, 32.432319 ], [ -83.729153, 32.432299 ], [ -83.729146, 32.432196 ], [ -83.729161, 32.432152 ], [ -83.729301, 32.432013 ], [ -83.729527, 32.431894 ], [ -83.729573, 32.431853 ], [ -83.729937, 32.432273 ], [ -83.729969, 32.432373 ], [ -83.730023, 32.432726 ], [ -83.73005, 32.432785 ], [ -83.730094, 32.432815 ], [ -83.72926, 32.432429 ] ] ] } },
{ "type": "Feature", "properties": { "series": "Orangeburg", "musym": "OgA", "muname": "Orangeburg loamy fine sand, 0 to 2 percent slopes", "fill": "#E69800" }, "geometry": { "type": "Polygon", "coordinates": [ [ [ -83.732834, 32.432949 ], [ -83.732769, 32.432934 ], [ -83.732728, 32.432905 ], [ -83.732551, 32.432709 ], [ -83.732445, 32.432503 ], [ -83.732353, 32.432266 ], [ -83.732329, 32.432098 ], [ -83.732301, 32.431585 ], [ -83.732313, 32.431451 ], [ -83.732352, 32.431386 ], [ -83.732461, 32.431347 ], [ -83.733867, 32.431008 ], [ -83.73528, 32.430548 ], [ -83.735808, 32.430547 ], [ -83.736329, 32.43073 ], [ -83.736372, 32.431405 ], [ -83.736429, 32.43158 ], [ -83.736226, 32.431877 ], [ -83.735979, 32.432062 ], [ -83.73587, 32.432107 ], [ -83.735729, 32.432108 ], [ -83.735577, 32.432023 ], [ -83.735449, 32.431907 ], [ -83.735258, 32.431658 ], [ -83.735272, 32.431491 ], [ -83.735244, 32.4313 ], [ -83.735244, 32.431176 ], [ -83.734162, 32.431453 ], [ -83.734017, 32.431517 ], [ -83.733881, 32.431625 ], [ -83.733821, 32.431693 ], [ -83.733521, 32.432512 ], [ -83.733427, 32.432661 ], [ -83.733306, 32.432773 ], [ -83.733207, 32.432832 ], [ -83.732964, 32.432929 ], [ -83.732834, 32.432949 ] ] ] } },
{ "type": "Feature", "properties": { "series": "Lakeland", "musym": "LqB", "muname": "Lakeland fine sand, 0 to 5 percent slopes", "fill": "#FFEBAF" }, "geometry": { "type": "Polygon", "coordinates": [ [ [ -83.728053, 32.432721 ], [ -83.726962, 32.432272 ], [ -83.726862, 32.432217 ], [ -83.726839, 32.432161 ], [ -83.726851, 32.43204 ], [ -83.72697, 32.431597 ], [ -83.727639, 32.431602 ], [ -83.728568, 32.432058 ], [ -83.728565, 32.432243 ], [ -83.728532, 32.432498 ], [ -83.728448, 32.43281 ], [ -83.728389, 32.43296 ], [ -83.728053, 32.432721 ] ] ] } },
{ "type": "Feature", "properties": { "series": "Norfolk", "musym": "NgA", "muname": "Norfolk loamy fine sand, 0 to 2 percent slopes", "fill": "#FFAA00" }, "geometry": { "type": "Polygon", "coordinates": [ [ [ -83.730464, 32.432941 ], [ -83.73013, 32.43283 ], [ -83.730041, 32.432772 ], [ -83.729945, 32.432289 ], [ -83.729859, 32.432172 ], [ -83.729573, 32.431853 ], [ -83.729592, 32.431774 ], [ -83.729593, 32.431534 ], [ -83.729565, 32.431355 ], [ -83.729531, 32.43132 ], [ -83.729448, 32.43128 ], [ -83.729036, 32.431142 ], [ -83.728954, 32.430745 ], [ -83.728754, 32.430447 ], [ -83.72933, 32.430449 ], [ -83.729292, 32.430506 ], [ -83.729284, 32.430566 ], [ -83.729362, 32.430797 ], [ -83.729423, 32.430866 ], [ -83.729829, 32.431203 ], [ -83.729961, 32.431584 ], [ -83.730159, 32.431871 ], [ -83.730264, 32.431977 ], [ -83.730727, 32.432274 ], [ -83.730812, 32.433005 ], [ -83.730844, 32.433064 ], [ -83.730957, 32.433135 ], [ -83.730464, 32.432941 ] ] ] } },
{ "type": "Feature", "properties": { "series": "Red Bay", "musym": "ReA", "muname": "Red Bay sandy loam, 0 to 2 percent slopes", "fill": "#A83800" }, "geometry": { "type": "Polygon", "coordinates": [ [ [ -83.722852, 32.433159 ], [ -83.722739, 32.433123 ], [ -83.722663, 32.433032 ], [ -83.722636, 32.432844 ], [ -83.722653, 32.432761 ], [ -83.722688, 32.432704 ], [ -83.722836, 32.432614 ], [ -83.723094, 32.432531 ], [ -83.723345, 32.432534 ], [ -83.723477, 32.43258 ], [ -83.723505, 32.432647 ], [ -83.723498, 32.432799 ], [ -83.72348, 32.432863 ], [ -83.723421, 32.432932 ], [ -83.723297, 32.433029 ], [ -83.723176, 32.433096 ], [ -83.722954, 32.433152 ], [ -83.722852, 32.433159 ] ] ] } },
{ "type": "Feature", "properties": { "series": "Faceville", "musym": "FoA", "muname": "Faceville fine sandy loam, 0 to 2 percent slopes", "fill": "#FF5500" }, "geometry": { "type": "Polygon", "coordinates": [ [ [ -83.721351, 32.432768 ], [ -83.7214, 32.432465 ], [ -83.722526, 32.431575 ], [ -83.722989, 32.431281 ], [ -83.723421, 32.431057 ], [ -83.72355, 32.43117 ], [ -83.723624, 32.431274 ], [ -83.723862, 32.431775 ], [ -83.723407, 32.432121 ], [ -83.723314, 32.432152 ], [ -83.723034, 32.432204 ], [ -83.722908, 32.43226 ], [ -83.72256, 32.43248 ], [ -83.72212, 32.432815 ], [ -83.722071, 32.432869 ], [ -83.722049, 32.432934 ], [ -83.72201, 32.433366 ], [ -83.721351, 32.432768 ] ] ] } },
{ "type": "Feature", "properties": { "series": "Benevolence", "musym": "BeB", "muname": "Benevolence loamy sand, 0 to 5 percent slopes", "fill": "#EEDABA" }, "geometry": { "type": "Polygon", "coordinates": [ [ [ -83.728153, 32.433362 ], [ -83.72808, 32.433284 ], [ -83.727576, 32.432974 ], [ -83.727381, 32.43287 ], [ -83.726519, 32.432478 ], [ -83.726344, 32.43242 ], [ -83.725574, 32.432317 ], [ -83.726386, 32.432287 ], [ -83.726862, 32.432217 ], [ -83.726962, 32.432272 ], [ -83.727997, 32.432695 ], [ -83.728105, 32.43275 ], [ -83.728389, 32.43296 ], [ -83.728259, 32.433524 ], [ -83.728153, 32.433362 ] ] ] } },
{ "type": "Feature", "properties": { "series": "Faceville", "musym": "FoA", "muname": "Faceville fine sandy loam, 0 to 2 percent slopes", "fill": "#FF5500" }, "geometry": { "type": "Polygon", "coordinates": [ [ [ -83.735831, 32.433456 ], [ -83.735867, 32.432919 ], [ -83.735891, 32.432826 ], [ -83.735911, 32.432806 ], [ -83.735958, 32.432795 ], [ -83.73651, 32.432804 ], [ -83.73653, 32.43346 ], [ -83.736414, 32.433538 ], [ -83.735841, 32.433816 ], [ -83.735831, 32.433456 ] ] ] } },
{ "type": "Feature", "properties": { "series": "Greenville", "musym": "GsB", "muname": "Greenville fine sandy loam, 2 to 5 percent slopes", "fill": "#E64C00" }, "geometry": { "type": "Polygon", "coordinates": [ [ [ -83.723502, 32.433945 ], [ -83.723419, 32.433614 ], [ -83.723338, 32.433469 ], [ -83.723272, 32.43341 ], [ -83.723155, 32.433387 ], [ -83.722839, 32.433361 ], [ -83.722439, 32.433421 ], [ -83.722047, 32.4334 ], [ -83.72201, 32.433366 ], [ -83.722049, 32.432934 ], [ -83.722071, 32.432869 ], [ -83.72212, 32.432815 ], [ -83.722609, 32.432447 ], [ -83.722996, 32.432216 ], [ -83.723407, 32.432121 ], [ -83.723862, 32.431775 ], [ -83.724012, 32.432067 ], [ -83.72413, 32.432183 ], [ -83.72421, 32.432228 ], [ -83.725574, 32.432317 ], [ -83.726323, 32.432416 ], [ -83.726462, 32.432453 ], [ -83.727381, 32.43287 ], [ -83.727576, 32.432974 ], [ -83.72808, 32.433284 ], [ -83.728174, 32.433391 ], [ -83.728259, 32.433524 ], [ -83.728087, 32.433709 ], [ -83.727949, 32.433934 ], [ -83.727843, 32.43382 ], [ -83.727592, 32.433614 ], [ -83.726897, 32.43335 ], [ -83.726071, 32.433276 ], [ -83.725311, 32.433283 ], [ -83.724561, 32.433404 ], [ -83.724253, 32.433498 ], [ -83.72412, 32.43357 ], [ -83.723893, 32.433836 ], [ -83.723515, 32.434073 ], [ -83.723502, 32.433945 ] ], [ [ -83.722913, 32.433158 ], [ -83.723213, 32.43308 ], [ -83.723346, 32.432994 ], [ -83.723448, 32.432906 ], [ -83.723492, 32.432832 ], [ -83.723506, 32.432714 ], [ -83.7235, 32.432616 ], [ -83.723465, 32.432571 ], [ -83.723324, 32.432531 ], [ -83.723094, 32.432531 ], [ -83.722836, 32.432614 ], [ -83.722688, 32.432704 ], [ -83.722653, 32.432761 ], [ -83.722635, 32.432862 ], [ -83.72267, 32.433048 ], [ -83.722756, 32.433132 ], [ -83.722832, 32.433156 ], [ -83.722913, 32.433158 ] ] ] } },
{ "type": "Feature", "properties": { "series": "Orangeburg", "musym": "OgA", "muname": "Orangeburg loamy fine sand, 0 to 2 percent slopes", "fill": "#E69800" }, "geometry": { "type": "Polygon", "coordinates": [ [ [ -83.728812, 32.434077 ], [ -83.728597, 32.43399 ], [ -83.728518, 32.433912 ], [ -83.728314, 32.433652 ], [ -83.728259, 32.433524 ], [ -83.728389, 32.43296 ], [ -83.729115, 32.43322 ], [ -83.729154, 32.433317 ], [ -83.729095, 32.433618 ], [ -83.729038, 32.434117 ], [ -83.728812, 32.434077 ] ] ] } },
{ "type": "Feature", "properties": { "series": "Thursa", "musym": "ThA", "muname": "Thursa loamy sand, 0 to 2 percent slopes", "fill": "#F79965" }, "geometry": { "type": "Polygon", "coordinates": [ [ [ -83.733626, 32.43419 ], [ -83.733361, 32.433775 ], [ -83.733311, 32.433576 ], [ -83.733307, 32.433476 ], [ -83.733335, 32.433415 ], [ -83.733423, 32.43332 ], [ -83.733505, 32.433285 ], [ -83.733606, 32.433288 ], [ -83.733704, 32.433311 ], [ -83.733978, 32.43347 ], [ -83.734815, 32.434182 ], [ -83.73471, 32.434151 ], [ -83.734436, 32.434142 ], [ -83.733984, 32.434264 ], [ -83.733626, 32.43419 ] ] ] } },
{ "type": "Feature", "properties": { "series": "Lakeland", "musym": "LqB", "muname": "Lakeland fine sand, 0 to 5 percent slopes", "fill": "#FFEBAF" }, "geometry": { "type": "Polygon", "coordinates": [ [ [ -83.730404, 32.434313 ], [ -83.73018, 32.434217 ], [ -83.730045, 32.43418 ], [ -83.729038, 32.434117 ], [ -83.729092, 32.433636 ], [ -83.729154, 32.433317 ], [ -83.729115, 32.43322 ], [ -83.728389, 32.43296 ], [ -83.728454, 32.432792 ], [ -83.728536, 32.43248 ], [ -83.728565, 32.432243 ], [ -83.728568, 32.432058 ], [ -83.729046, 32.432288 ], [ -83.729139, 32.432319 ], [ -83.72926, 32.432429 ], [ -83.730112, 32.432823 ], [ -83.730393, 32.432918 ], [ -83.73048, 32.433102 ], [ -83.730476, 32.433254 ], [ -83.730418, 32.433446 ], [ -83.730242, 32.43388 ], [ -83.730218, 32.43398 ], [ -83.730269, 32.434136 ], [ -83.730404, 32.434313 ] ] ] } },
{ "type": "Feature", "properties": { "series": "Johns", "musym": "Jo", "muname": "Johns sandy loam", "fill": "#ED7932" }, "geometry": { "type": "Polygon", "coordinates": [ [ [ -83.730411, 32.434315 ], [ -83.730277, 32.43415 ], [ -83.730219, 32.433995 ], [ -83.730242, 32.43388 ], [ -83.730418, 32.433446 ], [ -83.730479, 32.433237 ], [ -83.730476, 32.433086 ], [ -83.730393, 32.432918 ], [ -83.730957, 32.433135 ], [ -83.731599, 32.433467 ], [ -83.731676, 32.433546 ], [ -83.731957, 32.434002 ], [ -83.731758, 32.433854 ], [ -83.731674, 32.43381 ], [ -83.731506, 32.433776 ], [ -83.731388, 32.433788 ], [ -83.730872, 32.433933 ], [ -83.730764, 32.433976 ], [ -83.730636, 32.434122 ], [ -83.730588, 32.434352 ], [ -83.730411, 32.434315 ] ] ] } },
{ "type": "Feature", "properties": { "series": "Greenville", "musym": "GqB", "muname": "Greenville sandy clay loam, 2 to 5 percent slopes, severely eroded", "fill": "#E64C00" }, "geometry": { "type": "Polygon", "coordinates": [ [ [ -83.722047, 32.4334 ], [ -83.722439, 32.433421 ], [ -83.722859, 32.433361 ], [ -83.723196, 32.433392 ], [ -83.723303, 32.433429 ], [ -83.723367, 32.433515 ], [ -83.723439, 32.433664 ], [ -83.723491, 32.433869 ], [ -83.723515, 32.434073 ], [ -83.723398, 32.434157 ], [ -83.723147, 32.434399 ], [ -83.722047, 32.4334 ] ] ] } },
{ "type": "Feature", "properties": { "series": "Norfolk", "musym": "NgA", "muname": "Norfolk loamy fine sand, 0 to 2 percent slopes", "fill": "#FFAA00" }, "geometry": { "type": "Polygon", "coordinates": [ [ [ -83.73483, 32.434195 ], [ -83.733986, 32.433475 ], [ -83.734186, 32.43347 ], [ -83.734349, 32.433417 ], [ -83.734404, 32.433379 ], [ -83.734453, 32.433316 ], [ -83.734504, 32.433102 ], [ -83.734545, 32.433026 ], [ -83.734596, 32.432973 ], [ -83.734658, 32.432931 ], [ -83.734731, 32.432912 ], [ -83.734925, 32.432925 ], [ -83.735044, 32.432206 ], [ -83.735093, 32.432035 ], [ -83.735209, 32.432058 ], [ -83.735283, 32.432102 ], [ -83.73546, 32.432311 ], [ -83.735601, 32.43245 ], [ -83.735703, 32.432656 ], [ -83.735897, 32.432787 ], [ -83.735668, 32.432739 ], [ -83.735457, 32.432726 ], [ -83.735288, 32.432763 ], [ -83.735241, 32.432786 ], [ -83.735209, 32.432822 ], [ -83.735167, 32.432953 ], [ -83.735081, 32.433368 ], [ -83.735078, 32.433662 ], [ -83.735114, 32.433815 ], [ -83.735163, 32.433904 ], [ -83.735278, 32.433966 ], [ -83.735537, 32.434057 ], [ -83.735587, 32.434053 ], [ -83.73563, 32.434027 ], [ -83.735032, 32.434522 ], [ -83.73483, 32.434195 ] ] ] } },
{ "type": "Feature", "properties": { "series": "Dothan", "musym": "DoA", "muname": "Dothan fine sandy loam, 0 to 2 percent slopes", "fill": "#E6E600" }, "geometry": { "type": "Polygon", "coordinates": [ [ [ -83.733984, 32.434264 ], [ -83.734416, 32.434144 ], [ -83.734562, 32.434141 ], [ -83.734769, 32.434161 ], [ -83.734817, 32.434184 ], [ -83.734853, 32.434222 ], [ -83.735032, 32.434522 ], [ -83.734407, 32.434529 ], [ -83.733984, 32.434264 ] ] ] } },
{ "type": "Feature", "properties": { "series": "Orangeburg", "musym": "OgA", "muname": "Orangeburg loamy fine sand, 0 to 2 percent slopes", "fill": "#E69800" }, "geometry": { "type": "Polygon", "coordinates": [ [ [ -83.736315, 32.434633 ], [ -83.735331, 32.434537 ], [ -83.735032, 32.434522 ], [ -83.735643, 32.434016 ], [ -83.735841, 32.433816 ], [ -83.736414, 32.433538 ], [ -83.73653, 32.43346 ], [ -83.736564, 32.434581 ], [ -83.736436, 32.434625 ], [ -83.736315, 32.434633 ] ] ] } },
{ "type": "Feature", "properties": { "series": "Greenville", "musym": "GsA", "muname": "Greenville fine sandy loam, 0 to 2 percent slopes", "fill": "#E64C00" }, "geometry": { "type": "Polygon", "coordinates": [ [ [ -83.728854, 32.434882 ], [ -83.728751, 32.434872 ], [ -83.728622, 32.434835 ], [ -83.728476, 32.434774 ], [ -83.728403, 32.434723 ], [ -83.728316, 32.434614 ], [ -83.728024, 32.434142 ], [ -83.727949, 32.433934 ], [ -83.728087, 32.433709 ], [ -83.728259, 32.433524 ], [ -83.728344, 32.433697 ], [ -83.728583, 32.433979 ], [ -83.728757, 32.43406 ], [ -83.728954, 32.434108 ], [ -83.728931, 32.434283 ], [ -83.728921, 32.434568 ], [ -83.728854, 32.434882 ] ] ] } },
{ "type": "Feature", "properties": { "series": "Blanton", "musym": "BtB", "muname": "Blanton sand, 0 to 5 percent slopes", "fill": "#B68870" }, "geometry": { "type": "Polygon", "coordinates": [ [ [ -83.731388, 32.43507 ], [ -83.731081, 32.435037 ], [ -83.731004, 32.434666 ], [ -83.730938, 32.434513 ], [ -83.730818, 32.434432 ], [ -83.730588, 32.434352 ], [ -83.730628, 32.434137 ], [ -83.730687, 32.434049 ], [ -83.730764, 32.433976 ], [ -83.730872, 32.433933 ], [ -83.731368, 32.433793 ], [ -83.731506, 32.433776 ], [ -83.731674, 32.43381 ], [ -83.731774, 32.433865 ], [ -83.731957, 32.434002 ], [ -83.732187, 32.434259 ], [ -83.732258, 32.434365 ], [ -83.732374, 32.434744 ], [ -83.732415, 32.434819 ], [ -83.731946, 32.434966 ], [ -83.731509, 32.43506 ], [ -83.731388, 32.43507 ] ] ] } },
{ "type": "Feature", "properties": { "series": "Norfolk", "musym": "NgA", "muname": "Norfolk loamy fine sand, 0 to 2 percent slopes", "fill": "#FFAA00" }, "geometry": { "type": "Polygon", "coordinates": [ [ [ -83.733573, 32.435284 ], [ -83.732533, 32.434883 ], [ -83.732429, 32.434831 ], [ -83.732374, 32.434744 ], [ -83.732242, 32.434333 ], [ -83.731947, 32.43399 ], [ -83.731642, 32.433503 ], [ -83.731532, 32.433427 ], [ -83.730904, 32.433106 ], [ -83.730833, 32.433051 ], [ -83.730802, 32.432953 ], [ -83.730639, 32.431485 ], [ -83.730682, 32.431135 ], [ -83.730702, 32.431094 ], [ -83.730754, 32.431056 ], [ -83.730887, 32.431026 ], [ -83.731005, 32.431026 ], [ -83.731339, 32.431136 ], [ -83.732352, 32.431386 ], [ -83.732313, 32.431451 ], [ -83.732301, 32.431585 ], [ -83.732332, 32.432149 ], [ -83.732358, 32.432283 ], [ -83.732445, 32.432503 ], [ -83.732551, 32.432709 ], [ -83.73274, 32.432916 ], [ -83.732784, 32.43294 ], [ -83.732851, 32.432949 ], [ -83.732983, 32.432923 ], [ -83.733242, 32.432814 ], [ -83.733349, 32.432738 ], [ -83.73345, 32.432634 ], [ -83.733521, 32.432512 ], [ -83.733813, 32.431709 ], [ -83.733867, 32.431638 ], [ -83.733986, 32.43154 ], [ -83.734067, 32.431487 ], [ -83.734162, 32.431453 ], [ -83.735244, 32.431176 ], [ -83.735244, 32.4313 ], [ -83.735272, 32.431491 ], [ -83.735264, 32.431632 ], [ -83.735125, 32.431925 ], [ -83.735056, 32.432153 ], [ -83.734925, 32.432925 ], [ -83.734731, 32.432912 ], [ -83.734658, 32.432931 ], [ -83.734596, 32.432973 ], [ -83.734511, 32.433086 ], [ -83.734445, 32.43333 ], [ -83.734378, 32.4334 ], [ -83.734282, 32.433446 ], [ -83.734161, 32.433473 ], [ -83.733986, 32.433475 ], [ -83.733723, 32.433319 ], [ -83.733646, 32.433294 ], [ -83.733545, 32.433283 ], [ -83.733487, 32.433287 ], [ -83.733437, 32.433309 ], [ -83.733317, 32.433445 ], [ -83.733307, 32.433542 ], [ -83.733347, 32.433743 ], [ -83.733626, 32.43419 ], [ -83.733419, 32.434416 ], [ -83.733335, 32.434604 ], [ -83.733306, 32.434719 ], [ -83.733351, 32.4349 ], [ -83.733588, 32.43528 ], [ -83.733573, 32.435284 ] ] ] } },
{ "type": "Feature", "properties": { "series": "Greenville", "musym": "GqB", "muname": "Greenville sandy clay loam, 2 to 5 percent slopes", "fill": "#E64C00" }, "geometry": { "type": "Polygon", "coordinates": [ [ [ -83.7268, 32.435796 ], [ -83.726841, 32.435606 ], [ -83.726802, 32.435311 ], [ -83.726746, 32.435184 ], [ -83.726576, 32.434988 ], [ -83.726489, 32.434945 ], [ -83.72629, 32.43489 ], [ -83.725954, 32.434846 ], [ -83.725832, 32.434846 ], [ -83.72573, 32.434894 ], [ -83.725589, 32.434992 ], [ -83.725331, 32.435289 ], [ -83.725327, 32.435007 ], [ -83.725388, 32.434864 ], [ -83.725456, 32.434763 ], [ -83.726067, 32.434419 ], [ -83.726484, 32.434565 ], [ -83.72702, 32.434867 ], [ -83.727061, 32.434918 ], [ -83.727066, 32.435019 ], [ -83.727035, 32.435323 ], [ -83.726964, 32.435631 ], [ -83.7269, 32.435777 ], [ -83.726792, 32.435927 ], [ -83.726727, 32.435992 ], [ -83.7268, 32.435796 ] ] ] } },
{ "type": "Feature", "properties": { "series": "Orangeburg", "musym": "OgA", "muname": "Orangeburg loamy fine sand, 0 to 2 percent slopes", "fill": "#E69800" }, "geometry": { "type": "Polygon", "coordinates": [ [ [ -83.732626, 32.436052 ], [ -83.732383, 32.435965 ], [ -83.73173, 32.435884 ], [ -83.731559, 32.435825 ], [ -83.731456, 32.435737 ], [ -83.731259, 32.435464 ], [ -83.731081, 32.435037 ], [ -83.731368, 32.435069 ], [ -83.731489, 32.435063 ], [ -83.731946, 32.434966 ], [ -83.732415, 32.434819 ], [ -83.732655, 32.435121 ], [ -83.732822, 32.435378 ], [ -83.732818, 32.436078 ], [ -83.732626, 32.436052 ] ] ] } },
{ "type": "Feature", "properties": { "series": "Greenville", "musym": "GpB3", "muname": "Greenville clay loam, 2 to 5 percent slopes, severely eroded", "fill": "#E64C00" }, "geometry": { "type": "Polygon", "coordinates": [ [ [ -83.726317, 32.436087 ], [ -83.725849, 32.436028 ], [ -83.7254, 32.435877 ], [ -83.725331, 32.435289 ], [ -83.725589, 32.434992 ], [ -83.725814, 32.434851 ], [ -83.725912, 32.434843 ], [ -83.726228, 32.434879 ], [ -83.726508, 32.434952 ], [ -83.726616, 32.435026 ], [ -83.726782, 32.435246 ], [ -83.72683, 32.435445 ], [ -83.726841, 32.435624 ], [ -83.7268, 32.435796 ], [ -83.726727, 32.435992 ], [ -83.726479, 32.43607 ], [ -83.726317, 32.436087 ] ] ] } },
{ "type": "Feature", "properties": { "series": "Leefield", "musym": "LsA", "muname": "Leefield loamy sand, 0 to 2 percent slopes", "fill": "#F5B05C" }, "geometry": { "type": "Polygon", "coordinates": [ [ [ -83.733608, 32.436134 ], [ -83.733519, 32.436118 ], [ -83.732818, 32.436078 ], [ -83.732822, 32.435378 ], [ -83.732655, 32.435121 ], [ -83.732415, 32.434819 ], [ -83.732533, 32.434883 ], [ -83.733511, 32.435263 ], [ -83.733573, 32.435284 ], [ -83.733586, 32.435277 ], [ -83.733608, 32.435372 ], [ -83.73353, 32.435788 ], [ -83.733608, 32.436061 ], [ -83.733631, 32.436109 ], [ -83.733691, 32.436174 ], [ -83.733608, 32.436134 ] ] ] } },
{ "type": "Feature", "properties": { "series": "Lucy", "musym": "LcB", "muname": "Lucy sand, 0 to 5 percent slopes", "fill": "#F57A7A" }, "geometry": { "type": "Polygon", "coordinates": [ [ [ -83.730451, 32.436525 ], [ -83.730319, 32.436492 ], [ -83.730222, 32.436437 ], [ -83.730188, 32.436363 ], [ -83.730164, 32.436216 ], [ -83.730187, 32.436116 ], [ -83.730339, 32.435734 ], [ -83.730379, 32.435686 ], [ -83.730444, 32.435675 ], [ -83.730598, 32.43569 ], [ -83.730698, 32.435714 ], [ -83.730992, 32.435821 ], [ -83.731073, 32.435869 ], [ -83.731265, 32.436169 ], [ -83.731336, 32.436469 ], [ -83.731326, 32.436504 ], [ -83.731266, 32.436522 ], [ -83.730451, 32.436525 ] ] ] } },
{ "type": "Feature", "properties": { "series": "Greenville", "musym": "GsB", "muname": "Greenville fine sandy loam, 2 to 5 percent slopes", "fill": "#E64C00" }, "geometry": { "type": "Polygon", "coordinates": [ [ [ -83.728811, 32.437004 ], [ -83.728632, 32.436912 ], [ -83.728508, 32.436821 ], [ -83.728486, 32.436744 ], [ -83.728509, 32.436586 ], [ -83.728604, 32.436417 ], [ -83.728673, 32.43634 ], [ -83.728888, 32.436286 ], [ -83.729091, 32.436272 ], [ -83.729584, 32.436478 ], [ -83.730071, 32.436604 ], [ -83.729798, 32.436637 ], [ -83.729659, 32.436698 ], [ -83.729474, 32.436854 ], [ -83.729333, 32.437046 ], [ -83.728811, 32.437004 ] ] ] } },
{ "type": "Feature", "properties": { "series": "Greenville", "musym": "GsB", "muname": "Greenville fine sandy loam, 2 to 5 percent slopes", "fill": "#E64C00" }, "geometry": { "type": "Polygon", "coordinates": [ [ [ -83.730391, 32.437461 ], [ -83.72978, 32.437342 ], [ -83.729648, 32.437297 ], [ -83.729397, 32.437085 ], [ -83.729333, 32.437046 ], [ -83.729426, 32.436905 ], [ -83.729602, 32.436735 ], [ -83.729733, 32.43666 ], [ -83.729834, 32.43663 ], [ -83.730071, 32.436604 ], [ -83.730669, 32.436813 ], [ -83.73075, 32.436886 ], [ -83.730884, 32.437059 ], [ -83.730908, 32.437118 ], [ -83.730894, 32.437182 ], [ -83.730805, 32.437341 ], [ -83.730742, 32.437402 ], [ -83.730551, 32.437447 ], [ -83.730391, 32.437461 ] ] ] } },
{ "type": "Feature", "properties": { "series": "Greenville", "musym": "GsB", "muname": "Greenville fine sandy loam, 2 to 5 percent slopes", "fill": "#E64C00" }, "geometry": { "type": "Polygon", "coordinates": [ [ [ -83.734779, 32.437566 ], [ -83.734234, 32.437521 ], [ -83.734065, 32.437482 ], [ -83.733956, 32.437425 ], [ -83.733837, 32.437313 ], [ -83.73378, 32.437222 ], [ -83.733739, 32.436881 ], [ -83.733703, 32.436742 ], [ -83.733627, 32.436647 ], [ -83.73355, 32.436607 ], [ -83.733409, 32.436593 ], [ -83.731802, 32.436593 ], [ -83.73153, 32.436558 ], [ -83.731381, 32.436518 ], [ -83.731336, 32.436455 ], [ -83.731265, 32.436169 ], [ -83.731138, 32.435954 ], [ -83.731064, 32.435852 ], [ -83.730981, 32.435774 ], [ -83.730629, 32.435525 ], [ -83.730549, 32.435257 ], [ -83.730497, 32.435194 ], [ -83.729725, 32.434902 ], [ -83.728859, 32.434883 ], [ -83.728921, 32.434568 ], [ -83.728931, 32.434283 ], [ -83.728954, 32.434108 ], [ -83.730065, 32.434183 ], [ -83.73018, 32.434217 ], [ -83.730404, 32.434313 ], [ -83.730686, 32.434381 ], [ -83.730885, 32.434468 ], [ -83.730938, 32.434513 ], [ -83.730983, 32.434602 ], [ -83.731071, 32.435007 ], [ -83.731242, 32.435434 ], [ -83.731456, 32.435737 ], [ -83.731531, 32.435806 ], [ -83.731606, 32.435849 ], [ -83.731768, 32.435891 ], [ -83.732383, 32.435965 ], [ -83.732608, 32.436047 ], [ -83.732702, 32.436067 ], [ -83.733428, 32.436111 ], [ -83.733608, 32.436134 ], [ -83.733908, 32.436312 ], [ -83.734333, 32.436412 ], [ -83.734748, 32.436568 ], [ -83.734852, 32.436621 ], [ -83.735007, 32.43673 ], [ -83.73533, 32.436887 ], [ -83.735395, 32.436956 ], [ -83.735414, 32.437105 ], [ -83.73539, 32.437233 ], [ -83.735315, 32.437357 ], [ -83.735223, 32.437438 ], [ -83.735034, 32.437533 ], [ -83.734939, 32.437561 ], [ -83.734779, 32.437566 ] ] ] } },
{ "type": "Feature", "properties": { "series": "Faceville", "musym": "FoA", "muname": "Faceville fine sandy loam, 0 to 2 percent slopes", "fill": "#FF5500" }, "geometry": { "type": "Polygon", "coordinates": [ [ [ -83.725482, 32.436527 ], [ -83.7254, 32.435877 ], [ -83.725849, 32.436028 ], [ -83.726337, 32.436088 ], [ -83.726479, 32.43607 ], [ -83.726694, 32.436009 ], [ -83.726755, 32.435969 ], [ -83.726825, 32.435883 ], [ -83.726943, 32.435698 ], [ -83.727008, 32.435443 ], [ -83.727062, 32.435073 ], [ -83.727068, 32.434966 ], [ -83.727055, 32.434903 ], [ -83.726972, 32.434835 ], [ -83.726502, 32.434574 ], [ -83.726067, 32.434419 ], [ -83.726215, 32.434344 ], [ -83.72666, 32.434159 ], [ -83.726935, 32.433968 ], [ -83.726988, 32.433916 ], [ -83.727022, 32.433852 ], [ -83.727095, 32.433642 ], [ -83.727104, 32.43357 ], [ -83.727076, 32.433552 ], [ -83.727006, 32.433553 ], [ -83.726578, 32.433615 ], [ -83.72631, 32.433741 ], [ -83.726002, 32.433925 ], [ -83.725656, 32.434057 ], [ -83.724891, 32.434447 ], [ -83.724778, 32.434467 ], [ -83.724477, 32.434403 ], [ -83.72438, 32.434408 ], [ -83.723566, 32.434779 ], [ -83.723147, 32.434399 ], [ -83.723428, 32.434133 ], [ -83.723908, 32.433824 ], [ -83.724058, 32.433941 ], [ -83.724262, 32.434046 ], [ -83.724542, 32.434217 ], [ -83.72461, 32.434224 ], [ -83.724681, 32.434206 ], [ -83.724768, 32.434157 ], [ -83.724822, 32.434107 ], [ -83.724842, 32.434013 ], [ -83.724817, 32.433892 ], [ -83.724659, 32.433609 ], [ -83.724522, 32.433412 ], [ -83.725248, 32.433291 ], [ -83.725458, 32.433278 ], [ -83.726133, 32.433279 ], [ -83.726837, 32.43334 ], [ -83.727015, 32.433388 ], [ -83.727592, 32.433614 ], [ -83.727884, 32.433858 ], [ -83.727953, 32.433942 ], [ -83.72804, 32.434175 ], [ -83.728286, 32.434568 ], [ -83.728379, 32.434698 ], [ -83.728459, 32.434765 ], [ -83.728622, 32.434835 ], [ -83.728792, 32.434878 ], [ -83.729725, 32.434902 ], [ -83.730445, 32.435168 ], [ -83.730512, 32.435204 ], [ -83.730542, 32.435242 ], [ -83.730629, 32.435525 ], [ -83.730907, 32.435713 ], [ -83.731038, 32.435825 ], [ -83.731107, 32.435909 ], [ -83.73101, 32.435829 ], [ -83.730698, 32.435714 ], [ -83.73052, 32.435679 ], [ -83.730393, 32.435681 ], [ -83.730356, 32.435707 ], [ -83.730332, 32.43575 ], [ -83.730187, 32.436116 ], [ -83.730165, 32.436199 ], [ -83.73017, 32.436281 ], [ -83.730137, 32.436215 ], [ -83.730031, 32.436187 ], [ -83.728783, 32.436105 ], [ -83.728384, 32.436096 ], [ -83.72829, 32.436107 ], [ -83.728238, 32.436165 ], [ -83.728131, 32.43651 ], [ -83.72809, 32.436587 ], [ -83.728014, 32.436636 ], [ -83.727479, 32.436894 ], [ -83.727294, 32.437003 ], [ -83.727057, 32.437265 ], [ -83.726896, 32.437564 ], [ -83.726839, 32.437631 ], [ -83.726776, 32.437664 ], [ -83.725482, 32.436527 ] ] ] } },
{ "type": "Feature", "properties": { "series": "Orangeburg", "musym": "OgA", "muname": "Orangeburg loamy fine sand, 0 to 2 percent slopes", "fill": "#E69800" }, "geometry": { "type": "Polygon", "coordinates": [ [ [ -83.731269, 32.438171 ], [ -83.731042, 32.437918 ], [ -83.730922, 32.437854 ], [ -83.730507, 32.437729 ], [ -83.729552, 32.437616 ], [ -83.729064, 32.437535 ], [ -83.728718, 32.437403 ], [ -83.728405, 32.437222 ], [ -83.728346, 32.437174 ], [ -83.728309, 32.437114 ], [ -83.728094, 32.436581 ], [ -83.728264, 32.436124 ], [ -83.728307, 32.436103 ], [ -83.728363, 32.436097 ], [ -83.728783, 32.436105 ], [ -83.730107, 32.4362 ], [ -83.730162, 32.436252 ], [ -83.730212, 32.436424 ], [ -83.730267, 32.436469 ], [ -83.730412, 32.43652 ], [ -83.730709, 32.436519 ], [ -83.730787, 32.436552 ], [ -83.731169, 32.437174 ], [ -83.731608, 32.437532 ], [ -83.73221, 32.437723 ], [ -83.732942, 32.437763 ], [ -83.733701, 32.437888 ], [ -83.733936, 32.437971 ], [ -83.734024, 32.438017 ], [ -83.734327, 32.438327 ], [ -83.733352, 32.438322 ], [ -83.731535, 32.438384 ], [ -83.731269, 32.438171 ] ], [ [ -83.730452, 32.437461 ], [ -83.73067, 32.437425 ], [ -83.730757, 32.437393 ], [ -83.730815, 32.437326 ], [ -83.7309, 32.437166 ], [ -83.730908, 32.437118 ], [ -83.730884, 32.437059 ], [ -83.73075, 32.436886 ], [ -83.730669, 32.436813 ], [ -83.730095, 32.436611 ], [ -83.729584, 32.436478 ], [ -83.729091, 32.436272 ], [ -83.728991, 32.43627 ], [ -83.728764, 32.436308 ], [ -83.728689, 32.436331 ], [ -83.728635, 32.436374 ], [ -83.728515, 32.43657 ], [ -83.728486, 32.436744 ], [ -83.728508, 32.436821 ], [ -83.728632, 32.436912 ], [ -83.72883, 32.437009 ], [ -83.729237, 32.437029 ], [ -83.729333, 32.437046 ], [ -83.729412, 32.437097 ], [ -83.729616, 32.437276 ], [ -83.72972, 32.437327 ], [ -83.73031, 32.43745 ], [ -83.730452, 32.437461 ] ] ] } },
{ "type": "Feature", "properties": { "series": "Lucy", "musym": "LcB", "muname": "Lucy sand, 0 to 5 percent slopes", "fill": "#F57A7A" }, "geometry": { "type": "Polygon", "coordinates": [ [ [ -83.73011, 32.438432 ], [ -83.729973, 32.43833 ], [ -83.729384, 32.43807 ], [ -83.729071, 32.437979 ], [ -83.728771, 32.437917 ], [ -83.72861, 32.437915 ], [ -83.728075, 32.438058 ], [ -83.727986, 32.438065 ], [ -83.727928, 32.438028 ], [ -83.727852, 32.437945 ], [ -83.727759, 32.437825 ], [ -83.727641, 32.437627 ], [ -83.727578, 32.437579 ], [ -83.727464, 32.437579 ], [ -83.727284, 32.437611 ], [ -83.726953, 32.437815 ], [ -83.726776, 32.437664 ], [ -83.726877, 32.437594 ], [ -83.727047, 32.43728 ], [ -83.727294, 32.437003 ], [ -83.72769, 32.436784 ], [ -83.728031, 32.436628 ], [ -83.728094, 32.436581 ], [ -83.728335, 32.43716 ], [ -83.728421, 32.437233 ], [ -83.7287, 32.437394 ], [ -83.729084, 32.437539 ], [ -83.729552, 32.437616 ], [ -83.730507, 32.437729 ], [ -83.730922, 32.437854 ], [ -83.731042, 32.437918 ], [ -83.731296, 32.438198 ], [ -83.731535, 32.438384 ], [ -83.73011, 32.438432 ] ] ] } },
{ "type": "Feature", "properties": { "series": "Faceville", "musym": "FoA", "muname": "Faceville fine sandy loam, 0 to 2 percent slopes", "fill": "#FF5500" }, "geometry": { "type": "Polygon", "coordinates": [ [ [ -83.735042, 32.438365 ], [ -83.734327, 32.438327 ], [ -83.734024, 32.438017 ], [ -83.733936, 32.437971 ], [ -83.733701, 32.437888 ], [ -83.732942, 32.437763 ], [ -83.73221, 32.437723 ], [ -83.731662, 32.437556 ], [ -83.731527, 32.437476 ], [ -83.731182, 32.437188 ], [ -83.730809, 32.436579 ], [ -83.73076, 32.436532 ], [ -83.730698, 32.436518 ], [ -83.731266, 32.436522 ], [ -83.731326, 32.436504 ], [ -83.731336, 32.436454 ], [ -83.731368, 32.436509 ], [ -83.731415, 32.436533 ], [ -83.731763, 32.436591 ], [ -83.733409, 32.436593 ], [ -83.73355, 32.436607 ], [ -83.733641, 32.436659 ], [ -83.73371, 32.436758 ], [ -83.733744, 32.436916 ], [ -83.733769, 32.437189 ], [ -83.733837, 32.437313 ], [ -83.733942, 32.437414 ], [ -83.734032, 32.43747 ], [ -83.734155, 32.437506 ], [ -83.734353, 32.437538 ], [ -83.734739, 32.437564 ], [ -83.73492, 32.437563 ], [ -83.735034, 32.437533 ], [ -83.735223, 32.437438 ], [ -83.735326, 32.437343 ], [ -83.735404, 32.437186 ], [ -83.735407, 32.437002 ], [ -83.735388, 32.436941 ], [ -83.735357, 32.436906 ], [ -83.735757, 32.436968 ], [ -83.735978, 32.43702 ], [ -83.73634, 32.43723 ], [ -83.736641, 32.437318 ], [ -83.736673, 32.438517 ], [ -83.735042, 32.438365 ] ] ] } },
{ "type": "Feature", "properties": { "series": "Troup", "musym": "TrB", "muname": "Troup sand, 0 to 6 percent slopes", "fill": "#A87000" }, "geometry": { "type": "Polygon", "coordinates": [ [ [ -83.726953, 32.437815 ], [ -83.727284, 32.437611 ], [ -83.727464, 32.437579 ], [ -83.727578, 32.437579 ], [ -83.727641, 32.437627 ], [ -83.727759, 32.437825 ], [ -83.727852, 32.437945 ], [ -83.727928, 32.438028 ], [ -83.727986, 32.438065 ], [ -83.728075, 32.438058 ], [ -83.72861, 32.437915 ], [ -83.728691, 32.437908 ], [ -83.728811, 32.437924 ], [ -83.729131, 32.437995 ], [ -83.729422, 32.438084 ], [ -83.729973, 32.43833 ], [ -83.730056, 32.43838 ], [ -83.730118, 32.43844 ], [ -83.728696, 32.438489 ], [ -83.728376, 32.438483 ], [ -83.728076, 32.438456 ], [ -83.727775, 32.438517 ], [ -83.726953, 32.437815 ] ] ] } },
{ "type": "Feature", "properties": { "series": "HTM", "musym": "HTM", "muname": "Human Transported Material", "fill": "#D9D9D9" }, "geometry": { "type": "Polygon", "coordinates": [ [ [ -83.735537, 32.434057 ], [ -83.735278, 32.433966 ], [ -83.735163, 32.433904 ], [ -83.735114, 32.433815 ], [ -83.735078, 32.433662 ], [ -83.735083, 32.433351 ], [ -83.735202, 32.432837 ], [ -83.735229, 32.432796 ], [ -83.735271, 32.43277 ], [ -83.735457, 32.432726 ], [ -83.735687, 32.432742 ], [ -83.735922, 32.432802 ], [ -83.735884, 32.432838 ], [ -83.735867, 32.432919 ], [ -83.73583, 32.433487 ], [ -83.735841, 32.433816 ], [ -83.73563, 32.434027 ], [ -83.735587, 32.434053 ], [ -83.735537, 32.434057 ] ] ] } },
{ "type": "Feature", "properties": { "series": "HTM", "musym": "HTM", "muname": "Human Transported Material", "fill": "#D9D9D9" }, "geometry": { "type": "Polygon", "coordinates": [ [ [ -83.724576, 32.434223 ], [ -83.72449, 32.434195 ], [ -83.724262, 32.434046 ], [ -83.724058, 32.433941 ], [ -83.723908, 32.433824 ], [ -83.724148, 32.433546 ], [ -83.724253, 32.433498 ], [ -83.724522, 32.433412 ], [ -83.724769, 32.433796 ], [ -83.724824, 32.433908 ], [ -83.724841, 32.433995 ], [ -83.724834, 32.434079 ], [ -83.724798, 32.434133 ], [ -83.724681, 32.434206 ], [ -83.724576, 32.434223 ] ] ] } },
{ "type": "Feature", "properties": { "series": "HTM", "musym": null, "muname": null, "fill": "#D9D9D9" }, "geometry": { "type": "Polygon", "coordinates": [ ] } },
{ "type": "Feature", "properties": { "series": "HTM", "musym": null, "muname": null, "fill": "#D9D9D9" }, "geometry": { "type": "Polygon", "coordinates": [ ] } },
{ "type": "Feature", "properties": { "series": "HTM", "musym": null, "muname": null, "fill": "#D9D9D9" }, "geometry": { "type": "Polygon", "coordinates": [ ] } },
{ "type": "Feature", "properties": { "series": "HTM", "musym": null, "muname": null, "fill": "#D9D9D9" }, "geometry": { "type": "Polygon", "coordinates": [ ] } },
{ "type": "Feature", "properties": { "series": "HTM", "musym": null, "muname": null, "fill": "#D9D9D9" }, "geometry": { "type": "Polygon", "coordinates": [ ] } },
{ "type": "Feature", "properties": { "series": "HTM", "musym": null, "muname": null, "fill": "#D9D9D9" }, "geometry": { "type": "Polygon", "coordinates": [ ] } },
{ "type": "Feature", "properties": { "series": "HTM", "musym": null, "muname": null, "fill": "#D9D9D9" }, "geometry": { "type": "Polygon", "coordinates": [ ] } },
{ "type": "Feature", "properties": { "series": "HTM", "musym": null, "muname": null, "fill": "#D9D9D9" }, "geometry": { "type": "Polygon", "coordinates": [ ] } },
{ "type": "Feature", "properties": { "series": "HTM", "musym": "HTM", "muname": "Human Transported Material", "fill": "#D9D9D9" }, "geometry": { "type": "Polygon", "coordinates": [ [ [ -83.723566, 32.434779 ], [ -83.72438, 32.434408 ], [ -83.724477, 32.434403 ], [ -83.724778, 32.434467 ], [ -83.724873, 32.434454 ], [ -83.725656, 32.434057 ], [ -83.726002, 32.433925 ], [ -83.72631, 32.433741 ], [ -83.726541, 32.433629 ], [ -83.726697, 32.43359 ], [ -83.727006, 32.433553 ], [ -83.727089, 32.433555 ], [ -83.727104, 32.43357 ], [ -83.727103, 32.43361 ], [ -83.727015, 32.433869 ], [ -83.726976, 32.43393 ], [ -83.726888, 32.434003 ], [ -83.72666, 32.434159 ], [ -83.726161, 32.434369 ], [ -83.725535, 32.434708 ], [ -83.725433, 32.434789 ], [ -83.725336, 32.434975 ], [ -83.725321, 32.435093 ], [ -83.725336, 32.435357 ], [ -83.725424, 32.436137 ], [ -83.725482, 32.436527 ], [ -83.723566, 32.434779 ] ] ] } },
{ "type": "Feature", "properties": { "series": "HTM", "musym": "HTM", "muname": "Human Transported Material", "fill": "#D9D9D9" }, "geometry": { "type": "Polygon", "coordinates": [ [ [ -83.736322, 32.437222 ], [ -83.735959, 32.437013 ], [ -83.735715, 32.436961 ], [ -83.735357, 32.436906 ], [ -83.735007, 32.43673 ], [ -83.734852, 32.436621 ], [ -83.734748, 32.436568 ], [ -83.734333, 32.436412 ], [ -83.733908, 32.436312 ], [ -83.733691, 32.436174 ], [ -83.733615, 32.436078 ], [ -83.73353, 32.435788 ], [ -83.733606, 32.435388 ], [ -83.733604, 32.43531 ], [ -83.733358, 32.434915 ], [ -83.733321, 32.434822 ], [ -83.733306, 32.434725 ], [ -83.733341, 32.434588 ], [ -83.733419, 32.434416 ], [ -83.733626, 32.43419 ], [ -83.733984, 32.434264 ], [ -83.734407, 32.434529 ], [ -83.735124, 32.434521 ], [ -83.736336, 32.434634 ], [ -83.736455, 32.434621 ], [ -83.736564, 32.434581 ], [ -83.736641, 32.437318 ], [ -83.736322, 32.437222 ] ] ] } }
]
}
