{
"type": "FeatureCollection",
"name": "ssurgo_matchup",
"crs": { "type": "name", "properties": { "name": "urn:ogc:def:crs:OGC:1.3:CRS84" } },
"xy_coordinate_resolution": 1e-06,
"features": [
{ "type": "Feature", "properties": { "match": "Disagree", "fill": "#E8710A", "ssurgo_musym": "LcB", "ssurgo_unit": "Lucy sand, 0 to 5 percent slopes", "ssurgo_series": "Lucy", "field_series": null, "drainage": "Well drained", "slope": "0 to 5 percent" }, "geometry": { "type": "Polygon", "coordinates": [ ] } },
{ "type": "Feature", "properties": { "match": "Disagree", "fill": "#E8710A", "ssurgo_musym": "LcC", "ssurgo_unit": "Lucy sand, 5 to 8 percent slopes", "ssurgo_series": "Lucy", "field_series": "Greenville", "drainage": "Well drained", "slope": "5 to 8 percent" }, "geometry": { "type": "Polygon", "coordinates": [ [ [ -83.723371, 32.433521 ], [ -83.723455, 32.433515 ], [ -83.723593, 32.433542 ], [ -83.72369, 32.433659 ], [ -83.723773, 32.433897 ], [ -83.723778, 32.433921 ], [ -83.723519, 32.43408 ], [ -83.723467, 32.433755 ], [ -83.723431, 32.433637 ], [ -83.723371, 32.433521 ] ] ] } },
{ "type": "Feature", "properties": { "match": "Disagree", "fill": "#E8710A", "ssurgo_musym": "LcC", "ssurgo_unit": "Lucy sand, 5 to 8 percent slopes", "ssurgo_series": "Lucy", "field_series": "Greenville", "drainage": "Well drained", "slope": "5 to 8 percent" }, "geometry": { "type": "Polygon", "coordinates": [ [ [ -83.722796, 32.434083 ], [ -83.722501, 32.433815 ], [ -83.722535, 32.433777 ], [ -83.722651, 32.433708 ], [ -83.722827, 32.433634 ], [ -83.723055, 32.433565 ], [ -83.723371, 32.433521 ], [ -83.723431, 32.433637 ], [ -83.723467, 32.433755 ], [ -83.723519, 32.43408 ], [ -83.723402, 32.434163 ], [ -83.723218, 32.434339 ], [ -83.723072, 32.43423 ], [ -83.722796, 32.434083 ] ] ] } },
{ "type": "Feature", "properties": { "match": "Disagree", "fill": "#E8710A", "ssurgo_musym": "LcC", "ssurgo_unit": "Lucy sand, 5 to 8 percent slopes", "ssurgo_series": "Lucy", "field_series": null, "drainage": "Well drained", "slope": "5 to 8 percent" }, "geometry": { "type": "Polygon", "coordinates": [ [ [ -83.724696, 32.435819 ], [ -83.724375, 32.435456 ], [ -83.724118, 32.435288 ], [ -83.72357, 32.434785 ], [ -83.723859, 32.434648 ], [ -83.723932, 32.43492 ], [ -83.724034, 32.435006 ], [ -83.724209, 32.435092 ], [ -83.724342, 32.435137 ], [ -83.724764, 32.435236 ], [ -83.724935, 32.435311 ], [ -83.725049, 32.435385 ], [ -83.725204, 32.435538 ], [ -83.7253, 32.435677 ], [ -83.725415, 32.436007 ], [ -83.725423, 32.436101 ], [ -83.725251, 32.436142 ], [ -83.725048, 32.436142 ], [ -83.724696, 32.435819 ] ] ] } },
{ "type": "Feature", "properties": { "match": "Disagree", "fill": "#E8710A", "ssurgo_musym": "LcC", "ssurgo_unit": "Lucy sand, 5 to 8 percent slopes", "ssurgo_series": "Lucy", "field_series": "Faceville", "drainage": "Well drained", "slope": "5 to 8 percent" }, "geometry": { "type": "MultiPolygon", "coordinates": [ [ [ [ -83.723354, 32.434496 ], [ -83.723218, 32.434339 ], [ -83.723432, 32.434139 ], [ -83.723778, 32.433921 ], [ -83.723829, 32.434178 ], [ -83.723859, 32.434648 ], [ -83.72357, 32.434785 ], [ -83.723435, 32.434661 ], [ -83.723354, 32.434496 ] ] ], [ [ [ -83.725446, 32.436096 ], [ -83.725423, 32.436101 ], [ -83.725415, 32.436007 ], [ -83.725446, 32.436096 ] ] ] ] } },
{ "type": "Feature", "properties": { "match": "Agree", "fill": "#1B7837", "ssurgo_musym": "OgA", "ssurgo_unit": "Orangeburg loamy fine sand, 0 to 2 percent slopes", "ssurgo_series": "Orangeburg", "field_series": "Orangeburg", "drainage": "Well drained", "slope": "0 to 2 percent" }, "geometry": { "type": "Polygon", "coordinates": [ [ [ -83.723425, 32.431063 ], [ -83.723555, 32.431004 ], [ -83.723513, 32.431139 ], [ -83.723425, 32.431063 ] ] ] } },
{ "type": "Feature", "properties": { "match": "Disagree", "fill": "#E8710A", "ssurgo_musym": "OgA", "ssurgo_unit": "Orangeburg loamy fine sand, 0 to 2 percent slopes", "ssurgo_series": "Orangeburg", "field_series": "Faceville", "drainage": "Well drained", "slope": "0 to 2 percent" }, "geometry": { "type": "Polygon", "coordinates": [ [ [ -83.721638, 32.432282 ], [ -83.722384, 32.431688 ], [ -83.722834, 32.431381 ], [ -83.723154, 32.431198 ], [ -83.723425, 32.431063 ], [ -83.723513, 32.431139 ], [ -83.723467, 32.431389 ], [ -83.72349, 32.431543 ], [ -83.723631, 32.431965 ], [ -83.723428, 32.432118 ], [ -83.723338, 32.432154 ], [ -83.723018, 32.432216 ], [ -83.722878, 32.432287 ], [ -83.722682, 32.432236 ], [ -83.722445, 32.4322 ], [ -83.722255, 32.432211 ], [ -83.721824, 32.432291 ], [ -83.721638, 32.432282 ] ] ] } },
{ "type": "Feature", "properties": { "match": "Disagree", "fill": "#E8710A", "ssurgo_musym": "OgA", "ssurgo_unit": "Orangeburg loamy fine sand, 0 to 2 percent slopes", "ssurgo_series": "Orangeburg", "field_series": "Greenville", "drainage": "Well drained", "slope": "0 to 2 percent" }, "geometry": { "type": "Polygon", "coordinates": [ [ [ -83.722878, 32.432287 ], [ -83.723018, 32.432216 ], [ -83.723394, 32.432136 ], [ -83.723631, 32.431965 ], [ -83.723643, 32.43213 ], [ -83.723612, 32.432284 ], [ -83.723521, 32.432386 ], [ -83.72343, 32.432409 ], [ -83.723201, 32.432371 ], [ -83.722878, 32.432287 ] ] ] } },
{ "type": "Feature", "properties": { "match": "Disagree", "fill": "#E8710A", "ssurgo_musym": "OgA", "ssurgo_unit": "Orangeburg loamy fine sand, 0 to 2 percent slopes", "ssurgo_series": "Orangeburg", "field_series": null, "drainage": "Well drained", "slope": "0 to 2 percent" }, "geometry": { "type": "Polygon", "coordinates": [ ] } },
{ "type": "Feature", "properties": { "match": "Disagree", "fill": "#E8710A", "ssurgo_musym": "OgA", "ssurgo_unit": "Orangeburg loamy fine sand, 0 to 2 percent slopes", "ssurgo_series": "Orangeburg", "field_series": null, "drainage": "Well drained", "slope": "0 to 2 percent" }, "geometry": { "type": "Polygon", "coordinates": [ ] } },
{ "type": "Feature", "properties": { "match": "Disagree", "fill": "#E8710A", "ssurgo_musym": "OgA", "ssurgo_unit": "Orangeburg loamy fine sand, 0 to 2 percent slopes", "ssurgo_series": "Orangeburg", "field_series": null, "drainage": "Well drained", "slope": "0 to 2 percent" }, "geometry": { "type": "Polygon", "coordinates": [ ] } },
{ "type": "Feature", "properties": { "match": "Disagree", "fill": "#E8710A", "ssurgo_musym": "OgA", "ssurgo_unit": "Orangeburg loamy fine sand, 0 to 2 percent slopes", "ssurgo_series": "Orangeburg", "field_series": null, "drainage": "Well drained", "slope": "0 to 2 percent" }, "geometry": { "type": "Polygon", "coordinates": [ ] } },
{ "type": "Feature", "properties": { "match": "Disagree", "fill": "#E8710A", "ssurgo_musym": "OgA", "ssurgo_unit": "Orangeburg loamy fine sand, 0 to 2 percent slopes", "ssurgo_series": "Orangeburg", "field_series": "Lucy", "drainage": "Well drained", "slope": "0 to 2 percent" }, "geometry": { "type": "Polygon", "coordinates": [ [ [ -83.730216, 32.43643 ], [ -83.730168, 32.436222 ], [ -83.730234, 32.436015 ], [ -83.730467, 32.436169 ], [ -83.730555, 32.436191 ], [ -83.730784, 32.436188 ], [ -83.731123, 32.436529 ], [ -83.730436, 32.436529 ], [ -83.730288, 32.436483 ], [ -83.730216, 32.43643 ] ] ] } },
{ "type": "Feature", "properties": { "match": "Disagree", "fill": "#E8710A", "ssurgo_musym": "OgA", "ssurgo_unit": "Orangeburg loamy fine sand, 0 to 2 percent slopes", "ssurgo_series": "Orangeburg", "field_series": null, "drainage": "Well drained", "slope": "0 to 2 percent" }, "geometry": { "type": "Polygon", "coordinates": [ [ [ -83.730216, 32.43643 ], [ -83.730288, 32.436483 ], [ -83.730416, 32.436526 ], [ -83.730702, 32.436525 ], [ -83.730415, 32.436527 ], [ -83.730287, 32.436484 ], [ -83.730216, 32.43643 ] ] ] } },
{ "type": "Feature", "properties": { "match": "Disagree", "fill": "#E8710A", "ssurgo_musym": "OgA", "ssurgo_unit": "Orangeburg loamy fine sand, 0 to 2 percent slopes", "ssurgo_series": "Orangeburg", "field_series": "Greenville", "drainage": "Well drained", "slope": "0 to 2 percent" }, "geometry": { "type": "Polygon", "coordinates": [ [ [ -83.730075, 32.43661 ], [ -83.729802, 32.436643 ], [ -83.729648, 32.436713 ], [ -83.729442, 32.436898 ], [ -83.729337, 32.437052 ], [ -83.729241, 32.437035 ], [ -83.728815, 32.437011 ], [ -83.728552, 32.436864 ], [ -83.728512, 32.436828 ], [ -83.728492, 32.436783 ], [ -83.728513, 32.436592 ], [ -83.728651, 32.436368 ], [ -83.728749, 32.436319 ], [ -83.728995, 32.436277 ], [ -83.729114, 32.436283 ], [ -83.729588, 32.436484 ], [ -83.730075, 32.43661 ] ] ] } },
{ "type": "Feature", "properties": { "match": "Disagree", "fill": "#E8710A", "ssurgo_musym": "OgA", "ssurgo_unit": "Orangeburg loamy fine sand, 0 to 2 percent slopes", "ssurgo_series": "Orangeburg", "field_series": "Greenville", "drainage": "Well drained", "slope": "0 to 2 percent" }, "geometry": { "type": "Polygon", "coordinates": [ [ [ -83.729337, 32.437052 ], [ -83.729442, 32.436898 ], [ -83.729648, 32.436713 ], [ -83.729802, 32.436643 ], [ -83.730075, 32.43661 ], [ -83.730563, 32.436774 ], [ -83.730689, 32.43683 ], [ -83.730868, 32.437036 ], [ -83.730912, 32.43714 ], [ -83.730838, 32.437301 ], [ -83.730761, 32.437399 ], [ -83.730615, 32.437443 ], [ -83.730395, 32.437467 ], [ -83.729686, 32.437321 ], [ -83.72962, 32.437282 ], [ -83.729416, 32.437103 ], [ -83.729337, 32.437052 ] ] ] } },
{ "type": "Feature", "properties": { "match": "Disagree", "fill": "#E8710A", "ssurgo_musym": "OgA", "ssurgo_unit": "Orangeburg loamy fine sand, 0 to 2 percent slopes", "ssurgo_series": "Orangeburg", "field_series": "Faceville", "drainage": "Well drained", "slope": "0 to 2 percent" }, "geometry": { "type": "Polygon", "coordinates": [ [ [ -83.727024, 32.436149 ], [ -83.727368, 32.435624 ], [ -83.727705, 32.435692 ], [ -83.727846, 32.435699 ], [ -83.728028, 32.435661 ], [ -83.728434, 32.435516 ], [ -83.728935, 32.435467 ], [ -83.729407, 32.435561 ], [ -83.729632, 32.43563 ], [ -83.729922, 32.435776 ], [ -83.730234, 32.436015 ], [ -83.730172, 32.436189 ], [ -83.730174, 32.436287 ], [ -83.730141, 32.436221 ], [ -83.730035, 32.436194 ], [ -83.728787, 32.436111 ], [ -83.728387, 32.436102 ], [ -83.728294, 32.436113 ], [ -83.728242, 32.436172 ], [ -83.728135, 32.436516 ], [ -83.728081, 32.436605 ], [ -83.727361, 32.436966 ], [ -83.727284, 32.437022 ], [ -83.727169, 32.437145 ], [ -83.727097, 32.436977 ], [ -83.727053, 32.436704 ], [ -83.727024, 32.436149 ] ] ] } },
{ "type": "Feature", "properties": { "match": "Agree", "fill": "#1B7837", "ssurgo_musym": "OgA", "ssurgo_unit": "Orangeburg loamy fine sand, 0 to 2 percent slopes", "ssurgo_series": "Orangeburg", "field_series": "Orangeburg", "drainage": "Well drained", "slope": "0 to 2 percent" }, "geometry": { "type": "Polygon", "coordinates": [ [ [ -83.731016, 32.437901 ], [ -83.73069, 32.437783 ], [ -83.73047, 32.437728 ], [ -83.729556, 32.437622 ], [ -83.729068, 32.437541 ], [ -83.728722, 32.437409 ], [ -83.728409, 32.437228 ], [ -83.72835, 32.43718 ], [ -83.728313, 32.43712 ], [ -83.728098, 32.436587 ], [ -83.728268, 32.43613 ], [ -83.72831, 32.436109 ], [ -83.728367, 32.436103 ], [ -83.728787, 32.436111 ], [ -83.730111, 32.436206 ], [ -83.730166, 32.436258 ], [ -83.730216, 32.43643 ], [ -83.73027, 32.436476 ], [ -83.730435, 32.43653 ], [ -83.730713, 32.436525 ], [ -83.730791, 32.436558 ], [ -83.731173, 32.43718 ], [ -83.731612, 32.437538 ], [ -83.732214, 32.437729 ], [ -83.732987, 32.437775 ], [ -83.73348, 32.437852 ], [ -83.733519, 32.437904 ], [ -83.732844, 32.438104 ], [ -83.732517, 32.438173 ], [ -83.732088, 32.438196 ], [ -83.731507, 32.438179 ], [ -83.731257, 32.438161 ], [ -83.731016, 32.437901 ] ], [ [ -83.73006, 32.436606 ], [ -83.729588, 32.436484 ], [ -83.729114, 32.436283 ], [ -83.728995, 32.436277 ], [ -83.728749, 32.436319 ], [ -83.728651, 32.436368 ], [ -83.728513, 32.436592 ], [ -83.728492, 32.436783 ], [ -83.728512, 32.436828 ], [ -83.728552, 32.436864 ], [ -83.728815, 32.437011 ], [ -83.729241, 32.437035 ], [ -83.729337, 32.437052 ], [ -83.729416, 32.437103 ], [ -83.72962, 32.437282 ], [ -83.729724, 32.437333 ], [ -83.730395, 32.437467 ], [ -83.730615, 32.437443 ], [ -83.730761, 32.437399 ], [ -83.730857, 32.437269 ], [ -83.730912, 32.437124 ], [ -83.730878, 32.437051 ], [ -83.730742, 32.436879 ], [ -83.730689, 32.43683 ], [ -83.73062, 32.436795 ], [ -83.73006, 32.436606 ] ] ] } },
{ "type": "Feature", "properties": { "match": "Disagree", "fill": "#E8710A", "ssurgo_musym": "OgA", "ssurgo_unit": "Orangeburg loamy fine sand, 0 to 2 percent slopes", "ssurgo_series": "Orangeburg", "field_series": "Lucy", "drainage": "Well drained", "slope": "0 to 2 percent" }, "geometry": { "type": "Polygon", "coordinates": [ [ [ -83.729018, 32.437971 ], [ -83.728474, 32.437865 ], [ -83.727828, 32.437692 ], [ -83.727511, 32.437525 ], [ -83.727169, 32.437145 ], [ -83.727284, 32.437022 ], [ -83.727361, 32.436966 ], [ -83.727748, 32.436764 ], [ -83.728035, 32.436634 ], [ -83.728098, 32.436587 ], [ -83.728339, 32.437166 ], [ -83.728425, 32.437239 ], [ -83.728722, 32.437409 ], [ -83.728989, 32.437517 ], [ -83.729128, 32.437553 ], [ -83.729556, 32.437622 ], [ -83.73047, 32.437728 ], [ -83.730631, 32.437764 ], [ -83.731016, 32.437901 ], [ -83.731257, 32.438161 ], [ -83.729616, 32.438042 ], [ -83.729018, 32.437971 ] ] ] } },
{ "type": "Feature", "properties": { "match": "Disagree", "fill": "#E8710A", "ssurgo_musym": "OgA", "ssurgo_unit": "Orangeburg loamy fine sand, 0 to 2 percent slopes", "ssurgo_series": "Orangeburg", "field_series": "Faceville", "drainage": "Well drained", "slope": "0 to 2 percent" }, "geometry": { "type": "Polygon", "coordinates": [ [ [ -83.730702, 32.436525 ], [ -83.731123, 32.436529 ], [ -83.731275, 32.436681 ], [ -83.731424, 32.436779 ], [ -83.731771, 32.436915 ], [ -83.731984, 32.437145 ], [ -83.732108, 32.437184 ], [ -83.73246, 32.437173 ], [ -83.732591, 32.437199 ], [ -83.732975, 32.437554 ], [ -83.73344, 32.437799 ], [ -83.73348, 32.437852 ], [ -83.732925, 32.437767 ], [ -83.732214, 32.437729 ], [ -83.731629, 32.437547 ], [ -83.7315, 32.437458 ], [ -83.731173, 32.43718 ], [ -83.730813, 32.436585 ], [ -83.730764, 32.436538 ], [ -83.730702, 32.436525 ] ] ] } },
{ "type": "Feature", "properties": { "match": "Disagree", "fill": "#E8710A", "ssurgo_musym": "OgA", "ssurgo_unit": "Orangeburg loamy fine sand, 0 to 2 percent slopes", "ssurgo_series": "Orangeburg", "field_series": "Troup", "drainage": "Well drained", "slope": "0 to 2 percent" }, "geometry": { "type": "Polygon", "coordinates": [ ] } },
{ "type": "Feature", "properties": { "match": "Disagree", "fill": "#E8710A", "ssurgo_musym": "LcM", "ssurgo_unit": "Local alluvial land", "ssurgo_series": null, "field_series": "Wagram", "drainage": "Well drained", "slope": "0 to 2 percent" }, "geometry": { "type": "Polygon", "coordinates": [ [ [ -83.726256, 32.430486 ], [ -83.72629, 32.430484 ], [ -83.726301, 32.430518 ], [ -83.726256, 32.430486 ] ] ] } },
{ "type": "Feature", "properties": { "match": "Disagree", "fill": "#E8710A", "ssurgo_musym": "LcM", "ssurgo_unit": "Local alluvial land", "ssurgo_series": null, "field_series": "Norfolk", "drainage": "Well drained", "slope": "0 to 2 percent" }, "geometry": { "type": "Polygon", "coordinates": [ [ [ -83.726301, 32.430518 ], [ -83.72629, 32.430484 ], [ -83.726737, 32.430486 ], [ -83.7269, 32.430446 ], [ -83.727215, 32.430447 ], [ -83.727365, 32.430551 ], [ -83.727486, 32.430675 ], [ -83.727548, 32.430825 ], [ -83.727556, 32.430948 ], [ -83.727539, 32.431023 ], [ -83.727431, 32.431106 ], [ -83.727293, 32.43111 ], [ -83.72722, 32.430931 ], [ -83.727134, 32.430831 ], [ -83.727061, 32.430779 ], [ -83.726975, 32.43075 ], [ -83.72673, 32.430719 ], [ -83.72664, 32.430692 ], [ -83.726301, 32.430518 ] ] ] } },
{ "type": "Feature", "properties": { "match": "Disagree", "fill": "#E8710A", "ssurgo_musym": "LcB", "ssurgo_unit": "Lucy sand, 0 to 5 percent slopes", "ssurgo_series": "Lucy", "field_series": "Faceville", "drainage": "Well drained", "slope": "0 to 5 percent" }, "geometry": { "type": "Polygon", "coordinates": [ [ [ -83.730691, 32.431126 ], [ -83.730617, 32.430911 ], [ -83.730618, 32.430759 ], [ -83.730725, 32.430543 ], [ -83.730844, 32.430462 ], [ -83.73265, 32.430469 ], [ -83.732525, 32.430556 ], [ -83.732137, 32.430727 ], [ -83.73183, 32.43094 ], [ -83.731562, 32.431043 ], [ -83.73138, 32.431153 ], [ -83.730971, 32.431028 ], [ -83.730774, 32.431056 ], [ -83.730716, 32.431089 ], [ -83.730691, 32.431126 ] ] ] } },
{ "type": "Feature", "properties": { "match": "Disagree", "fill": "#E8710A", "ssurgo_musym": "LcB", "ssurgo_unit": "Lucy sand, 0 to 5 percent slopes", "ssurgo_series": "Lucy", "field_series": "Faceville", "drainage": "Well drained", "slope": "0 to 5 percent" }, "geometry": { "type": "Polygon", "coordinates": [ [ [ -83.73138, 32.431153 ], [ -83.731562, 32.431043 ], [ -83.73183, 32.43094 ], [ -83.732137, 32.430727 ], [ -83.732525, 32.430556 ], [ -83.73265, 32.430469 ], [ -83.734376, 32.430476 ], [ -83.734461, 32.430692 ], [ -83.734542, 32.430793 ], [ -83.733851, 32.43102 ], [ -83.732465, 32.431353 ], [ -83.732356, 32.431392 ], [ -83.73138, 32.431153 ] ] ] } },
{ "type": "Feature", "properties": { "match": "Disagree", "fill": "#E8710A", "ssurgo_musym": "LcB", "ssurgo_unit": "Lucy sand, 0 to 5 percent slopes", "ssurgo_series": "Lucy", "field_series": "Wagram", "drainage": "Well drained", "slope": "0 to 5 percent" }, "geometry": { "type": "Polygon", "coordinates": [ [ [ -83.726974, 32.431603 ], [ -83.726806, 32.431536 ], [ -83.727147, 32.431284 ], [ -83.727643, 32.431609 ], [ -83.726974, 32.431603 ] ] ] } },
{ "type": "Feature", "properties": { "match": "Disagree", "fill": "#E8710A", "ssurgo_musym": "LcB", "ssurgo_unit": "Lucy sand, 0 to 5 percent slopes", "ssurgo_series": "Lucy", "field_series": "Norfolk", "drainage": "Well drained", "slope": "0 to 5 percent" }, "geometry": { "type": "Polygon", "coordinates": [ [ [ -83.727655, 32.431615 ], [ -83.727147, 32.431284 ], [ -83.727196, 32.431247 ], [ -83.727293, 32.43111 ], [ -83.727431, 32.431106 ], [ -83.727539, 32.431023 ], [ -83.727556, 32.430948 ], [ -83.727548, 32.430825 ], [ -83.727486, 32.430675 ], [ -83.727365, 32.430551 ], [ -83.727215, 32.430447 ], [ -83.728758, 32.430453 ], [ -83.728958, 32.430751 ], [ -83.72904, 32.431148 ], [ -83.728827, 32.431077 ], [ -83.728392, 32.430992 ], [ -83.728049, 32.430991 ], [ -83.727848, 32.431031 ], [ -83.727844, 32.431327 ], [ -83.727876, 32.431422 ], [ -83.728249, 32.431764 ], [ -83.728781, 32.432162 ], [ -83.727655, 32.431615 ] ] ] } },
{ "type": "Feature", "properties": { "match": "Disagree", "fill": "#E8710A", "ssurgo_musym": "LcB", "ssurgo_unit": "Lucy sand, 0 to 5 percent slopes", "ssurgo_series": "Lucy", "field_series": "Wagram", "drainage": "Well drained", "slope": "0 to 5 percent" }, "geometry": { "type": "Polygon", "coordinates": [ [ [ -83.729334, 32.430456 ], [ -83.730844, 32.430462 ], [ -83.730716, 32.430555 ], [ -83.730631, 32.43072 ], [ -83.730612, 32.430801 ], [ -83.73062, 32.430925 ], [ -83.730691, 32.431126 ], [ -83.730642, 32.431473 ], [ -83.730731, 32.43228 ], [ -83.730268, 32.431983 ], [ -83.730163, 32.431877 ], [ -83.729965, 32.43159 ], [ -83.729833, 32.431209 ], [ -83.729427, 32.430872 ], [ -83.729366, 32.430803 ], [ -83.729288, 32.430572 ], [ -83.729296, 32.430512 ], [ -83.729334, 32.430456 ] ] ] } },
{ "type": "Feature", "properties": { "match": "Disagree", "fill": "#E8710A", "ssurgo_musym": "LcB", "ssurgo_unit": "Lucy sand, 0 to 5 percent slopes", "ssurgo_series": "Lucy", "field_series": "Dothan", "drainage": "Well drained", "slope": "0 to 5 percent" }, "geometry": { "type": "Polygon", "coordinates": [ [ [ -83.728781, 32.432162 ], [ -83.728249, 32.431764 ], [ -83.727876, 32.431422 ], [ -83.727844, 32.431327 ], [ -83.727848, 32.431031 ], [ -83.727975, 32.431 ], [ -83.728109, 32.430988 ], [ -83.728351, 32.430989 ], [ -83.728513, 32.431009 ], [ -83.728942, 32.431109 ], [ -83.729169, 32.4312 ], [ -83.729452, 32.431286 ], [ -83.72956, 32.431348 ], [ -83.729595, 32.431486 ], [ -83.729584, 32.431845 ], [ -83.729531, 32.4319 ], [ -83.729321, 32.432009 ], [ -83.729194, 32.432119 ], [ -83.729153, 32.432186 ], [ -83.729151, 32.432322 ], [ -83.729085, 32.432309 ], [ -83.728781, 32.432162 ] ] ] } },
{ "type": "Feature", "properties": { "match": "Disagree", "fill": "#E8710A", "ssurgo_musym": "LcB", "ssurgo_unit": "Lucy sand, 0 to 5 percent slopes", "ssurgo_series": "Lucy", "field_series": "Orangeburg", "drainage": "Well drained", "slope": "0 to 5 percent" }, "geometry": { "type": "Polygon", "coordinates": [ [ [ -83.725578, 32.432323 ], [ -83.724712, 32.432267 ], [ -83.724724, 32.432124 ], [ -83.724624, 32.431614 ], [ -83.724634, 32.431579 ], [ -83.724674, 32.431547 ], [ -83.724774, 32.431526 ], [ -83.724845, 32.431566 ], [ -83.72505, 32.431749 ], [ -83.725263, 32.431845 ], [ -83.725742, 32.431939 ], [ -83.725934, 32.43195 ], [ -83.726072, 32.431935 ], [ -83.726337, 32.43183 ], [ -83.726806, 32.431536 ], [ -83.726974, 32.431603 ], [ -83.726855, 32.432046 ], [ -83.726843, 32.432167 ], [ -83.726866, 32.432223 ], [ -83.72639, 32.432293 ], [ -83.725578, 32.432323 ] ] ] } },
{ "type": "Feature", "properties": { "match": "Disagree", "fill": "#E8710A", "ssurgo_musym": "LcB", "ssurgo_unit": "Lucy sand, 0 to 5 percent slopes", "ssurgo_series": "Lucy", "field_series": "Marvyn", "drainage": "Well drained", "slope": "0 to 5 percent" }, "geometry": { "type": "Polygon", "coordinates": [ [ [ -83.735926, 32.432808 ], [ -83.735707, 32.432662 ], [ -83.735605, 32.432456 ], [ -83.735464, 32.432317 ], [ -83.735287, 32.432108 ], [ -83.735213, 32.432064 ], [ -83.735096, 32.432041 ], [ -83.735129, 32.431931 ], [ -83.735262, 32.431664 ], [ -83.735505, 32.431969 ], [ -83.735715, 32.432108 ], [ -83.735813, 32.43212 ], [ -83.735913, 32.432103 ], [ -83.736096, 32.431991 ], [ -83.736268, 32.432296 ], [ -83.736344, 32.432525 ], [ -83.736405, 32.43281 ], [ -83.735926, 32.432808 ] ] ] } },
{ "type": "Feature", "properties": { "match": "Disagree", "fill": "#E8710A", "ssurgo_musym": "LcB", "ssurgo_unit": "Lucy sand, 0 to 5 percent slopes", "ssurgo_series": "Lucy", "field_series": "Faceville", "drainage": "Well drained", "slope": "0 to 5 percent" }, "geometry": { "type": "Polygon", "coordinates": [ [ [ -83.729143, 32.432325 ], [ -83.729157, 32.432306 ], [ -83.729153, 32.432186 ], [ -83.729206, 32.432105 ], [ -83.729336, 32.431998 ], [ -83.729531, 32.4319 ], [ -83.729577, 32.431859 ], [ -83.729863, 32.432178 ], [ -83.729949, 32.432295 ], [ -83.730029, 32.432742 ], [ -83.729951, 32.432753 ], [ -83.729264, 32.432435 ], [ -83.729143, 32.432325 ] ] ] } },
{ "type": "Feature", "properties": { "match": "Disagree", "fill": "#E8710A", "ssurgo_musym": "LcB", "ssurgo_unit": "Lucy sand, 0 to 5 percent slopes", "ssurgo_series": "Lucy", "field_series": "Orangeburg", "drainage": "Well drained", "slope": "0 to 5 percent" }, "geometry": { "type": "Polygon", "coordinates": [ [ [ -83.732356, 32.431392 ], [ -83.732465, 32.431353 ], [ -83.733851, 32.43102 ], [ -83.734542, 32.430793 ], [ -83.734689, 32.430891 ], [ -83.734859, 32.43097 ], [ -83.735221, 32.431088 ], [ -83.735382, 32.431172 ], [ -83.735568, 32.431304 ], [ -83.735693, 32.431426 ], [ -83.736025, 32.431864 ], [ -83.736096, 32.431991 ], [ -83.735931, 32.432096 ], [ -83.735773, 32.43212 ], [ -83.735663, 32.432083 ], [ -83.735505, 32.431969 ], [ -83.735262, 32.431664 ], [ -83.735276, 32.431497 ], [ -83.735248, 32.431306 ], [ -83.735248, 32.431183 ], [ -83.734166, 32.431459 ], [ -83.734021, 32.431523 ], [ -83.733885, 32.431631 ], [ -83.733825, 32.431699 ], [ -83.733525, 32.432518 ], [ -83.733431, 32.432668 ], [ -83.73331, 32.43278 ], [ -83.733211, 32.432838 ], [ -83.732949, 32.432941 ], [ -83.73282, 32.432953 ], [ -83.732732, 32.432911 ], [ -83.732555, 32.432715 ], [ -83.732449, 32.432509 ], [ -83.732357, 32.432272 ], [ -83.732333, 32.432104 ], [ -83.732305, 32.431592 ], [ -83.732317, 32.431457 ], [ -83.732356, 32.431392 ] ] ] } },
{ "type": "Feature", "properties": { "match": "Disagree", "fill": "#E8710A", "ssurgo_musym": "LcB", "ssurgo_unit": "Lucy sand, 0 to 5 percent slopes", "ssurgo_series": "Lucy", "field_series": "Lakeland", "drainage": "Well drained", "slope": "0 to 5 percent" }, "geometry": { "type": "Polygon", "coordinates": [ [ [ -83.726866, 32.432223 ], [ -83.726843, 32.432167 ], [ -83.726855, 32.432046 ], [ -83.726974, 32.431603 ], [ -83.727643, 32.431609 ], [ -83.728572, 32.432064 ], [ -83.728569, 32.432249 ], [ -83.72854, 32.432487 ], [ -83.728458, 32.432798 ], [ -83.728393, 32.432967 ], [ -83.728057, 32.432727 ], [ -83.726966, 32.432278 ], [ -83.726866, 32.432223 ] ] ] } },
{ "type": "Feature", "properties": { "match": "Disagree", "fill": "#E8710A", "ssurgo_musym": "LcB", "ssurgo_unit": "Lucy sand, 0 to 5 percent slopes", "ssurgo_series": "Lucy", "field_series": "Norfolk", "drainage": "Well drained", "slope": "0 to 5 percent" }, "geometry": { "type": "MultiPolygon", "coordinates": [ [ [ [ -83.729596, 32.431504 ], [ -83.729568, 32.431361 ], [ -83.729535, 32.431327 ], [ -83.729452, 32.431286 ], [ -83.72904, 32.431148 ], [ -83.728958, 32.430751 ], [ -83.728758, 32.430453 ], [ -83.729334, 32.430456 ], [ -83.729296, 32.430512 ], [ -83.729288, 32.430572 ], [ -83.729366, 32.430803 ], [ -83.729427, 32.430872 ], [ -83.729833, 32.431209 ], [ -83.729965, 32.43159 ], [ -83.730163, 32.431877 ], [ -83.730268, 32.431983 ], [ -83.730731, 32.43228 ], [ -83.730778, 32.432697 ], [ -83.730152, 32.432724 ], [ -83.730029, 32.432742 ], [ -83.729949, 32.432295 ], [ -83.729863, 32.432178 ], [ -83.729577, 32.431859 ], [ -83.729596, 32.431504 ] ] ], [ [ [ -83.730847, 32.433069 ], [ -83.730961, 32.433141 ], [ -83.73085, 32.433097 ], [ -83.730847, 32.433069 ] ] ] ] } },
{ "type": "Feature", "properties": { "match": "Disagree", "fill": "#E8710A", "ssurgo_musym": "LcB", "ssurgo_unit": "Lucy sand, 0 to 5 percent slopes", "ssurgo_series": "Lucy", "field_series": null, "drainage": "Well drained", "slope": "0 to 5 percent" }, "geometry": { "type": "Polygon", "coordinates": [ ] } },
{ "type": "Feature", "properties": { "match": "Disagree", "fill": "#E8710A", "ssurgo_musym": "LcB", "ssurgo_unit": "Lucy sand, 0 to 5 percent slopes", "ssurgo_series": "Lucy", "field_series": "Benevolence", "drainage": "Well drained", "slope": "0 to 5 percent" }, "geometry": { "type": "Polygon", "coordinates": [ [ [ -83.725578, 32.432323 ], [ -83.72639, 32.432293 ], [ -83.726866, 32.432223 ], [ -83.726966, 32.432278 ], [ -83.728075, 32.432736 ], [ -83.728393, 32.432967 ], [ -83.72838, 32.433029 ], [ -83.728189, 32.432971 ], [ -83.728042, 32.432952 ], [ -83.727954, 32.432958 ], [ -83.727813, 32.433021 ], [ -83.72775, 32.433083 ], [ -83.72744, 32.432902 ], [ -83.726428, 32.432445 ], [ -83.725578, 32.432323 ] ] ] } },
{ "type": "Feature", "properties": { "match": "Disagree", "fill": "#E8710A", "ssurgo_musym": "LcB", "ssurgo_unit": "Lucy sand, 0 to 5 percent slopes", "ssurgo_series": "Lucy", "field_series": "Faceville", "drainage": "Well drained", "slope": "0 to 5 percent" }, "geometry": { "type": "Polygon", "coordinates": [ [ [ -83.735926, 32.432808 ], [ -83.736405, 32.43281 ], [ -83.736462, 32.433079 ], [ -83.736527, 32.433223 ], [ -83.736534, 32.433466 ], [ -83.736417, 32.433544 ], [ -83.735845, 32.433822 ], [ -83.735834, 32.433493 ], [ -83.735871, 32.432925 ], [ -83.735888, 32.432845 ], [ -83.735926, 32.432808 ] ] ] } },
{ "type": "Feature", "properties": { "match": "Disagree", "fill": "#E8710A", "ssurgo_musym": "LcB", "ssurgo_unit": "Lucy sand, 0 to 5 percent slopes", "ssurgo_series": "Lucy", "field_series": null, "drainage": "Well drained", "slope": "0 to 5 percent" }, "geometry": { "type": "Polygon", "coordinates": [ [ [ -83.735926, 32.432808 ], [ -83.735895, 32.432832 ], [ -83.735874, 32.43289 ], [ -83.735835, 32.433463 ], [ -83.735845, 32.433822 ], [ -83.735634, 32.434033 ], [ -83.735575, 32.434064 ], [ -83.735524, 32.43406 ], [ -83.73518, 32.433922 ], [ -83.735138, 32.433869 ], [ -83.735097, 32.433754 ], [ -83.73508, 32.433634 ], [ -83.735084, 32.433374 ], [ -83.735194, 32.432875 ], [ -83.735222, 32.432814 ], [ -83.735259, 32.432783 ], [ -83.73544, 32.432734 ], [ -83.735651, 32.432742 ], [ -83.735926, 32.432808 ] ] ] } },
{ "type": "Feature", "properties": { "match": "Disagree", "fill": "#E8710A", "ssurgo_musym": "LcB", "ssurgo_unit": "Lucy sand, 0 to 5 percent slopes", "ssurgo_series": "Lucy", "field_series": "Greenville", "drainage": "Well drained", "slope": "0 to 5 percent" }, "geometry": { "type": "Polygon", "coordinates": [ [ [ -83.725775, 32.433282 ], [ -83.725515, 32.433066 ], [ -83.725313, 32.432958 ], [ -83.724919, 32.432797 ], [ -83.724762, 32.432704 ], [ -83.724707, 32.432635 ], [ -83.724688, 32.43256 ], [ -83.724712, 32.432267 ], [ -83.725578, 32.432323 ], [ -83.726408, 32.432439 ], [ -83.72744, 32.432902 ], [ -83.72775, 32.433083 ], [ -83.727669, 32.433161 ], [ -83.72742, 32.433548 ], [ -83.72698, 32.43338 ], [ -83.726861, 32.433349 ], [ -83.726095, 32.433283 ], [ -83.725775, 32.433282 ] ] ] } },
{ "type": "Feature", "properties": { "match": "Disagree", "fill": "#E8710A", "ssurgo_musym": "LcB", "ssurgo_unit": "Lucy sand, 0 to 5 percent slopes", "ssurgo_series": "Lucy", "field_series": "Orangeburg", "drainage": "Well drained", "slope": "0 to 5 percent" }, "geometry": { "type": "MultiPolygon", "coordinates": [ [ [ [ -83.728392, 32.432969 ], [ -83.729119, 32.433227 ], [ -83.729158, 32.433323 ], [ -83.729131, 32.433458 ], [ -83.729103, 32.433393 ], [ -83.728844, 32.433209 ], [ -83.728637, 32.433107 ], [ -83.72838, 32.433029 ], [ -83.728392, 32.432969 ] ] ], [ [ [ -83.729075, 32.433823 ], [ -83.729071, 32.433743 ], [ -83.729098, 32.433629 ], [ -83.729075, 32.433823 ] ] ] ] } },
{ "type": "Feature", "properties": { "match": "Disagree", "fill": "#E8710A", "ssurgo_musym": "LcB", "ssurgo_unit": "Lucy sand, 0 to 5 percent slopes", "ssurgo_series": "Lucy", "field_series": null, "drainage": "Well drained", "slope": "0 to 5 percent" }, "geometry": { "type": "Polygon", "coordinates": [ ] } },
{ "type": "Feature", "properties": { "match": "Disagree", "fill": "#E8710A", "ssurgo_musym": "LcB", "ssurgo_unit": "Lucy sand, 0 to 5 percent slopes", "ssurgo_series": "Lucy", "field_series": "Thursa", "drainage": "Well drained", "slope": "0 to 5 percent" }, "geometry": { "type": "Polygon", "coordinates": [ [ [ -83.733629, 32.434197 ], [ -83.733365, 32.433782 ], [ -83.733315, 32.433582 ], [ -83.733311, 32.433482 ], [ -83.733339, 32.433421 ], [ -83.733427, 32.433326 ], [ -83.733509, 32.433291 ], [ -83.73361, 32.433294 ], [ -83.733708, 32.433317 ], [ -83.733982, 32.433476 ], [ -83.734819, 32.434188 ], [ -83.734714, 32.434158 ], [ -83.73444, 32.434148 ], [ -83.733988, 32.43427 ], [ -83.733629, 32.434197 ] ] ] } },
{ "type": "Feature", "properties": { "match": "Disagree", "fill": "#E8710A", "ssurgo_musym": "LcB", "ssurgo_unit": "Lucy sand, 0 to 5 percent slopes", "ssurgo_series": "Lucy", "field_series": "Lakeland", "drainage": "Well drained", "slope": "0 to 5 percent" }, "geometry": { "type": "Polygon", "coordinates": [ [ [ -83.729217, 32.434134 ], [ -83.729075, 32.433823 ], [ -83.729158, 32.433323 ], [ -83.729119, 32.433227 ], [ -83.728393, 32.432967 ], [ -83.728458, 32.432798 ], [ -83.72854, 32.432487 ], [ -83.728569, 32.432249 ], [ -83.728572, 32.432064 ], [ -83.72905, 32.432294 ], [ -83.729143, 32.432325 ], [ -83.729264, 32.432435 ], [ -83.729951, 32.432753 ], [ -83.729826, 32.43277 ], [ -83.729746, 32.432822 ], [ -83.729668, 32.432924 ], [ -83.729624, 32.433039 ], [ -83.729602, 32.433158 ], [ -83.729615, 32.433357 ], [ -83.729679, 32.433506 ], [ -83.729977, 32.43382 ], [ -83.730181, 32.434178 ], [ -83.730369, 32.434305 ], [ -83.730184, 32.434223 ], [ -83.730049, 32.434186 ], [ -83.729217, 32.434134 ] ] ] } },
{ "type": "Feature", "properties": { "match": "Disagree", "fill": "#E8710A", "ssurgo_musym": "LcB", "ssurgo_unit": "Lucy sand, 0 to 5 percent slopes", "ssurgo_series": "Lucy", "field_series": "Johns", "drainage": "Well drained", "slope": "0 to 5 percent" }, "geometry": { "type": "Polygon", "coordinates": [ [ [ -83.731423, 32.433787 ], [ -83.731163, 32.43357 ], [ -83.730915, 32.433332 ], [ -83.730864, 32.433221 ], [ -83.73085, 32.433097 ], [ -83.730961, 32.433141 ], [ -83.731619, 32.433484 ], [ -83.73168, 32.433553 ], [ -83.731961, 32.434008 ], [ -83.731695, 32.433823 ], [ -83.731529, 32.433784 ], [ -83.731423, 32.433787 ] ] ] } },
{ "type": "Feature", "properties": { "match": "Disagree", "fill": "#E8710A", "ssurgo_musym": "LcB", "ssurgo_unit": "Lucy sand, 0 to 5 percent slopes", "ssurgo_series": "Lucy", "field_series": "Norfolk", "drainage": "Well drained", "slope": "0 to 5 percent" }, "geometry": { "type": "Polygon", "coordinates": [ [ [ -83.734829, 32.434196 ], [ -83.73399, 32.433482 ], [ -83.734189, 32.433476 ], [ -83.734353, 32.433424 ], [ -83.734408, 32.433385 ], [ -83.734457, 32.433323 ], [ -83.734508, 32.433108 ], [ -83.734549, 32.433032 ], [ -83.7346, 32.432979 ], [ -83.734662, 32.432938 ], [ -83.734735, 32.432918 ], [ -83.734928, 32.432932 ], [ -83.735048, 32.432212 ], [ -83.735096, 32.432041 ], [ -83.735213, 32.432064 ], [ -83.735287, 32.432108 ], [ -83.735464, 32.432317 ], [ -83.735605, 32.432456 ], [ -83.735707, 32.432662 ], [ -83.735901, 32.432794 ], [ -83.735691, 32.432748 ], [ -83.735503, 32.432732 ], [ -83.735383, 32.432743 ], [ -83.735259, 32.432783 ], [ -83.735222, 32.432814 ], [ -83.735194, 32.432875 ], [ -83.73511, 32.433236 ], [ -83.735083, 32.433391 ], [ -83.735082, 32.433668 ], [ -83.735146, 32.433884 ], [ -83.735228, 32.433949 ], [ -83.735487, 32.43405 ], [ -83.735575, 32.434064 ], [ -83.735634, 32.434033 ], [ -83.735036, 32.434528 ], [ -83.734829, 32.434196 ] ] ] } },
{ "type": "Feature", "properties": { "match": "Disagree", "fill": "#E8710A", "ssurgo_musym": "LcB", "ssurgo_unit": "Lucy sand, 0 to 5 percent slopes", "ssurgo_series": "Lucy", "field_series": "Dothan", "drainage": "Well drained", "slope": "0 to 5 percent" }, "geometry": { "type": "Polygon", "coordinates": [ [ [ -83.733988, 32.43427 ], [ -83.73442, 32.434151 ], [ -83.734566, 32.434148 ], [ -83.734773, 32.434167 ], [ -83.734819, 32.434188 ], [ -83.734857, 32.434228 ], [ -83.735036, 32.434528 ], [ -83.734411, 32.434535 ], [ -83.733988, 32.43427 ] ] ] } },
{ "type": "Feature", "properties": { "match": "Disagree", "fill": "#E8710A", "ssurgo_musym": "LcB", "ssurgo_unit": "Lucy sand, 0 to 5 percent slopes", "ssurgo_series": "Lucy", "field_series": "Orangeburg", "drainage": "Well drained", "slope": "0 to 5 percent" }, "geometry": { "type": "Polygon", "coordinates": [ [ [ -83.735036, 32.434528 ], [ -83.735647, 32.434022 ], [ -83.735845, 32.433822 ], [ -83.736417, 32.433544 ], [ -83.736534, 32.433466 ], [ -83.736568, 32.434587 ], [ -83.73644, 32.434632 ], [ -83.736319, 32.434639 ], [ -83.735335, 32.434544 ], [ -83.735036, 32.434528 ] ] ] } },
{ "type": "Feature", "properties": { "match": "Disagree", "fill": "#E8710A", "ssurgo_musym": "LcB", "ssurgo_unit": "Lucy sand, 0 to 5 percent slopes", "ssurgo_series": "Lucy", "field_series": "Greenville", "drainage": "Well drained", "slope": "0 to 5 percent" }, "geometry": { "type": "Polygon", "coordinates": [ [ [ -83.728017, 32.434122 ], [ -83.728239, 32.434168 ], [ -83.728867, 32.434383 ], [ -83.728932, 32.434386 ], [ -83.728925, 32.434574 ], [ -83.728863, 32.434889 ], [ -83.728755, 32.434878 ], [ -83.728626, 32.434841 ], [ -83.72848, 32.43478 ], [ -83.728407, 32.434729 ], [ -83.72829, 32.434575 ], [ -83.728017, 32.434122 ] ] ] } },
{ "type": "Feature", "properties": { "match": "Disagree", "fill": "#E8710A", "ssurgo_musym": "LcB", "ssurgo_unit": "Lucy sand, 0 to 5 percent slopes", "ssurgo_series": "Lucy", "field_series": "Blanton", "drainage": "Well drained", "slope": "0 to 5 percent" }, "geometry": { "type": "MultiPolygon", "coordinates": [ [ [ [ -83.731432, 32.433786 ], [ -83.73151, 32.433782 ], [ -83.731623, 32.433801 ], [ -83.731695, 32.433823 ], [ -83.731778, 32.433871 ], [ -83.731961, 32.434008 ], [ -83.732215, 32.434294 ], [ -83.732268, 32.434386 ], [ -83.731936, 32.434177 ], [ -83.731503, 32.433854 ], [ -83.731432, 32.433786 ] ] ], [ [ [ -83.731085, 32.435043 ], [ -83.73107, 32.434997 ], [ -83.731601, 32.435048 ], [ -83.731413, 32.435077 ], [ -83.731085, 32.435043 ] ] ] ] } },
{ "type": "Feature", "properties": { "match": "Disagree", "fill": "#E8710A", "ssurgo_musym": "LcB", "ssurgo_unit": "Lucy sand, 0 to 5 percent slopes", "ssurgo_series": "Lucy", "field_series": "Norfolk", "drainage": "Well drained", "slope": "0 to 5 percent" }, "geometry": { "type": "Polygon", "coordinates": [ [ [ -83.732268, 32.434386 ], [ -83.732215, 32.434294 ], [ -83.73194, 32.433981 ], [ -83.731633, 32.433496 ], [ -83.730847, 32.433069 ], [ -83.730841, 32.433018 ], [ -83.730885, 32.432692 ], [ -83.730778, 32.432697 ], [ -83.730645, 32.431527 ], [ -83.73065, 32.431372 ], [ -83.730682, 32.431156 ], [ -83.730706, 32.4311 ], [ -83.730812, 32.431045 ], [ -83.731009, 32.431032 ], [ -83.731343, 32.431143 ], [ -83.732356, 32.431392 ], [ -83.732317, 32.431457 ], [ -83.732305, 32.431592 ], [ -83.732336, 32.432155 ], [ -83.732362, 32.432289 ], [ -83.732449, 32.432509 ], [ -83.732555, 32.432715 ], [ -83.732744, 32.432922 ], [ -83.732788, 32.432946 ], [ -83.732855, 32.432956 ], [ -83.732987, 32.432929 ], [ -83.733246, 32.43282 ], [ -83.733353, 32.432744 ], [ -83.733454, 32.43264 ], [ -83.733525, 32.432518 ], [ -83.733817, 32.431715 ], [ -83.733871, 32.431644 ], [ -83.73399, 32.431546 ], [ -83.734071, 32.431493 ], [ -83.734166, 32.431459 ], [ -83.735248, 32.431183 ], [ -83.735248, 32.431306 ], [ -83.735276, 32.431497 ], [ -83.735268, 32.431638 ], [ -83.735129, 32.431931 ], [ -83.735059, 32.432159 ], [ -83.734928, 32.432932 ], [ -83.734735, 32.432918 ], [ -83.734662, 32.432938 ], [ -83.734614, 32.432967 ], [ -83.734549, 32.433032 ], [ -83.734514, 32.433092 ], [ -83.734475, 32.433277 ], [ -83.73444, 32.433349 ], [ -83.734367, 32.433415 ], [ -83.734249, 32.433464 ], [ -83.734112, 32.433484 ], [ -83.73399, 32.433482 ], [ -83.733744, 32.433334 ], [ -83.73361, 32.433294 ], [ -83.733491, 32.433293 ], [ -83.733399, 32.433351 ], [ -83.733339, 32.433421 ], [ -83.733311, 32.433482 ], [ -83.73334, 32.433717 ], [ -83.733392, 32.433828 ], [ -83.733629, 32.434197 ], [ -83.733451, 32.434381 ], [ -83.73338, 32.434511 ], [ -83.733248, 32.434565 ], [ -83.73306, 32.434593 ], [ -83.732721, 32.434561 ], [ -83.732268, 32.434386 ] ] ] } },
{ "type": "Feature", "properties": { "match": "Disagree", "fill": "#E8710A", "ssurgo_musym": "LcB", "ssurgo_unit": "Lucy sand, 0 to 5 percent slopes", "ssurgo_series": "Lucy", "field_series": "Orangeburg", "drainage": "Well drained", "slope": "0 to 5 percent" }, "geometry": { "type": "Polygon", "coordinates": [ [ [ -83.732052, 32.435927 ], [ -83.731774, 32.435816 ], [ -83.731593, 32.435764 ], [ -83.731467, 32.43575 ], [ -83.731254, 32.435455 ], [ -83.731085, 32.435043 ], [ -83.731413, 32.435077 ], [ -83.731601, 32.435048 ], [ -83.731888, 32.435099 ], [ -83.73201, 32.435159 ], [ -83.732346, 32.435394 ], [ -83.732599, 32.435515 ], [ -83.732825, 32.435588 ], [ -83.732815, 32.435773 ], [ -83.732744, 32.435752 ], [ -83.732597, 32.435757 ], [ -83.732405, 32.435797 ], [ -83.732098, 32.435931 ], [ -83.732052, 32.435927 ] ] ] } },
{ "type": "Feature", "properties": { "match": "Disagree", "fill": "#E8710A", "ssurgo_musym": "LcB", "ssurgo_unit": "Lucy sand, 0 to 5 percent slopes", "ssurgo_series": "Lucy", "field_series": "Leefield", "drainage": "Well drained", "slope": "0 to 5 percent" }, "geometry": { "type": "Polygon", "coordinates": [ [ [ -83.732815, 32.435773 ], [ -83.732825, 32.435588 ], [ -83.732962, 32.435615 ], [ -83.73335, 32.435638 ], [ -83.733544, 32.43569 ], [ -83.733539, 32.435829 ], [ -83.733628, 32.436102 ], [ -83.733438, 32.436032 ], [ -83.732967, 32.435816 ], [ -83.732815, 32.435773 ] ] ] } },
{ "type": "Feature", "properties": { "match": "Agree", "fill": "#1B7837", "ssurgo_musym": "LcB", "ssurgo_unit": "Lucy sand, 0 to 5 percent slopes", "ssurgo_series": "Lucy", "field_series": "Lucy", "drainage": "Well drained", "slope": "0 to 5 percent" }, "geometry": { "type": "Polygon", "coordinates": [ [ [ -83.730234, 32.436015 ], [ -83.730343, 32.43574 ], [ -83.730397, 32.435687 ], [ -83.730485, 32.435682 ], [ -83.730622, 32.435699 ], [ -83.730904, 32.435792 ], [ -83.730799, 32.435905 ], [ -83.730778, 32.435978 ], [ -83.730784, 32.436188 ], [ -83.730555, 32.436191 ], [ -83.730467, 32.436169 ], [ -83.730234, 32.436015 ] ] ] } },
{ "type": "Feature", "properties": { "match": "Disagree", "fill": "#E8710A", "ssurgo_musym": "LcB", "ssurgo_unit": "Lucy sand, 0 to 5 percent slopes", "ssurgo_series": "Lucy", "field_series": null, "drainage": "Well drained", "slope": "0 to 5 percent" }, "geometry": { "type": "Polygon", "coordinates": [ [ [ -83.72637, 32.433718 ], [ -83.726545, 32.433635 ], [ -83.72664, 32.433606 ], [ -83.727029, 32.433557 ], [ -83.72708, 32.433558 ], [ -83.727108, 32.433576 ], [ -83.727058, 32.433772 ], [ -83.726629, 32.433789 ], [ -83.72637, 32.433718 ] ] ] } },
{ "type": "Feature", "properties": { "match": "Disagree", "fill": "#E8710A", "ssurgo_musym": "LcB", "ssurgo_unit": "Lucy sand, 0 to 5 percent slopes", "ssurgo_series": "Lucy", "field_series": null, "drainage": "Well drained", "slope": "0 to 5 percent" }, "geometry": { "type": "MultiPolygon", "coordinates": [ [ [ [ -83.73563, 32.436352 ], [ -83.735707, 32.436315 ], [ -83.735752, 32.436241 ], [ -83.735753, 32.43616 ], [ -83.735561, 32.435796 ], [ -83.735538, 32.435517 ], [ -83.735496, 32.435405 ], [ -83.735301, 32.435082 ], [ -83.735083, 32.434822 ], [ -83.734962, 32.434758 ], [ -83.734819, 32.434718 ], [ -83.734529, 32.434691 ], [ -83.734438, 32.434668 ], [ -83.734018, 32.434464 ], [ -83.733841, 32.434409 ], [ -83.733742, 32.434404 ], [ -83.733597, 32.434423 ], [ -83.73338, 32.434511 ], [ -83.733451, 32.434381 ], [ -83.733629, 32.434197 ], [ -83.733988, 32.43427 ], [ -83.734411, 32.434535 ], [ -83.735128, 32.434527 ], [ -83.73634, 32.43464 ], [ -83.736459, 32.434628 ], [ -83.736568, 32.434587 ], [ -83.73664, 32.437158 ], [ -83.736591, 32.437161 ], [ -83.736138, 32.436862 ], [ -83.735661, 32.436666 ], [ -83.735568, 32.436581 ], [ -83.735432, 32.436383 ], [ -83.73563, 32.436352 ] ] ], [ [ [ -83.733626, 32.4361 ], [ -83.733539, 32.435829 ], [ -83.733544, 32.43569 ], [ -83.73372, 32.435737 ], [ -83.733931, 32.435838 ], [ -83.734076, 32.435942 ], [ -83.734188, 32.436137 ], [ -83.733845, 32.436142 ], [ -83.733626, 32.4361 ] ] ] ] } },
{ "type": "Feature", "properties": { "match": "Disagree", "fill": "#E8710A", "ssurgo_musym": "LcB", "ssurgo_unit": "Lucy sand, 0 to 5 percent slopes", "ssurgo_series": "Lucy", "field_series": "Greenville", "drainage": "Well drained", "slope": "0 to 5 percent" }, "geometry": { "type": "Polygon", "coordinates": [ [ [ -83.728925, 32.434574 ], [ -83.728932, 32.434386 ], [ -83.729019, 32.43439 ], [ -83.729107, 32.434364 ], [ -83.729207, 32.434271 ], [ -83.729234, 32.434194 ], [ -83.729217, 32.434134 ], [ -83.730008, 32.434181 ], [ -83.730203, 32.434231 ], [ -83.730369, 32.434305 ], [ -83.730481, 32.434381 ], [ -83.730545, 32.434485 ], [ -83.73063, 32.434719 ], [ -83.730699, 32.434819 ], [ -83.730847, 32.434925 ], [ -83.73107, 32.434997 ], [ -83.731246, 32.43544 ], [ -83.731467, 32.43575 ], [ -83.731297, 32.435731 ], [ -83.731009, 32.435744 ], [ -83.730965, 32.435764 ], [ -83.730633, 32.435531 ], [ -83.730553, 32.435263 ], [ -83.730528, 32.435222 ], [ -83.730484, 32.435191 ], [ -83.729729, 32.434909 ], [ -83.728863, 32.434889 ], [ -83.728925, 32.434574 ] ] ] } },
{ "type": "Feature", "properties": { "match": "Disagree", "fill": "#E8710A", "ssurgo_musym": "LcB", "ssurgo_unit": "Lucy sand, 0 to 5 percent slopes", "ssurgo_series": "Lucy", "field_series": "Faceville", "drainage": "Well drained", "slope": "0 to 5 percent" }, "geometry": { "type": "MultiPolygon", "coordinates": [ [ [ [ -83.726218, 32.433664 ], [ -83.726073, 32.433561 ], [ -83.725775, 32.433282 ], [ -83.726095, 32.433283 ], [ -83.726861, 32.433349 ], [ -83.72698, 32.43338 ], [ -83.72742, 32.433548 ], [ -83.727288, 32.433753 ], [ -83.727058, 32.433772 ], [ -83.72711, 32.433588 ], [ -83.727103, 32.433567 ], [ -83.727065, 32.433556 ], [ -83.72662, 32.43361 ], [ -83.72637, 32.433718 ], [ -83.726218, 32.433664 ] ] ], [ [ [ -83.727525, 32.435179 ], [ -83.727586, 32.434948 ], [ -83.727667, 32.43412 ], [ -83.728017, 32.434122 ], [ -83.72834, 32.434649 ], [ -83.728407, 32.434729 ], [ -83.72848, 32.43478 ], [ -83.728662, 32.434853 ], [ -83.728796, 32.434884 ], [ -83.729729, 32.434909 ], [ -83.73043, 32.435166 ], [ -83.730516, 32.43521 ], [ -83.730546, 32.435249 ], [ -83.730633, 32.435531 ], [ -83.730965, 32.435764 ], [ -83.730904, 32.435792 ], [ -83.730622, 32.435699 ], [ -83.730485, 32.435682 ], [ -83.730397, 32.435687 ], [ -83.730343, 32.43574 ], [ -83.730234, 32.436015 ], [ -83.729922, 32.435776 ], [ -83.729632, 32.43563 ], [ -83.729407, 32.435561 ], [ -83.728935, 32.435467 ], [ -83.728434, 32.435516 ], [ -83.728028, 32.435661 ], [ -83.727846, 32.435699 ], [ -83.727705, 32.435692 ], [ -83.727368, 32.435624 ], [ -83.727525, 32.435179 ] ] ] ] } },
{ "type": "Feature", "properties": { "match": "Agree", "fill": "#1B7837", "ssurgo_musym": "OgB2", "ssurgo_unit": "Orangeburg loamy fine sand, 2 to 5 percent slopes, eroded", "ssurgo_series": "Orangeburg", "field_series": "Orangeburg", "drainage": "Well drained", "slope": "2 to 5 percent" }, "geometry": { "type": "Polygon", "coordinates": [ [ [ -83.731467, 32.43575 ], [ -83.731593, 32.435764 ], [ -83.731774, 32.435816 ], [ -83.732052, 32.435927 ], [ -83.731659, 32.435873 ], [ -83.731549, 32.435822 ], [ -83.731467, 32.43575 ] ] ] } },
{ "type": "Feature", "properties": { "match": "Disagree", "fill": "#E8710A", "ssurgo_musym": "OgB2", "ssurgo_unit": "Orangeburg loamy fine sand, 2 to 5 percent slopes, eroded", "ssurgo_series": "Orangeburg", "field_series": null, "drainage": "Well drained", "slope": "2 to 5 percent" }, "geometry": { "type": "Polygon", "coordinates": [ [ [ -83.731111, 32.435915 ], [ -83.731269, 32.436175 ], [ -83.73134, 32.43646 ], [ -83.731268, 32.436175 ], [ -83.731111, 32.435915 ] ] ] } },
{ "type": "Feature", "properties": { "match": "Disagree", "fill": "#E8710A", "ssurgo_musym": "OgB2", "ssurgo_unit": "Orangeburg loamy fine sand, 2 to 5 percent slopes, eroded", "ssurgo_series": "Orangeburg", "field_series": "Lucy", "drainage": "Well drained", "slope": "2 to 5 percent" }, "geometry": { "type": "Polygon", "coordinates": [ [ [ -83.731123, 32.436529 ], [ -83.730784, 32.436188 ], [ -83.730778, 32.435978 ], [ -83.730799, 32.435905 ], [ -83.730904, 32.435792 ], [ -83.731032, 32.435843 ], [ -83.73109, 32.435888 ], [ -83.731236, 32.436113 ], [ -83.731279, 32.436208 ], [ -83.73134, 32.43646 ], [ -83.731336, 32.436501 ], [ -83.731289, 32.436526 ], [ -83.731123, 32.436529 ] ] ] } },
{ "type": "Feature", "properties": { "match": "Disagree", "fill": "#E8710A", "ssurgo_musym": "OgB2", "ssurgo_unit": "Orangeburg loamy fine sand, 2 to 5 percent slopes, eroded", "ssurgo_series": "Orangeburg", "field_series": null, "drainage": "Well drained", "slope": "2 to 5 percent" }, "geometry": { "type": "Polygon", "coordinates": [ [ [ -83.736641, 32.437323 ], [ -83.736591, 32.437161 ], [ -83.73664, 32.437158 ], [ -83.736641, 32.437323 ] ] ] } },
{ "type": "Feature", "properties": { "match": "Disagree", "fill": "#E8710A", "ssurgo_musym": "OgB2", "ssurgo_unit": "Orangeburg loamy fine sand, 2 to 5 percent slopes, eroded", "ssurgo_series": "Orangeburg", "field_series": "Greenville", "drainage": "Well drained", "slope": "2 to 5 percent" }, "geometry": { "type": "MultiPolygon", "coordinates": [ [ [ [ -83.731262, 32.436159 ], [ -83.731091, 32.435886 ], [ -83.730965, 32.435764 ], [ -83.731009, 32.435744 ], [ -83.731297, 32.435731 ], [ -83.731467, 32.43575 ], [ -83.731549, 32.435822 ], [ -83.731659, 32.435873 ], [ -83.732081, 32.435939 ], [ -83.732353, 32.436165 ], [ -83.732611, 32.436601 ], [ -83.731865, 32.436601 ], [ -83.731689, 32.436589 ], [ -83.731401, 32.436532 ], [ -83.731361, 32.436503 ], [ -83.731262, 32.436159 ] ] ], [ [ [ -83.734368, 32.437017 ], [ -83.734846, 32.43708 ], [ -83.73498, 32.437127 ], [ -83.735182, 32.43724 ], [ -83.735318, 32.437364 ], [ -83.735211, 32.437454 ], [ -83.735001, 32.437553 ], [ -83.734904, 32.437571 ], [ -83.734701, 32.437569 ], [ -83.734317, 32.43754 ], [ -83.734069, 32.437488 ], [ -83.733946, 32.43742 ], [ -83.733807, 32.437275 ], [ -83.733769, 32.43718 ], [ -83.733752, 32.436962 ], [ -83.734368, 32.437017 ] ] ] ] } },
{ "type": "Feature", "properties": { "match": "Disagree", "fill": "#E8710A", "ssurgo_musym": "OgB2", "ssurgo_unit": "Orangeburg loamy fine sand, 2 to 5 percent slopes, eroded", "ssurgo_series": "Orangeburg", "field_series": "Faceville", "drainage": "Well drained", "slope": "2 to 5 percent" }, "geometry": { "type": "Polygon", "coordinates": [ [ [ -83.730904, 32.435792 ], [ -83.730965, 32.435764 ], [ -83.731111, 32.435915 ], [ -83.731048, 32.435853 ], [ -83.730904, 32.435792 ] ] ] } },
{ "type": "Feature", "properties": { "match": "Agree", "fill": "#1B7837", "ssurgo_musym": "OgB2", "ssurgo_unit": "Orangeburg loamy fine sand, 2 to 5 percent slopes, eroded", "ssurgo_series": "Orangeburg", "field_series": "Orangeburg", "drainage": "Well drained", "slope": "2 to 5 percent" }, "geometry": { "type": "Polygon", "coordinates": [ [ [ -83.733519, 32.437904 ], [ -83.73348, 32.437852 ], [ -83.733664, 32.437884 ], [ -83.733804, 32.437926 ], [ -83.733995, 32.438002 ], [ -83.734121, 32.438111 ], [ -83.733519, 32.437904 ] ] ] } },
{ "type": "Feature", "properties": { "match": "Disagree", "fill": "#E8710A", "ssurgo_musym": "OgB2", "ssurgo_unit": "Orangeburg loamy fine sand, 2 to 5 percent slopes, eroded", "ssurgo_series": "Orangeburg", "field_series": "Faceville", "drainage": "Well drained", "slope": "2 to 5 percent" }, "geometry": { "type": "Polygon", "coordinates": [ [ [ -83.734465, 32.43829 ], [ -83.734313, 32.438191 ], [ -83.734121, 32.438111 ], [ -83.734028, 32.438023 ], [ -83.733959, 32.437985 ], [ -83.733705, 32.437894 ], [ -83.73348, 32.437852 ], [ -83.73344, 32.437799 ], [ -83.732975, 32.437554 ], [ -83.732591, 32.437199 ], [ -83.73246, 32.437173 ], [ -83.732108, 32.437184 ], [ -83.731984, 32.437145 ], [ -83.731771, 32.436915 ], [ -83.731424, 32.436779 ], [ -83.731275, 32.436681 ], [ -83.731123, 32.436529 ], [ -83.731305, 32.436523 ], [ -83.731336, 32.436501 ], [ -83.73134, 32.43646 ], [ -83.731372, 32.436515 ], [ -83.731419, 32.436539 ], [ -83.731728, 32.436594 ], [ -83.732611, 32.436601 ], [ -83.73267, 32.436699 ], [ -83.732756, 32.436802 ], [ -83.732833, 32.436853 ], [ -83.733254, 32.436917 ], [ -83.733752, 32.436962 ], [ -83.733769, 32.43718 ], [ -83.733817, 32.43729 ], [ -83.733989, 32.437452 ], [ -83.734159, 32.437512 ], [ -83.734536, 32.437558 ], [ -83.734943, 32.437567 ], [ -83.735038, 32.437539 ], [ -83.735179, 32.437472 ], [ -83.735318, 32.437364 ], [ -83.735348, 32.437392 ], [ -83.735765, 32.437428 ], [ -83.736146, 32.437689 ], [ -83.736281, 32.437734 ], [ -83.736427, 32.437744 ], [ -83.736529, 32.437729 ], [ -83.736615, 32.437695 ], [ -83.736653, 32.43764 ], [ -83.736677, 32.438523 ], [ -83.735046, 32.438372 ], [ -83.734511, 32.43834 ], [ -83.734465, 32.43829 ] ] ] } },
{ "type": "Feature", "properties": { "match": "Agree", "fill": "#1B7837", "ssurgo_musym": "OgC2", "ssurgo_unit": "Orangeburg loamy fine sand, 5 to 8 percent slopes, eroded", "ssurgo_series": "Orangeburg", "field_series": "Orangeburg", "drainage": "Well drained", "slope": "5 to 8 percent" }, "geometry": { "type": "Polygon", "coordinates": [ [ [ -83.732098, 32.435931 ], [ -83.732405, 32.435797 ], [ -83.732597, 32.435757 ], [ -83.732744, 32.435752 ], [ -83.732815, 32.435773 ], [ -83.732822, 32.436084 ], [ -83.732647, 32.436063 ], [ -83.732387, 32.435971 ], [ -83.732098, 32.435931 ] ] ] } },
{ "type": "Feature", "properties": { "match": "Disagree", "fill": "#E8710A", "ssurgo_musym": "OgC2", "ssurgo_unit": "Orangeburg loamy fine sand, 5 to 8 percent slopes, eroded", "ssurgo_series": "Orangeburg", "field_series": "Leefield", "drainage": "Well drained", "slope": "5 to 8 percent" }, "geometry": { "type": "Polygon", "coordinates": [ [ [ -83.732822, 32.436084 ], [ -83.732815, 32.435773 ], [ -83.732967, 32.435816 ], [ -83.733438, 32.436032 ], [ -83.733628, 32.436102 ], [ -83.733695, 32.43618 ], [ -83.733629, 32.436145 ], [ -83.733523, 32.436125 ], [ -83.732822, 32.436084 ] ] ] } },
{ "type": "Feature", "properties": { "match": "Disagree", "fill": "#E8710A", "ssurgo_musym": "OgC2", "ssurgo_unit": "Orangeburg loamy fine sand, 5 to 8 percent slopes, eroded", "ssurgo_series": "Orangeburg", "field_series": null, "drainage": "Well drained", "slope": "5 to 8 percent" }, "geometry": { "type": "Polygon", "coordinates": [ [ [ -83.735361, 32.436913 ], [ -83.735011, 32.436736 ], [ -83.73484, 32.436617 ], [ -83.734698, 32.436551 ], [ -83.734318, 32.436412 ], [ -83.733895, 32.436311 ], [ -83.733695, 32.43618 ], [ -83.733628, 32.436102 ], [ -83.733845, 32.436142 ], [ -83.734188, 32.436137 ], [ -83.734507, 32.436246 ], [ -83.734691, 32.436284 ], [ -83.734787, 32.436279 ], [ -83.735076, 32.436218 ], [ -83.735166, 32.436221 ], [ -83.73525, 32.436255 ], [ -83.735432, 32.436383 ], [ -83.735568, 32.436581 ], [ -83.735661, 32.436666 ], [ -83.736138, 32.436862 ], [ -83.736591, 32.437161 ], [ -83.736641, 32.437323 ], [ -83.736344, 32.437237 ], [ -83.735963, 32.43702 ], [ -83.735719, 32.436967 ], [ -83.735361, 32.436913 ] ] ] } },
{ "type": "Feature", "properties": { "match": "Disagree", "fill": "#E8710A", "ssurgo_musym": "OgC2", "ssurgo_unit": "Orangeburg loamy fine sand, 5 to 8 percent slopes, eroded", "ssurgo_series": "Orangeburg", "field_series": "Greenville", "drainage": "Well drained", "slope": "5 to 8 percent" }, "geometry": { "type": "Polygon", "coordinates": [ [ [ -83.733752, 32.436962 ], [ -83.733729, 32.436816 ], [ -83.733699, 32.436733 ], [ -83.733631, 32.436653 ], [ -83.733554, 32.436613 ], [ -83.733413, 32.436599 ], [ -83.732611, 32.436601 ], [ -83.732353, 32.436165 ], [ -83.732081, 32.435939 ], [ -83.732159, 32.435937 ], [ -83.732406, 32.435975 ], [ -83.732594, 32.436048 ], [ -83.732706, 32.436074 ], [ -83.733485, 32.436121 ], [ -83.733629, 32.436145 ], [ -83.733912, 32.436318 ], [ -83.734337, 32.436418 ], [ -83.734752, 32.436574 ], [ -83.734856, 32.436627 ], [ -83.735011, 32.436736 ], [ -83.735319, 32.436885 ], [ -83.735373, 32.436923 ], [ -83.735404, 32.436977 ], [ -83.735412, 32.437177 ], [ -83.735386, 32.437255 ], [ -83.735318, 32.437364 ], [ -83.735182, 32.43724 ], [ -83.73498, 32.437127 ], [ -83.734846, 32.43708 ], [ -83.734368, 32.437017 ], [ -83.733752, 32.436962 ] ] ] } },
{ "type": "Feature", "properties": { "match": "Disagree", "fill": "#E8710A", "ssurgo_musym": "OgC2", "ssurgo_unit": "Orangeburg loamy fine sand, 5 to 8 percent slopes, eroded", "ssurgo_series": "Orangeburg", "field_series": "Faceville", "drainage": "Well drained", "slope": "5 to 8 percent" }, "geometry": { "type": "MultiPolygon", "coordinates": [ [ [ [ -83.733455, 32.4366 ], [ -83.733587, 32.436626 ], [ -83.733657, 32.436677 ], [ -83.733707, 32.436748 ], [ -83.733752, 32.436962 ], [ -83.733254, 32.436917 ], [ -83.732833, 32.436853 ], [ -83.732756, 32.436802 ], [ -83.73267, 32.436699 ], [ -83.732611, 32.436601 ], [ -83.733455, 32.4366 ] ] ], [ [ [ -83.735319, 32.437363 ], [ -83.735394, 32.437239 ], [ -83.735416, 32.437147 ], [ -83.735408, 32.436992 ], [ -83.735361, 32.436913 ], [ -83.735843, 32.43699 ], [ -83.736018, 32.437043 ], [ -83.736344, 32.437237 ], [ -83.736641, 32.437323 ], [ -83.736653, 32.43764 ], [ -83.736615, 32.437695 ], [ -83.736529, 32.437729 ], [ -83.736427, 32.437744 ], [ -83.736281, 32.437734 ], [ -83.736146, 32.437689 ], [ -83.735765, 32.437428 ], [ -83.735348, 32.437392 ], [ -83.735319, 32.437363 ] ] ] ] } },
{ "type": "Feature", "properties": { "match": "Disagree", "fill": "#E8710A", "ssurgo_musym": "Grd", "ssurgo_unit": "Grady soils", "ssurgo_series": "Grady", "field_series": "Faceville", "drainage": "Poorly drained", "slope": "0 to 2 percent" }, "geometry": { "type": "Polygon", "coordinates": [ [ [ -83.729951, 32.432753 ], [ -83.730029, 32.432742 ], [ -83.730054, 32.432791 ], [ -83.730098, 32.432821 ], [ -83.729951, 32.432753 ] ] ] } },
{ "type": "Feature", "properties": { "match": "Disagree", "fill": "#E8710A", "ssurgo_musym": "Grd", "ssurgo_unit": "Grady soils", "ssurgo_series": "Grady", "field_series": "Norfolk", "drainage": "Poorly drained", "slope": "0 to 2 percent" }, "geometry": { "type": "Polygon", "coordinates": [ [ [ -83.730098, 32.432821 ], [ -83.730054, 32.432791 ], [ -83.730029, 32.432742 ], [ -83.730152, 32.432724 ], [ -83.730778, 32.432697 ], [ -83.730809, 32.432977 ], [ -83.73085, 32.433097 ], [ -83.730098, 32.432821 ] ] ] } },
{ "type": "Feature", "properties": { "match": "Disagree", "fill": "#E8710A", "ssurgo_musym": "Grd", "ssurgo_unit": "Grady soils", "ssurgo_series": "Grady", "field_series": "Lakeland", "drainage": "Poorly drained", "slope": "0 to 2 percent" }, "geometry": { "type": "Polygon", "coordinates": [ [ [ -83.730369, 32.434305 ], [ -83.730181, 32.434178 ], [ -83.729977, 32.43382 ], [ -83.729679, 32.433506 ], [ -83.729615, 32.433357 ], [ -83.729602, 32.433158 ], [ -83.729624, 32.433039 ], [ -83.729668, 32.432924 ], [ -83.729746, 32.432822 ], [ -83.729826, 32.43277 ], [ -83.729951, 32.432753 ], [ -83.730134, 32.432836 ], [ -83.730397, 32.432924 ], [ -83.730474, 32.433076 ], [ -83.730488, 32.433175 ], [ -83.730469, 32.433309 ], [ -83.730223, 32.433969 ], [ -83.730229, 32.434033 ], [ -83.730272, 32.434142 ], [ -83.730414, 32.434321 ], [ -83.730369, 32.434305 ] ] ] } },
{ "type": "Feature", "properties": { "match": "Disagree", "fill": "#E8710A", "ssurgo_musym": "Grd", "ssurgo_unit": "Grady soils", "ssurgo_series": "Grady", "field_series": "Johns", "drainage": "Poorly drained", "slope": "0 to 2 percent" }, "geometry": { "type": "Polygon", "coordinates": [ [ [ -83.730414, 32.434321 ], [ -83.730281, 32.434157 ], [ -83.730222, 32.433986 ], [ -83.730246, 32.433886 ], [ -83.730422, 32.433453 ], [ -83.73048, 32.43326 ], [ -83.730483, 32.433108 ], [ -83.730397, 32.432924 ], [ -83.73085, 32.433097 ], [ -83.730864, 32.433221 ], [ -83.730915, 32.433332 ], [ -83.731163, 32.43357 ], [ -83.731423, 32.433787 ], [ -83.730784, 32.433973 ], [ -83.730702, 32.434042 ], [ -83.730632, 32.434143 ], [ -83.730592, 32.434358 ], [ -83.730414, 32.434321 ] ] ] } },
{ "type": "Feature", "properties": { "match": "Disagree", "fill": "#E8710A", "ssurgo_musym": "Grd", "ssurgo_unit": "Grady soils", "ssurgo_series": "Grady", "field_series": null, "drainage": "Poorly drained", "slope": "0 to 2 percent" }, "geometry": { "type": "Polygon", "coordinates": [ ] } },
{ "type": "Feature", "properties": { "match": "Disagree", "fill": "#E8710A", "ssurgo_musym": "Grd", "ssurgo_unit": "Grady soils", "ssurgo_series": "Grady", "field_series": null, "drainage": "Poorly drained", "slope": "0 to 2 percent" }, "geometry": { "type": "Polygon", "coordinates": [ ] } },
{ "type": "Feature", "properties": { "match": "Disagree", "fill": "#E8710A", "ssurgo_musym": "Grd", "ssurgo_unit": "Grady soils", "ssurgo_series": "Grady", "field_series": null, "drainage": "Poorly drained", "slope": "0 to 2 percent" }, "geometry": { "type": "Polygon", "coordinates": [ ] } },
{ "type": "Feature", "properties": { "match": "Disagree", "fill": "#E8710A", "ssurgo_musym": "Grd", "ssurgo_unit": "Grady soils", "ssurgo_series": "Grady", "field_series": null, "drainage": "Poorly drained", "slope": "0 to 2 percent" }, "geometry": { "type": "Polygon", "coordinates": [ [ [ -83.73331, 32.434732 ], [ -83.73333, 32.434845 ], [ -83.733379, 32.434953 ], [ -83.73333, 32.434844 ], [ -83.73331, 32.434732 ] ] ] } },
{ "type": "Feature", "properties": { "match": "Disagree", "fill": "#E8710A", "ssurgo_musym": "Grd", "ssurgo_unit": "Grady soils", "ssurgo_series": "Grady", "field_series": null, "drainage": "Poorly drained", "slope": "0 to 2 percent" }, "geometry": { "type": "Polygon", "coordinates": [ ] } },
{ "type": "Feature", "properties": { "match": "Disagree", "fill": "#E8710A", "ssurgo_musym": "Grd", "ssurgo_unit": "Grady soils", "ssurgo_series": "Grady", "field_series": null, "drainage": "Poorly drained", "slope": "0 to 2 percent" }, "geometry": { "type": "Polygon", "coordinates": [ ] } },
{ "type": "Feature", "properties": { "match": "Disagree", "fill": "#E8710A", "ssurgo_musym": "Grd", "ssurgo_unit": "Grady soils", "ssurgo_series": "Grady", "field_series": "Blanton", "drainage": "Poorly drained", "slope": "0 to 2 percent" }, "geometry": { "type": "Polygon", "coordinates": [ [ [ -83.73107, 32.434997 ], [ -83.731012, 32.43469 ], [ -83.73096, 32.434547 ], [ -83.730919, 32.434495 ], [ -83.730856, 32.434455 ], [ -83.730592, 32.434358 ], [ -83.73062, 32.434176 ], [ -83.730691, 32.434056 ], [ -83.730784, 32.433973 ], [ -83.731423, 32.433787 ], [ -83.731936, 32.434177 ], [ -83.732268, 32.434386 ], [ -83.732378, 32.43475 ], [ -83.732419, 32.434826 ], [ -83.73199, 32.434961 ], [ -83.731601, 32.435048 ], [ -83.73107, 32.434997 ] ] ] } },
{ "type": "Feature", "properties": { "match": "Disagree", "fill": "#E8710A", "ssurgo_musym": "Grd", "ssurgo_unit": "Grady soils", "ssurgo_series": "Grady", "field_series": null, "drainage": "Poorly drained", "slope": "0 to 2 percent" }, "geometry": { "type": "Polygon", "coordinates": [ ] } },
{ "type": "Feature", "properties": { "match": "Disagree", "fill": "#E8710A", "ssurgo_musym": "Grd", "ssurgo_unit": "Grady soils", "ssurgo_series": "Grady", "field_series": null, "drainage": "Poorly drained", "slope": "0 to 2 percent" }, "geometry": { "type": "Polygon", "coordinates": [ ] } },
{ "type": "Feature", "properties": { "match": "Disagree", "fill": "#E8710A", "ssurgo_musym": "Grd", "ssurgo_unit": "Grady soils", "ssurgo_series": "Grady", "field_series": null, "drainage": "Poorly drained", "slope": "0 to 2 percent" }, "geometry": { "type": "Polygon", "coordinates": [ ] } },
{ "type": "Feature", "properties": { "match": "Disagree", "fill": "#E8710A", "ssurgo_musym": "Grd", "ssurgo_unit": "Grady soils", "ssurgo_series": "Grady", "field_series": "Norfolk", "drainage": "Poorly drained", "slope": "0 to 2 percent" }, "geometry": { "type": "MultiPolygon", "coordinates": [ [ [ [ -83.730885, 32.432692 ], [ -83.730841, 32.433018 ], [ -83.730847, 32.433069 ], [ -83.730809, 32.432977 ], [ -83.730778, 32.432697 ], [ -83.730885, 32.432692 ] ] ], [ [ [ -83.732408, 32.434812 ], [ -83.732268, 32.434386 ], [ -83.732721, 32.434561 ], [ -83.73306, 32.434593 ], [ -83.733248, 32.434565 ], [ -83.73338, 32.434511 ], [ -83.733311, 32.434708 ], [ -83.733325, 32.434827 ], [ -83.733379, 32.434952 ], [ -83.733592, 32.435291 ], [ -83.732537, 32.434889 ], [ -83.732448, 32.434847 ], [ -83.732408, 32.434812 ] ] ] ] } },
{ "type": "Feature", "properties": { "match": "Disagree", "fill": "#E8710A", "ssurgo_musym": "Grd", "ssurgo_unit": "Grady soils", "ssurgo_series": "Grady", "field_series": "Orangeburg", "drainage": "Poorly drained", "slope": "0 to 2 percent" }, "geometry": { "type": "Polygon", "coordinates": [ [ [ -83.731601, 32.435048 ], [ -83.73199, 32.434961 ], [ -83.732419, 32.434826 ], [ -83.732626, 32.435083 ], [ -83.732813, 32.435353 ], [ -83.732833, 32.435434 ], [ -83.732825, 32.435588 ], [ -83.732599, 32.435515 ], [ -83.732346, 32.435394 ], [ -83.73201, 32.435159 ], [ -83.731888, 32.435099 ], [ -83.731601, 32.435048 ] ] ] } },
{ "type": "Feature", "properties": { "match": "Disagree", "fill": "#E8710A", "ssurgo_musym": "Grd", "ssurgo_unit": "Grady soils", "ssurgo_series": "Grady", "field_series": "Leefield", "drainage": "Poorly drained", "slope": "0 to 2 percent" }, "geometry": { "type": "Polygon", "coordinates": [ [ [ -83.732825, 32.435588 ], [ -83.732833, 32.435434 ], [ -83.732813, 32.435353 ], [ -83.732626, 32.435083 ], [ -83.732419, 32.434826 ], [ -83.732537, 32.434889 ], [ -83.733515, 32.435269 ], [ -83.733577, 32.43529 ], [ -83.73359, 32.435283 ], [ -83.733601, 32.435301 ], [ -83.73361, 32.435394 ], [ -83.733544, 32.43569 ], [ -83.73335, 32.435638 ], [ -83.732962, 32.435615 ], [ -83.732825, 32.435588 ] ] ] } },
{ "type": "Feature", "properties": { "match": "Disagree", "fill": "#E8710A", "ssurgo_musym": "Grd", "ssurgo_unit": "Grady soils", "ssurgo_series": "Grady", "field_series": null, "drainage": "Poorly drained", "slope": "0 to 2 percent" }, "geometry": { "type": "Polygon", "coordinates": [ [ [ -83.734188, 32.436137 ], [ -83.734076, 32.435942 ], [ -83.733931, 32.435838 ], [ -83.73372, 32.435737 ], [ -83.733544, 32.43569 ], [ -83.733605, 32.435427 ], [ -83.733612, 32.435331 ], [ -83.733362, 32.434921 ], [ -83.733325, 32.434828 ], [ -83.73331, 32.434725 ], [ -83.73338, 32.434511 ], [ -83.733597, 32.434423 ], [ -83.733742, 32.434404 ], [ -83.733841, 32.434409 ], [ -83.734018, 32.434464 ], [ -83.734438, 32.434668 ], [ -83.734529, 32.434691 ], [ -83.734819, 32.434718 ], [ -83.734962, 32.434758 ], [ -83.735083, 32.434822 ], [ -83.735301, 32.435082 ], [ -83.735496, 32.435405 ], [ -83.735538, 32.435517 ], [ -83.735561, 32.435796 ], [ -83.735753, 32.43616 ], [ -83.735752, 32.436241 ], [ -83.735707, 32.436315 ], [ -83.73563, 32.436352 ], [ -83.735432, 32.436383 ], [ -83.73525, 32.436255 ], [ -83.735166, 32.436221 ], [ -83.735076, 32.436218 ], [ -83.734787, 32.436279 ], [ -83.734691, 32.436284 ], [ -83.734507, 32.436246 ], [ -83.734188, 32.436137 ] ] ] } },
{ "type": "Feature", "properties": { "match": "Disagree", "fill": "#E8710A", "ssurgo_musym": "Grd", "ssurgo_unit": "Grady soils", "ssurgo_series": "Grady", "field_series": "Greenville", "drainage": "Poorly drained", "slope": "0 to 2 percent" }, "geometry": { "type": "Polygon", "coordinates": [ [ [ -83.730369, 32.434305 ], [ -83.730728, 32.434401 ], [ -83.730856, 32.434455 ], [ -83.730931, 32.434507 ], [ -83.731003, 32.434656 ], [ -83.73107, 32.434997 ], [ -83.730847, 32.434925 ], [ -83.730699, 32.434819 ], [ -83.73063, 32.434719 ], [ -83.730545, 32.434485 ], [ -83.730481, 32.434381 ], [ -83.730369, 32.434305 ] ] ] } },
{ "type": "Feature", "properties": { "match": "Disagree", "fill": "#E8710A", "ssurgo_musym": "Gul", "ssurgo_unit": "Gullied land", "ssurgo_series": null, "field_series": "Troup", "drainage": "Well drained", "slope": "0 to 5 percent" }, "geometry": { "type": "Polygon", "coordinates": [ [ [ -83.727719, 32.438472 ], [ -83.727825, 32.43851 ], [ -83.727778, 32.438523 ], [ -83.727719, 32.438472 ] ] ] } },
{ "type": "Feature", "properties": { "match": "Agree", "fill": "#1B7837", "ssurgo_musym": "OcC3", "ssurgo_unit": "Orangeburg sandy loam, 5 to 8 percent slopes, severely eroded", "ssurgo_series": "Orangeburg", "field_series": "Orangeburg", "drainage": "Well drained", "slope": "5 to 8 percent" }, "geometry": { "type": "Polygon", "coordinates": [ ] } },
{ "type": "Feature", "properties": { "match": "Disagree", "fill": "#E8710A", "ssurgo_musym": "OgC2", "ssurgo_unit": "Orangeburg loamy fine sand, 5 to 8 percent slopes, eroded", "ssurgo_series": "Orangeburg", "field_series": "Benevolence", "drainage": "Well drained", "slope": "5 to 8 percent" }, "geometry": { "type": "Polygon", "coordinates": [ [ [ -83.72775, 32.433083 ], [ -83.727813, 32.433021 ], [ -83.727954, 32.432958 ], [ -83.728042, 32.432952 ], [ -83.728189, 32.432971 ], [ -83.72838, 32.433029 ], [ -83.728263, 32.43353 ], [ -83.728098, 32.433302 ], [ -83.72775, 32.433083 ] ] ] } },
{ "type": "Feature", "properties": { "match": "Disagree", "fill": "#E8710A", "ssurgo_musym": "OgC2", "ssurgo_unit": "Orangeburg loamy fine sand, 5 to 8 percent slopes, eroded", "ssurgo_series": "Orangeburg", "field_series": "Greenville", "drainage": "Well drained", "slope": "5 to 8 percent" }, "geometry": { "type": "Polygon", "coordinates": [ [ [ -83.72742, 32.433548 ], [ -83.727669, 32.433161 ], [ -83.72775, 32.433083 ], [ -83.728098, 32.433302 ], [ -83.728263, 32.43353 ], [ -83.728091, 32.433715 ], [ -83.727953, 32.43394 ], [ -83.727888, 32.433864 ], [ -83.727645, 32.433651 ], [ -83.72742, 32.433548 ] ] ] } },
{ "type": "Feature", "properties": { "match": "Agree", "fill": "#1B7837", "ssurgo_musym": "OgC2", "ssurgo_unit": "Orangeburg loamy fine sand, 5 to 8 percent slopes, eroded", "ssurgo_series": "Orangeburg", "field_series": "Orangeburg", "drainage": "Well drained", "slope": "5 to 8 percent" }, "geometry": { "type": "Polygon", "coordinates": [ [ [ -83.728761, 32.434066 ], [ -83.728601, 32.433996 ], [ -83.728522, 32.433919 ], [ -83.728318, 32.433658 ], [ -83.728263, 32.43353 ], [ -83.72838, 32.433029 ], [ -83.728637, 32.433107 ], [ -83.728844, 32.433209 ], [ -83.729103, 32.433393 ], [ -83.729131, 32.433458 ], [ -83.729071, 32.433743 ], [ -83.729042, 32.434123 ], [ -83.728761, 32.434066 ] ] ] } },
{ "type": "Feature", "properties": { "match": "Disagree", "fill": "#E8710A", "ssurgo_musym": "OgC2", "ssurgo_unit": "Orangeburg loamy fine sand, 5 to 8 percent slopes, eroded", "ssurgo_series": "Orangeburg", "field_series": "Lakeland", "drainage": "Well drained", "slope": "5 to 8 percent" }, "geometry": { "type": "Polygon", "coordinates": [ [ [ -83.729075, 32.433823 ], [ -83.729217, 32.434134 ], [ -83.729042, 32.434123 ], [ -83.729075, 32.433823 ] ] ] } },
{ "type": "Feature", "properties": { "match": "Disagree", "fill": "#E8710A", "ssurgo_musym": "OgC2", "ssurgo_unit": "Orangeburg loamy fine sand, 5 to 8 percent slopes, eroded", "ssurgo_series": "Orangeburg", "field_series": "Greenville", "drainage": "Well drained", "slope": "5 to 8 percent" }, "geometry": { "type": "Polygon", "coordinates": [ [ [ -83.728017, 32.434122 ], [ -83.727953, 32.43394 ], [ -83.728091, 32.433715 ], [ -83.728263, 32.43353 ], [ -83.728348, 32.433703 ], [ -83.728587, 32.433985 ], [ -83.728761, 32.434066 ], [ -83.728958, 32.434114 ], [ -83.728932, 32.434386 ], [ -83.728867, 32.434383 ], [ -83.728239, 32.434168 ], [ -83.728017, 32.434122 ] ] ] } },
{ "type": "Feature", "properties": { "match": "Disagree", "fill": "#E8710A", "ssurgo_musym": "OgC2", "ssurgo_unit": "Orangeburg loamy fine sand, 5 to 8 percent slopes, eroded", "ssurgo_series": "Orangeburg", "field_series": "Greenville", "drainage": "Well drained", "slope": "5 to 8 percent" }, "geometry": { "type": "Polygon", "coordinates": [ [ [ -83.728932, 32.434386 ], [ -83.728958, 32.434114 ], [ -83.729217, 32.434134 ], [ -83.729234, 32.434194 ], [ -83.729207, 32.434271 ], [ -83.729107, 32.434364 ], [ -83.729019, 32.43439 ], [ -83.728932, 32.434386 ] ] ] } },
{ "type": "Feature", "properties": { "match": "Disagree", "fill": "#E8710A", "ssurgo_musym": "OgC2", "ssurgo_unit": "Orangeburg loamy fine sand, 5 to 8 percent slopes, eroded", "ssurgo_series": "Orangeburg", "field_series": "Faceville", "drainage": "Well drained", "slope": "5 to 8 percent" }, "geometry": { "type": "Polygon", "coordinates": [ [ [ -83.727667, 32.43412 ], [ -83.727288, 32.433753 ], [ -83.72742, 32.433548 ], [ -83.72763, 32.43364 ], [ -83.727888, 32.433864 ], [ -83.727957, 32.433948 ], [ -83.728017, 32.434122 ], [ -83.727667, 32.43412 ] ] ] } },
{ "type": "Feature", "properties": { "match": "Disagree", "fill": "#E8710A", "ssurgo_musym": "LcM", "ssurgo_unit": "Local alluvial land", "ssurgo_series": null, "field_series": "Marvyn", "drainage": "Well drained", "slope": "0 to 2 percent" }, "geometry": { "type": "Polygon", "coordinates": [ [ [ -83.736417, 32.43161 ], [ -83.736432, 32.431586 ], [ -83.736446, 32.431627 ], [ -83.736417, 32.43161 ] ] ] } },
{ "type": "Feature", "properties": { "match": "Disagree", "fill": "#E8710A", "ssurgo_musym": "LcM", "ssurgo_unit": "Local alluvial land", "ssurgo_series": null, "field_series": "Orangeburg", "drainage": "Well drained", "slope": "0 to 2 percent" }, "geometry": { "type": "Polygon", "coordinates": [ [ [ -83.736343, 32.430891 ], [ -83.736376, 32.431412 ], [ -83.736432, 32.431586 ], [ -83.736417, 32.43161 ], [ -83.736312, 32.431547 ], [ -83.736198, 32.431328 ], [ -83.736155, 32.431094 ], [ -83.736198, 32.430972 ], [ -83.736264, 32.430911 ], [ -83.736343, 32.430891 ] ] ] } },
{ "type": "Feature", "properties": { "match": "Disagree", "fill": "#E8710A", "ssurgo_musym": "LqD", "ssurgo_unit": "Lakeland fine sand, 5 to 12 percent slopes", "ssurgo_series": "Lakeland", "field_series": "Greenville", "drainage": "Excessively drained", "slope": "5 to 12 percent" }, "geometry": { "type": "Polygon", "coordinates": [ [ [ -83.722796, 32.434083 ], [ -83.723072, 32.43423 ], [ -83.723217, 32.434337 ], [ -83.723151, 32.434405 ], [ -83.722796, 32.434083 ] ] ] } },
{ "type": "Feature", "properties": { "match": "Disagree", "fill": "#E8710A", "ssurgo_musym": "LqD", "ssurgo_unit": "Lakeland fine sand, 5 to 12 percent slopes", "ssurgo_series": "Lakeland", "field_series": null, "drainage": "Excessively drained", "slope": "5 to 12 percent" }, "geometry": { "type": "Polygon", "coordinates": [ [ [ -83.724118, 32.435288 ], [ -83.724375, 32.435456 ], [ -83.724696, 32.435819 ], [ -83.724118, 32.435288 ] ] ] } },
{ "type": "Feature", "properties": { "match": "Disagree", "fill": "#E8710A", "ssurgo_musym": "LqD", "ssurgo_unit": "Lakeland fine sand, 5 to 12 percent slopes", "ssurgo_series": "Lakeland", "field_series": "Faceville", "drainage": "Excessively drained", "slope": "5 to 12 percent" }, "geometry": { "type": "Polygon", "coordinates": [ [ [ -83.723151, 32.434405 ], [ -83.723218, 32.434339 ], [ -83.723354, 32.434496 ], [ -83.723435, 32.434661 ], [ -83.723151, 32.434405 ] ] ] } },
{ "type": "Feature", "properties": { "match": "Disagree", "fill": "#E8710A", "ssurgo_musym": "LcB", "ssurgo_unit": "Lucy sand, 0 to 5 percent slopes", "ssurgo_series": "Lucy", "field_series": null, "drainage": "Well drained", "slope": "0 to 5 percent" }, "geometry": { "type": "Polygon", "coordinates": [ [ [ -83.725048, 32.436142 ], [ -83.725251, 32.436142 ], [ -83.725423, 32.436101 ], [ -83.725486, 32.436533 ], [ -83.725048, 32.436142 ] ] ] } },
{ "type": "Feature", "properties": { "match": "Disagree", "fill": "#E8710A", "ssurgo_musym": "LcB", "ssurgo_unit": "Lucy sand, 0 to 5 percent slopes", "ssurgo_series": "Lucy", "field_series": "Faceville", "drainage": "Well drained", "slope": "0 to 5 percent" }, "geometry": { "type": "Polygon", "coordinates": [ [ [ -83.725486, 32.436533 ], [ -83.725423, 32.436101 ], [ -83.725446, 32.436096 ], [ -83.725602, 32.436217 ], [ -83.725689, 32.436248 ], [ -83.726017, 32.436322 ], [ -83.726306, 32.436354 ], [ -83.726501, 32.436347 ], [ -83.72669, 32.436311 ], [ -83.727024, 32.436149 ], [ -83.727053, 32.436704 ], [ -83.727097, 32.436977 ], [ -83.727169, 32.437145 ], [ -83.727041, 32.437301 ], [ -83.726909, 32.437555 ], [ -83.726857, 32.437626 ], [ -83.72678, 32.43767 ], [ -83.725486, 32.436533 ] ] ] } },
{ "type": "Feature", "properties": { "match": "Disagree", "fill": "#E8710A", "ssurgo_musym": "LcB", "ssurgo_unit": "Lucy sand, 0 to 5 percent slopes", "ssurgo_series": "Lucy", "field_series": "Orangeburg", "drainage": "Well drained", "slope": "0 to 5 percent" }, "geometry": { "type": "Polygon", "coordinates": [ [ [ -83.731257, 32.438161 ], [ -83.732088, 32.438196 ], [ -83.732517, 32.438173 ], [ -83.732844, 32.438104 ], [ -83.733519, 32.437904 ], [ -83.734121, 32.438111 ], [ -83.734331, 32.438333 ], [ -83.733356, 32.438328 ], [ -83.731538, 32.43839 ], [ -83.731257, 32.438161 ] ] ] } },
{ "type": "Feature", "properties": { "match": "Agree", "fill": "#1B7837", "ssurgo_musym": "LcB", "ssurgo_unit": "Lucy sand, 0 to 5 percent slopes", "ssurgo_series": "Lucy", "field_series": "Lucy", "drainage": "Well drained", "slope": "0 to 5 percent" }, "geometry": { "type": "MultiPolygon", "coordinates": [ [ [ [ -83.72678, 32.43767 ], [ -83.726881, 32.4376 ], [ -83.727041, 32.437301 ], [ -83.727169, 32.437145 ], [ -83.727511, 32.437525 ], [ -83.727828, 32.437692 ], [ -83.728474, 32.437865 ], [ -83.72875, 32.43792 ], [ -83.728594, 32.437925 ], [ -83.728006, 32.438074 ], [ -83.72796, 32.438057 ], [ -83.727881, 32.43798 ], [ -83.727773, 32.437846 ], [ -83.727645, 32.437633 ], [ -83.727582, 32.437585 ], [ -83.727468, 32.437585 ], [ -83.727288, 32.437618 ], [ -83.726957, 32.437822 ], [ -83.72678, 32.43767 ] ] ], [ [ [ -83.729616, 32.438042 ], [ -83.731257, 32.438161 ], [ -83.731538, 32.43839 ], [ -83.730122, 32.438446 ], [ -83.730011, 32.438355 ], [ -83.72967, 32.438192 ], [ -83.72935, 32.438062 ], [ -83.729018, 32.437971 ], [ -83.729616, 32.438042 ] ] ] ] } },
{ "type": "Feature", "properties": { "match": "Disagree", "fill": "#E8710A", "ssurgo_musym": "LcB", "ssurgo_unit": "Lucy sand, 0 to 5 percent slopes", "ssurgo_series": "Lucy", "field_series": "Faceville", "drainage": "Well drained", "slope": "0 to 5 percent" }, "geometry": { "type": "Polygon", "coordinates": [ [ [ -83.734331, 32.438333 ], [ -83.734121, 32.438111 ], [ -83.734313, 32.438191 ], [ -83.734465, 32.43829 ], [ -83.734511, 32.43834 ], [ -83.734331, 32.438333 ] ] ] } },
{ "type": "Feature", "properties": { "match": "Disagree", "fill": "#E8710A", "ssurgo_musym": "LcB", "ssurgo_unit": "Lucy sand, 0 to 5 percent slopes", "ssurgo_series": "Lucy", "field_series": "Troup", "drainage": "Well drained", "slope": "0 to 5 percent" }, "geometry": { "type": "Polygon", "coordinates": [ [ [ -83.727719, 32.438472 ], [ -83.726957, 32.437822 ], [ -83.727288, 32.437618 ], [ -83.727508, 32.437582 ], [ -83.727612, 32.437598 ], [ -83.727819, 32.437907 ], [ -83.727932, 32.438034 ], [ -83.72799, 32.438071 ], [ -83.728079, 32.438065 ], [ -83.728594, 32.437925 ], [ -83.72875, 32.43792 ], [ -83.729018, 32.437971 ], [ -83.729388, 32.438076 ], [ -83.729977, 32.438336 ], [ -83.730059, 32.438386 ], [ -83.730122, 32.438446 ], [ -83.7287, 32.438496 ], [ -83.72838, 32.438489 ], [ -83.72808, 32.438462 ], [ -83.727825, 32.43851 ], [ -83.727719, 32.438472 ] ] ] } },
{ "type": "Feature", "properties": { "match": "Disagree", "fill": "#E8710A", "ssurgo_musym": "OgB", "ssurgo_unit": "Orangeburg loamy fine sand, 2 to 5 percent slopes", "ssurgo_series": "Orangeburg", "field_series": "Faceville", "drainage": "Well drained", "slope": "2 to 5 percent" }, "geometry": { "type": "Polygon", "coordinates": [ [ [ -83.734376, 32.430476 ], [ -83.734836, 32.430478 ], [ -83.735322, 32.43055 ], [ -83.735158, 32.430587 ], [ -83.734542, 32.430793 ], [ -83.734461, 32.430692 ], [ -83.734376, 32.430476 ] ] ] } },
{ "type": "Feature", "properties": { "match": "Disagree", "fill": "#E8710A", "ssurgo_musym": "OgB", "ssurgo_unit": "Orangeburg loamy fine sand, 2 to 5 percent slopes", "ssurgo_series": "Orangeburg", "field_series": "Marvyn", "drainage": "Well drained", "slope": "2 to 5 percent" }, "geometry": { "type": "Polygon", "coordinates": [ [ [ -83.736405, 32.43281 ], [ -83.736344, 32.432525 ], [ -83.736268, 32.432296 ], [ -83.736096, 32.431991 ], [ -83.736241, 32.43187 ], [ -83.736417, 32.43161 ], [ -83.736446, 32.431627 ], [ -83.736478, 32.431729 ], [ -83.736514, 32.43281 ], [ -83.736405, 32.43281 ] ] ] } },
{ "type": "Feature", "properties": { "match": "Agree", "fill": "#1B7837", "ssurgo_musym": "OgB", "ssurgo_unit": "Orangeburg loamy fine sand, 2 to 5 percent slopes", "ssurgo_series": "Orangeburg", "field_series": "Orangeburg", "drainage": "Well drained", "slope": "2 to 5 percent" }, "geometry": { "type": "Polygon", "coordinates": [ [ [ -83.734542, 32.430793 ], [ -83.735158, 32.430587 ], [ -83.735316, 32.43055 ], [ -83.735812, 32.430553 ], [ -83.736333, 32.430737 ], [ -83.736343, 32.430891 ], [ -83.736264, 32.430911 ], [ -83.736198, 32.430972 ], [ -83.736155, 32.431094 ], [ -83.736198, 32.431328 ], [ -83.736312, 32.431547 ], [ -83.736417, 32.43161 ], [ -83.736229, 32.431883 ], [ -83.736096, 32.431991 ], [ -83.736025, 32.431864 ], [ -83.735693, 32.431426 ], [ -83.735568, 32.431304 ], [ -83.735382, 32.431172 ], [ -83.735221, 32.431088 ], [ -83.734859, 32.43097 ], [ -83.734689, 32.430891 ], [ -83.734542, 32.430793 ] ] ] } },
{ "type": "Feature", "properties": { "match": "Disagree", "fill": "#E8710A", "ssurgo_musym": "OgB", "ssurgo_unit": "Orangeburg loamy fine sand, 2 to 5 percent slopes", "ssurgo_series": "Orangeburg", "field_series": null, "drainage": "Well drained", "slope": "2 to 5 percent" }, "geometry": { "type": "Polygon", "coordinates": [ ] } },
{ "type": "Feature", "properties": { "match": "Disagree", "fill": "#E8710A", "ssurgo_musym": "OgB", "ssurgo_unit": "Orangeburg loamy fine sand, 2 to 5 percent slopes", "ssurgo_series": "Orangeburg", "field_series": "Faceville", "drainage": "Well drained", "slope": "2 to 5 percent" }, "geometry": { "type": "Polygon", "coordinates": [ [ [ -83.736405, 32.43281 ], [ -83.736514, 32.43281 ], [ -83.736527, 32.433223 ], [ -83.736462, 32.433079 ], [ -83.736405, 32.43281 ] ] ] } },
{ "type": "Feature", "properties": { "match": "Agree", "fill": "#1B7837", "ssurgo_musym": "OgB", "ssurgo_unit": "Orangeburg loamy fine sand, 2 to 5 percent slopes", "ssurgo_series": "Orangeburg", "field_series": "Orangeburg", "drainage": "Well drained", "slope": "2 to 5 percent" }, "geometry": { "type": "Polygon", "coordinates": [ [ [ -83.723934, 32.430851 ], [ -83.724371, 32.430708 ], [ -83.724813, 32.430598 ], [ -83.725207, 32.430917 ], [ -83.725322, 32.430991 ], [ -83.725105, 32.431017 ], [ -83.7249, 32.431117 ], [ -83.724625, 32.431119 ], [ -83.724339, 32.431063 ], [ -83.723934, 32.430851 ] ] ] } },
{ "type": "Feature", "properties": { "match": "Disagree", "fill": "#E8710A", "ssurgo_musym": "OgB", "ssurgo_unit": "Orangeburg loamy fine sand, 2 to 5 percent slopes", "ssurgo_series": "Orangeburg", "field_series": "Wagram", "drainage": "Well drained", "slope": "2 to 5 percent" }, "geometry": { "type": "Polygon", "coordinates": [ [ [ -83.725322, 32.430991 ], [ -83.725207, 32.430917 ], [ -83.724813, 32.430598 ], [ -83.725338, 32.430505 ], [ -83.725496, 32.430527 ], [ -83.726256, 32.430486 ], [ -83.726301, 32.430518 ], [ -83.726417, 32.430826 ], [ -83.726588, 32.431004 ], [ -83.726682, 32.431072 ], [ -83.726968, 32.431174 ], [ -83.727147, 32.431284 ], [ -83.726806, 32.431536 ], [ -83.726598, 32.431441 ], [ -83.725861, 32.431153 ], [ -83.725322, 32.430991 ] ] ] } },
{ "type": "Feature", "properties": { "match": "Disagree", "fill": "#E8710A", "ssurgo_musym": "OgB", "ssurgo_unit": "Orangeburg loamy fine sand, 2 to 5 percent slopes", "ssurgo_series": "Orangeburg", "field_series": "Norfolk", "drainage": "Well drained", "slope": "2 to 5 percent" }, "geometry": { "type": "Polygon", "coordinates": [ [ [ -83.726301, 32.430518 ], [ -83.72664, 32.430692 ], [ -83.72673, 32.430719 ], [ -83.726975, 32.43075 ], [ -83.727061, 32.430779 ], [ -83.727134, 32.430831 ], [ -83.72722, 32.430931 ], [ -83.727293, 32.43111 ], [ -83.727196, 32.431247 ], [ -83.727147, 32.431284 ], [ -83.726968, 32.431174 ], [ -83.7267, 32.43108 ], [ -83.726617, 32.431029 ], [ -83.726417, 32.430826 ], [ -83.726301, 32.430518 ] ] ] } },
{ "type": "Feature", "properties": { "match": "Agree", "fill": "#1B7837", "ssurgo_musym": "OgB", "ssurgo_unit": "Orangeburg loamy fine sand, 2 to 5 percent slopes", "ssurgo_series": "Orangeburg", "field_series": "Orangeburg", "drainage": "Well drained", "slope": "2 to 5 percent" }, "geometry": { "type": "Polygon", "coordinates": [ [ [ -83.723619, 32.431264 ], [ -83.723513, 32.431139 ], [ -83.723555, 32.431004 ], [ -83.723934, 32.430851 ], [ -83.724339, 32.431063 ], [ -83.724625, 32.431119 ], [ -83.7249, 32.431117 ], [ -83.725105, 32.431017 ], [ -83.725322, 32.430991 ], [ -83.725861, 32.431153 ], [ -83.726598, 32.431441 ], [ -83.726806, 32.431536 ], [ -83.726337, 32.43183 ], [ -83.726072, 32.431935 ], [ -83.725934, 32.43195 ], [ -83.725742, 32.431939 ], [ -83.725263, 32.431845 ], [ -83.72505, 32.431749 ], [ -83.724845, 32.431566 ], [ -83.724774, 32.431526 ], [ -83.724674, 32.431547 ], [ -83.724634, 32.431579 ], [ -83.724624, 32.431614 ], [ -83.724724, 32.432124 ], [ -83.724712, 32.432267 ], [ -83.724292, 32.432247 ], [ -83.724179, 32.432221 ], [ -83.724005, 32.432059 ], [ -83.723619, 32.431264 ] ] ] } },
{ "type": "Feature", "properties": { "match": "Disagree", "fill": "#E8710A", "ssurgo_musym": "OgB", "ssurgo_unit": "Orangeburg loamy fine sand, 2 to 5 percent slopes", "ssurgo_series": "Orangeburg", "field_series": "Red Bay", "drainage": "Well drained", "slope": "2 to 5 percent" }, "geometry": { "type": "Polygon", "coordinates": [ [ [ -83.723181, 32.432532 ], [ -83.723387, 32.432547 ], [ -83.723492, 32.432596 ], [ -83.72351, 32.43272 ], [ -83.723499, 32.432822 ], [ -83.723475, 32.432884 ], [ -83.723334, 32.433012 ], [ -83.72318, 32.433103 ], [ -83.722897, 32.433166 ], [ -83.72276, 32.433139 ], [ -83.722683, 32.433069 ], [ -83.722649, 32.432971 ], [ -83.722642, 32.432834 ], [ -83.72268, 32.432723 ], [ -83.722769, 32.432656 ], [ -83.722898, 32.432597 ], [ -83.723057, 32.432546 ], [ -83.723181, 32.432532 ] ] ] } },
{ "type": "Feature", "properties": { "match": "Disagree", "fill": "#E8710A", "ssurgo_musym": "OgB", "ssurgo_unit": "Orangeburg loamy fine sand, 2 to 5 percent slopes", "ssurgo_series": "Orangeburg", "field_series": "Faceville", "drainage": "Well drained", "slope": "2 to 5 percent" }, "geometry": { "type": "MultiPolygon", "coordinates": [ [ [ [ -83.723628, 32.43128 ], [ -83.723866, 32.431781 ], [ -83.723631, 32.431965 ], [ -83.72349, 32.431543 ], [ -83.723467, 32.431389 ], [ -83.723513, 32.431139 ], [ -83.723628, 32.43128 ] ] ], [ [ [ -83.721824, 32.432291 ], [ -83.722255, 32.432211 ], [ -83.722445, 32.4322 ], [ -83.722682, 32.432236 ], [ -83.722878, 32.432287 ], [ -83.722532, 32.432509 ], [ -83.722085, 32.432861 ], [ -83.72205, 32.432958 ], [ -83.722013, 32.433372 ], [ -83.721355, 32.432774 ], [ -83.721403, 32.432471 ], [ -83.721638, 32.432282 ], [ -83.721824, 32.432291 ] ] ] ] } },
{ "type": "Feature", "properties": { "match": "Disagree", "fill": "#E8710A", "ssurgo_musym": "OgB", "ssurgo_unit": "Orangeburg loamy fine sand, 2 to 5 percent slopes", "ssurgo_series": "Orangeburg", "field_series": "Greenville", "drainage": "Well drained", "slope": "2 to 5 percent" }, "geometry": { "type": "Polygon", "coordinates": [ [ [ -83.723307, 32.433435 ], [ -83.723258, 32.43341 ], [ -83.722926, 32.433371 ], [ -83.722782, 32.433371 ], [ -83.722443, 32.433427 ], [ -83.722051, 32.433406 ], [ -83.722013, 32.433372 ], [ -83.722061, 32.432907 ], [ -83.722124, 32.432821 ], [ -83.7225, 32.432532 ], [ -83.722878, 32.432287 ], [ -83.723201, 32.432371 ], [ -83.72343, 32.432409 ], [ -83.723521, 32.432386 ], [ -83.723612, 32.432284 ], [ -83.723643, 32.43213 ], [ -83.723631, 32.431965 ], [ -83.723866, 32.431781 ], [ -83.724005, 32.432059 ], [ -83.724179, 32.432221 ], [ -83.724292, 32.432247 ], [ -83.724712, 32.432267 ], [ -83.724688, 32.43256 ], [ -83.724707, 32.432635 ], [ -83.724762, 32.432704 ], [ -83.724919, 32.432797 ], [ -83.725313, 32.432958 ], [ -83.725515, 32.433066 ], [ -83.725775, 32.433282 ], [ -83.725294, 32.433292 ], [ -83.724586, 32.433406 ], [ -83.724409, 32.433453 ], [ -83.724152, 32.433553 ], [ -83.723925, 32.433817 ], [ -83.723778, 32.433921 ], [ -83.72369, 32.433659 ], [ -83.723593, 32.433542 ], [ -83.723455, 32.433515 ], [ -83.723371, 32.433521 ], [ -83.723307, 32.433435 ] ], [ [ -83.72316, 32.432533 ], [ -83.723057, 32.432546 ], [ -83.722859, 32.432612 ], [ -83.722736, 32.432676 ], [ -83.722671, 32.432737 ], [ -83.72264, 32.432851 ], [ -83.722653, 32.432988 ], [ -83.722692, 32.433082 ], [ -83.72276, 32.433139 ], [ -83.722897, 32.433166 ], [ -83.72318, 32.433103 ], [ -83.723334, 32.433012 ], [ -83.723475, 32.432884 ], [ -83.723499, 32.432822 ], [ -83.72351, 32.43272 ], [ -83.723492, 32.432596 ], [ -83.723439, 32.432563 ], [ -83.723369, 32.432543 ], [ -83.72316, 32.432533 ] ] ] } },
{ "type": "Feature", "properties": { "match": "Disagree", "fill": "#E8710A", "ssurgo_musym": "OgB", "ssurgo_unit": "Orangeburg loamy fine sand, 2 to 5 percent slopes", "ssurgo_series": "Orangeburg", "field_series": null, "drainage": "Well drained", "slope": "2 to 5 percent" }, "geometry": { "type": "Polygon", "coordinates": [ [ [ -83.723912, 32.43383 ], [ -83.724152, 32.433553 ], [ -83.724257, 32.433505 ], [ -83.724526, 32.433418 ], [ -83.724663, 32.433616 ], [ -83.724814, 32.433882 ], [ -83.724845, 32.434002 ], [ -83.724833, 32.434099 ], [ -83.724788, 32.434152 ], [ -83.724685, 32.434212 ], [ -83.724614, 32.43423 ], [ -83.724546, 32.434223 ], [ -83.724266, 32.434052 ], [ -83.724062, 32.433947 ], [ -83.723912, 32.43383 ] ] ] } },
{ "type": "Feature", "properties": { "match": "Disagree", "fill": "#E8710A", "ssurgo_musym": "OgB", "ssurgo_unit": "Orangeburg loamy fine sand, 2 to 5 percent slopes", "ssurgo_series": "Orangeburg", "field_series": "Greenville", "drainage": "Well drained", "slope": "2 to 5 percent" }, "geometry": { "type": "Polygon", "coordinates": [ [ [ -83.722051, 32.433406 ], [ -83.722443, 32.433427 ], [ -83.722782, 32.433371 ], [ -83.722926, 32.433371 ], [ -83.723258, 32.43341 ], [ -83.723319, 32.433447 ], [ -83.723371, 32.433521 ], [ -83.723055, 32.433565 ], [ -83.722827, 32.433634 ], [ -83.722651, 32.433708 ], [ -83.722535, 32.433777 ], [ -83.722501, 32.433815 ], [ -83.722051, 32.433406 ] ] ] } },
{ "type": "Feature", "properties": { "match": "Disagree", "fill": "#E8710A", "ssurgo_musym": "OgB", "ssurgo_unit": "Orangeburg loamy fine sand, 2 to 5 percent slopes", "ssurgo_series": "Orangeburg", "field_series": "Greenville", "drainage": "Well drained", "slope": "2 to 5 percent" }, "geometry": { "type": "Polygon", "coordinates": [ [ [ -83.725335, 32.435296 ], [ -83.725331, 32.435013 ], [ -83.725448, 32.434782 ], [ -83.725538, 32.434714 ], [ -83.726071, 32.434425 ], [ -83.726506, 32.43458 ], [ -83.726993, 32.434852 ], [ -83.727065, 32.434924 ], [ -83.72707, 32.435025 ], [ -83.727044, 32.435294 ], [ -83.726958, 32.435671 ], [ -83.726883, 32.435814 ], [ -83.726731, 32.435998 ], [ -83.726841, 32.435665 ], [ -83.726828, 32.435418 ], [ -83.726797, 32.435284 ], [ -83.72676, 32.435206 ], [ -83.726633, 32.435046 ], [ -83.726548, 32.434974 ], [ -83.726274, 32.434892 ], [ -83.725937, 32.43485 ], [ -83.725836, 32.434853 ], [ -83.725734, 32.4349 ], [ -83.725593, 32.434998 ], [ -83.725335, 32.435296 ] ] ] } },
{ "type": "Feature", "properties": { "match": "Disagree", "fill": "#E8710A", "ssurgo_musym": "OgB", "ssurgo_unit": "Orangeburg loamy fine sand, 2 to 5 percent slopes", "ssurgo_series": "Orangeburg", "field_series": "Greenville", "drainage": "Well drained", "slope": "2 to 5 percent" }, "geometry": { "type": "Polygon", "coordinates": [ [ [ -83.725404, 32.435883 ], [ -83.725335, 32.435296 ], [ -83.725553, 32.435038 ], [ -83.725654, 32.434952 ], [ -83.725801, 32.434864 ], [ -83.725916, 32.434849 ], [ -83.726335, 32.434905 ], [ -83.72653, 32.434966 ], [ -83.726607, 32.435019 ], [ -83.726778, 32.435236 ], [ -83.726834, 32.435451 ], [ -83.726841, 32.435665 ], [ -83.726731, 32.435998 ], [ -83.726642, 32.436035 ], [ -83.726442, 32.436085 ], [ -83.72628, 32.436091 ], [ -83.725853, 32.436034 ], [ -83.725404, 32.435883 ] ] ] } },
{ "type": "Feature", "properties": { "match": "Disagree", "fill": "#E8710A", "ssurgo_musym": "OgB", "ssurgo_unit": "Orangeburg loamy fine sand, 2 to 5 percent slopes", "ssurgo_series": "Orangeburg", "field_series": null, "drainage": "Well drained", "slope": "2 to 5 percent" }, "geometry": { "type": "Polygon", "coordinates": [ [ [ -83.723859, 32.434648 ], [ -83.724403, 32.434409 ], [ -83.724501, 32.434413 ], [ -83.724782, 32.434474 ], [ -83.724876, 32.43446 ], [ -83.72566, 32.434063 ], [ -83.726006, 32.433932 ], [ -83.72637, 32.433718 ], [ -83.726629, 32.433789 ], [ -83.727058, 32.433772 ], [ -83.72698, 32.433936 ], [ -83.726698, 32.434145 ], [ -83.72613, 32.434393 ], [ -83.725538, 32.434714 ], [ -83.725437, 32.434795 ], [ -83.725347, 32.434965 ], [ -83.725325, 32.435065 ], [ -83.72534, 32.435363 ], [ -83.725415, 32.436007 ], [ -83.7253, 32.435677 ], [ -83.725204, 32.435538 ], [ -83.725049, 32.435385 ], [ -83.724935, 32.435311 ], [ -83.724764, 32.435236 ], [ -83.724342, 32.435137 ], [ -83.724209, 32.435092 ], [ -83.724034, 32.435006 ], [ -83.723932, 32.43492 ], [ -83.723859, 32.434648 ] ] ] } },
{ "type": "Feature", "properties": { "match": "Disagree", "fill": "#E8710A", "ssurgo_musym": "OgB", "ssurgo_unit": "Orangeburg loamy fine sand, 2 to 5 percent slopes", "ssurgo_series": "Orangeburg", "field_series": "Faceville", "drainage": "Well drained", "slope": "2 to 5 percent" }, "geometry": { "type": "MultiPolygon", "coordinates": [ [ [ [ -83.723783, 32.433918 ], [ -83.723912, 32.43383 ], [ -83.724062, 32.433947 ], [ -83.724266, 32.434052 ], [ -83.724511, 32.43421 ], [ -83.724597, 32.43423 ], [ -83.724685, 32.434212 ], [ -83.724772, 32.434163 ], [ -83.724826, 32.434113 ], [ -83.724846, 32.434037 ], [ -83.724838, 32.433948 ], [ -83.724719, 32.433708 ], [ -83.724526, 32.433418 ], [ -83.725315, 32.43329 ], [ -83.725775, 32.433282 ], [ -83.726073, 32.433561 ], [ -83.726218, 32.433664 ], [ -83.72637, 32.433718 ], [ -83.726006, 32.433932 ], [ -83.72566, 32.434063 ], [ -83.724876, 32.43446 ], [ -83.724782, 32.434474 ], [ -83.724501, 32.434413 ], [ -83.724403, 32.434409 ], [ -83.723859, 32.434648 ], [ -83.723829, 32.434178 ], [ -83.723783, 32.433918 ] ] ], [ [ [ -83.725415, 32.436007 ], [ -83.725404, 32.435883 ], [ -83.725853, 32.436034 ], [ -83.726076, 32.43607 ], [ -83.726362, 32.436094 ], [ -83.726679, 32.436022 ], [ -83.726731, 32.435998 ], [ -83.726784, 32.435948 ], [ -83.726923, 32.435752 ], [ -83.726968, 32.435637 ], [ -83.727046, 32.435276 ], [ -83.727072, 32.43499 ], [ -83.727059, 32.434909 ], [ -83.726976, 32.434842 ], [ -83.726506, 32.43458 ], [ -83.726071, 32.434425 ], [ -83.726715, 32.434135 ], [ -83.72698, 32.433936 ], [ -83.727058, 32.433772 ], [ -83.727288, 32.433753 ], [ -83.727667, 32.43412 ], [ -83.727586, 32.434948 ], [ -83.727525, 32.435179 ], [ -83.727368, 32.435624 ], [ -83.727024, 32.436149 ], [ -83.72669, 32.436311 ], [ -83.726501, 32.436347 ], [ -83.726306, 32.436354 ], [ -83.726017, 32.436322 ], [ -83.725602, 32.436217 ], [ -83.725446, 32.436096 ], [ -83.725415, 32.436007 ] ] ] ] } }
]
}
