{
"type": "FeatureCollection",
"name": "ssurgo_units",
"crs": { "type": "name", "properties": { "name": "urn:ogc:def:crs:OGC:1.3:CRS84" } },
"xy_coordinate_resolution": 1e-06,
"features": [
{ "type": "Feature", "properties": { "ssurgo_musym": "LcB" }, "geometry": { "type": "MultiPolygon", "coordinates": [ [ [ [ -83.734461, 32.430692 ], [ -83.734536, 32.430789 ], [ -83.734689, 32.430891 ], [ -83.734859, 32.43097 ], [ -83.735221, 32.431088 ], [ -83.735382, 32.431172 ], [ -83.735568, 32.431304 ], [ -83.735693, 32.431426 ], [ -83.736025, 32.431864 ], [ -83.736268, 32.432296 ], [ -83.736344, 32.432525 ], [ -83.736462, 32.433079 ], [ -83.736527, 32.433223 ], [ -83.73664, 32.437158 ], [ -83.736591, 32.437161 ], [ -83.736138, 32.436862 ], [ -83.735661, 32.436666 ], [ -83.735568, 32.436581 ], [ -83.735432, 32.436383 ], [ -83.73563, 32.436352 ], [ -83.735707, 32.436315 ], [ -83.735752, 32.436241 ], [ -83.735753, 32.43616 ], [ -83.735561, 32.435796 ], [ -83.735538, 32.435517 ], [ -83.735496, 32.435405 ], [ -83.735301, 32.435082 ], [ -83.735083, 32.434822 ], [ -83.734962, 32.434758 ], [ -83.734819, 32.434718 ], [ -83.734529, 32.434691 ], [ -83.734438, 32.434668 ], [ -83.734018, 32.434464 ], [ -83.733841, 32.434409 ], [ -83.733742, 32.434404 ], [ -83.733597, 32.434423 ], [ -83.733248, 32.434565 ], [ -83.73306, 32.434593 ], [ -83.732721, 32.434561 ], [ -83.732237, 32.434374 ], [ -83.731936, 32.434177 ], [ -83.731503, 32.433854 ], [ -83.731163, 32.43357 ], [ -83.730915, 32.433332 ], [ -83.730864, 32.433221 ], [ -83.730841, 32.433018 ], [ -83.730885, 32.432692 ], [ -83.730152, 32.432724 ], [ -83.729826, 32.43277 ], [ -83.729746, 32.432822 ], [ -83.729668, 32.432924 ], [ -83.729624, 32.433039 ], [ -83.729602, 32.433158 ], [ -83.729615, 32.433357 ], [ -83.729679, 32.433506 ], [ -83.729977, 32.43382 ], [ -83.730181, 32.434178 ], [ -83.730481, 32.434381 ], [ -83.730545, 32.434485 ], [ -83.73063, 32.434719 ], [ -83.730699, 32.434819 ], [ -83.730847, 32.434925 ], [ -83.731027, 32.43499 ], [ -83.731217, 32.435019 ], [ -83.731658, 32.435053 ], [ -83.731888, 32.435099 ], [ -83.73201, 32.435159 ], [ -83.732346, 32.435394 ], [ -83.732599, 32.435515 ], [ -83.732776, 32.435579 ], [ -83.732962, 32.435615 ], [ -83.73335, 32.435638 ], [ -83.73372, 32.435737 ], [ -83.733931, 32.435838 ], [ -83.734076, 32.435942 ], [ -83.734188, 32.436137 ], [ -83.733845, 32.436142 ], [ -83.733657, 32.436113 ], [ -83.733438, 32.436032 ], [ -83.732967, 32.435816 ], [ -83.732744, 32.435752 ], [ -83.732597, 32.435757 ], [ -83.732405, 32.435797 ], [ -83.732081, 32.435939 ], [ -83.731774, 32.435816 ], [ -83.731593, 32.435764 ], [ -83.731297, 32.435731 ], [ -83.731009, 32.435744 ], [ -83.730884, 32.4358 ], [ -83.730799, 32.435905 ], [ -83.730778, 32.435978 ], [ -83.730784, 32.436188 ], [ -83.730555, 32.436191 ], [ -83.730467, 32.436169 ], [ -83.730315, 32.436078 ], [ -83.729922, 32.435776 ], [ -83.729632, 32.43563 ], [ -83.729407, 32.435561 ], [ -83.728935, 32.435467 ], [ -83.728434, 32.435516 ], [ -83.728028, 32.435661 ], [ -83.727846, 32.435699 ], [ -83.727705, 32.435692 ], [ -83.727368, 32.435624 ], [ -83.727525, 32.435179 ], [ -83.727586, 32.434948 ], [ -83.727667, 32.43412 ], [ -83.728056, 32.434122 ], [ -83.728239, 32.434168 ], [ -83.728867, 32.434383 ], [ -83.729019, 32.43439 ], [ -83.729107, 32.434364 ], [ -83.729207, 32.434271 ], [ -83.729234, 32.434194 ], [ -83.729203, 32.434084 ], [ -83.729074, 32.43382 ], [ -83.729071, 32.433743 ], [ -83.729135, 32.433468 ], [ -83.729103, 32.433393 ], [ -83.728844, 32.433209 ], [ -83.728637, 32.433107 ], [ -83.728189, 32.432971 ], [ -83.728042, 32.432952 ], [ -83.727954, 32.432958 ], [ -83.727813, 32.433021 ], [ -83.727669, 32.433161 ], [ -83.727288, 32.433753 ], [ -83.726868, 32.433787 ], [ -83.726629, 32.433789 ], [ -83.726489, 32.43376 ], [ -83.726218, 32.433664 ], [ -83.726073, 32.433561 ], [ -83.725689, 32.433201 ], [ -83.725515, 32.433066 ], [ -83.725313, 32.432958 ], [ -83.724919, 32.432797 ], [ -83.724762, 32.432704 ], [ -83.724707, 32.432635 ], [ -83.724688, 32.43256 ], [ -83.724724, 32.432124 ], [ -83.724624, 32.431614 ], [ -83.724634, 32.431579 ], [ -83.724674, 32.431547 ], [ -83.724774, 32.431526 ], [ -83.724845, 32.431566 ], [ -83.72505, 32.431749 ], [ -83.725263, 32.431845 ], [ -83.725742, 32.431939 ], [ -83.725934, 32.43195 ], [ -83.726072, 32.431935 ], [ -83.726337, 32.43183 ], [ -83.726728, 32.431593 ], [ -83.727196, 32.431247 ], [ -83.727293, 32.43111 ], [ -83.727431, 32.431106 ], [ -83.727539, 32.431023 ], [ -83.727556, 32.430948 ], [ -83.727548, 32.430825 ], [ -83.727486, 32.430675 ], [ -83.727365, 32.430551 ], [ -83.727215, 32.430447 ], [ -83.734376, 32.430476 ], [ -83.734461, 32.430692 ] ] ], [ [ [ -83.734511, 32.43834 ], [ -83.733779, 32.438323 ], [ -83.732497, 32.438351 ], [ -83.72886, 32.438493 ], [ -83.72838, 32.438489 ], [ -83.72808, 32.438462 ], [ -83.727825, 32.43851 ], [ -83.727719, 32.438472 ], [ -83.72642, 32.437363 ], [ -83.725048, 32.436142 ], [ -83.725251, 32.436142 ], [ -83.725446, 32.436096 ], [ -83.725602, 32.436217 ], [ -83.725689, 32.436248 ], [ -83.726017, 32.436322 ], [ -83.726306, 32.436354 ], [ -83.726501, 32.436347 ], [ -83.72669, 32.436311 ], [ -83.727024, 32.436149 ], [ -83.727053, 32.436704 ], [ -83.727097, 32.436977 ], [ -83.727175, 32.437161 ], [ -83.727511, 32.437525 ], [ -83.727828, 32.437692 ], [ -83.728474, 32.437865 ], [ -83.728993, 32.437968 ], [ -83.729616, 32.438042 ], [ -83.731507, 32.438179 ], [ -83.732088, 32.438196 ], [ -83.732517, 32.438173 ], [ -83.732844, 32.438104 ], [ -83.733519, 32.437904 ], [ -83.734055, 32.438084 ], [ -83.734313, 32.438191 ], [ -83.734465, 32.43829 ], [ -83.734511, 32.43834 ] ] ] ] } },
{ "type": "Feature", "properties": { "ssurgo_musym": "LcC" }, "geometry": { "type": "Polygon", "coordinates": [ [ [ -83.723593, 32.433542 ], [ -83.72369, 32.433659 ], [ -83.723773, 32.433897 ], [ -83.723829, 32.434178 ], [ -83.723862, 32.434701 ], [ -83.723932, 32.43492 ], [ -83.724034, 32.435006 ], [ -83.724209, 32.435092 ], [ -83.724342, 32.435137 ], [ -83.724764, 32.435236 ], [ -83.724935, 32.435311 ], [ -83.725049, 32.435385 ], [ -83.725204, 32.435538 ], [ -83.7253, 32.435677 ], [ -83.725446, 32.436096 ], [ -83.725251, 32.436142 ], [ -83.725048, 32.436142 ], [ -83.724696, 32.435819 ], [ -83.724375, 32.435456 ], [ -83.724118, 32.435288 ], [ -83.723435, 32.434661 ], [ -83.723354, 32.434496 ], [ -83.723217, 32.434337 ], [ -83.723072, 32.43423 ], [ -83.722796, 32.434083 ], [ -83.722501, 32.433815 ], [ -83.722535, 32.433777 ], [ -83.722651, 32.433708 ], [ -83.722827, 32.433634 ], [ -83.723055, 32.433565 ], [ -83.723244, 32.433531 ], [ -83.723455, 32.433515 ], [ -83.723593, 32.433542 ] ] ] } },
{ "type": "Feature", "properties": { "ssurgo_musym": "OgA" }, "geometry": { "type": "MultiPolygon", "coordinates": [ [ [ [ -83.730315, 32.436078 ], [ -83.730467, 32.436169 ], [ -83.730555, 32.436191 ], [ -83.730784, 32.436188 ], [ -83.731275, 32.436681 ], [ -83.731424, 32.436779 ], [ -83.731771, 32.436915 ], [ -83.731984, 32.437145 ], [ -83.732108, 32.437184 ], [ -83.73246, 32.437173 ], [ -83.732591, 32.437199 ], [ -83.732975, 32.437554 ], [ -83.73344, 32.437799 ], [ -83.733519, 32.437904 ], [ -83.732844, 32.438104 ], [ -83.732517, 32.438173 ], [ -83.732088, 32.438196 ], [ -83.731507, 32.438179 ], [ -83.729616, 32.438042 ], [ -83.728993, 32.437968 ], [ -83.728474, 32.437865 ], [ -83.727828, 32.437692 ], [ -83.727511, 32.437525 ], [ -83.727175, 32.437161 ], [ -83.727097, 32.436977 ], [ -83.727053, 32.436704 ], [ -83.727024, 32.436149 ], [ -83.727368, 32.435624 ], [ -83.727705, 32.435692 ], [ -83.727846, 32.435699 ], [ -83.728028, 32.435661 ], [ -83.728434, 32.435516 ], [ -83.728935, 32.435467 ], [ -83.729407, 32.435561 ], [ -83.729632, 32.43563 ], [ -83.729922, 32.435776 ], [ -83.730315, 32.436078 ] ] ], [ [ [ -83.723508, 32.431155 ], [ -83.723467, 32.431389 ], [ -83.72349, 32.431543 ], [ -83.723629, 32.431928 ], [ -83.723643, 32.43213 ], [ -83.723612, 32.432284 ], [ -83.723521, 32.432386 ], [ -83.72343, 32.432409 ], [ -83.723201, 32.432371 ], [ -83.722682, 32.432236 ], [ -83.722445, 32.4322 ], [ -83.722255, 32.432211 ], [ -83.721824, 32.432291 ], [ -83.721638, 32.432282 ], [ -83.722384, 32.431688 ], [ -83.72268, 32.431479 ], [ -83.723154, 32.431198 ], [ -83.723555, 32.431004 ], [ -83.723508, 32.431155 ] ] ] ] } },
{ "type": "Feature", "properties": { "ssurgo_musym": "LcM" }, "geometry": { "type": "MultiPolygon", "coordinates": [ [ [ [ -83.726737, 32.430486 ], [ -83.7269, 32.430446 ], [ -83.727216, 32.430447 ], [ -83.727365, 32.430551 ], [ -83.727486, 32.430675 ], [ -83.727548, 32.430825 ], [ -83.727556, 32.430948 ], [ -83.727539, 32.431023 ], [ -83.727431, 32.431106 ], [ -83.727293, 32.43111 ], [ -83.72722, 32.430931 ], [ -83.727134, 32.430831 ], [ -83.727061, 32.430779 ], [ -83.726975, 32.43075 ], [ -83.72673, 32.430719 ], [ -83.72664, 32.430692 ], [ -83.726346, 32.430549 ], [ -83.726256, 32.430486 ], [ -83.726737, 32.430486 ] ] ], [ [ [ -83.736446, 32.431627 ], [ -83.736312, 32.431547 ], [ -83.736198, 32.431328 ], [ -83.736155, 32.431094 ], [ -83.736198, 32.430972 ], [ -83.736264, 32.430911 ], [ -83.736343, 32.430891 ], [ -83.736376, 32.431412 ], [ -83.736446, 32.431627 ] ] ] ] } },
{ "type": "Feature", "properties": { "ssurgo_musym": "OgB2" }, "geometry": { "type": "MultiPolygon", "coordinates": [ [ [ [ -83.731009, 32.435744 ], [ -83.731297, 32.435731 ], [ -83.731593, 32.435764 ], [ -83.731774, 32.435816 ], [ -83.732081, 32.435939 ], [ -83.732353, 32.436165 ], [ -83.73267, 32.436699 ], [ -83.732756, 32.436802 ], [ -83.732833, 32.436853 ], [ -83.733254, 32.436917 ], [ -83.734368, 32.437017 ], [ -83.734846, 32.43708 ], [ -83.73498, 32.437127 ], [ -83.735182, 32.43724 ], [ -83.735348, 32.437392 ], [ -83.735765, 32.437428 ], [ -83.736146, 32.437689 ], [ -83.736281, 32.437734 ], [ -83.736427, 32.437744 ], [ -83.736529, 32.437729 ], [ -83.736615, 32.437695 ], [ -83.736653, 32.43764 ], [ -83.736677, 32.438523 ], [ -83.735046, 32.438372 ], [ -83.734511, 32.43834 ], [ -83.734465, 32.43829 ], [ -83.734313, 32.438191 ], [ -83.734055, 32.438084 ], [ -83.733519, 32.437904 ], [ -83.73344, 32.437799 ], [ -83.732975, 32.437554 ], [ -83.732591, 32.437199 ], [ -83.73246, 32.437173 ], [ -83.732108, 32.437184 ], [ -83.731984, 32.437145 ], [ -83.731771, 32.436915 ], [ -83.731424, 32.436779 ], [ -83.731275, 32.436681 ], [ -83.730784, 32.436188 ], [ -83.730778, 32.435978 ], [ -83.730799, 32.435905 ], [ -83.730884, 32.4358 ], [ -83.731009, 32.435744 ] ] ], [ [ [ -83.736645, 32.437337 ], [ -83.736591, 32.437161 ], [ -83.73664, 32.437158 ], [ -83.736645, 32.437337 ] ] ] ] } },
{ "type": "Feature", "properties": { "ssurgo_musym": "OgC2" }, "geometry": { "type": "MultiPolygon", "coordinates": [ [ [ [ -83.729135, 32.433468 ], [ -83.729071, 32.433743 ], [ -83.729074, 32.43382 ], [ -83.729203, 32.434084 ], [ -83.729234, 32.434194 ], [ -83.729207, 32.434271 ], [ -83.729107, 32.434364 ], [ -83.729019, 32.43439 ], [ -83.728867, 32.434383 ], [ -83.728239, 32.434168 ], [ -83.728056, 32.434122 ], [ -83.727667, 32.43412 ], [ -83.727288, 32.433753 ], [ -83.727669, 32.433161 ], [ -83.727813, 32.433021 ], [ -83.727954, 32.432958 ], [ -83.728042, 32.432952 ], [ -83.728189, 32.432971 ], [ -83.728637, 32.433107 ], [ -83.728844, 32.433209 ], [ -83.729103, 32.433393 ], [ -83.729135, 32.433468 ] ] ], [ [ [ -83.732967, 32.435816 ], [ -83.733438, 32.436032 ], [ -83.733657, 32.436113 ], [ -83.733845, 32.436142 ], [ -83.734188, 32.436137 ], [ -83.734507, 32.436246 ], [ -83.734691, 32.436284 ], [ -83.734787, 32.436279 ], [ -83.735076, 32.436218 ], [ -83.735166, 32.436221 ], [ -83.73525, 32.436255 ], [ -83.735432, 32.436383 ], [ -83.735568, 32.436581 ], [ -83.735661, 32.436666 ], [ -83.736138, 32.436862 ], [ -83.736591, 32.437161 ], [ -83.736645, 32.437337 ], [ -83.736653, 32.43764 ], [ -83.736615, 32.437695 ], [ -83.736529, 32.437729 ], [ -83.736427, 32.437744 ], [ -83.736281, 32.437734 ], [ -83.736146, 32.437689 ], [ -83.735765, 32.437428 ], [ -83.735348, 32.437392 ], [ -83.735182, 32.43724 ], [ -83.73498, 32.437127 ], [ -83.734846, 32.43708 ], [ -83.734368, 32.437017 ], [ -83.733254, 32.436917 ], [ -83.732833, 32.436853 ], [ -83.732756, 32.436802 ], [ -83.73267, 32.436699 ], [ -83.732353, 32.436165 ], [ -83.732081, 32.435939 ], [ -83.732405, 32.435797 ], [ -83.732597, 32.435757 ], [ -83.732744, 32.435752 ], [ -83.732967, 32.435816 ] ] ] ] } },
{ "type": "Feature", "properties": { "ssurgo_musym": "Grd" }, "geometry": { "type": "Polygon", "coordinates": [ [ [ -83.733597, 32.434423 ], [ -83.733742, 32.434404 ], [ -83.733841, 32.434409 ], [ -83.734018, 32.434464 ], [ -83.734438, 32.434668 ], [ -83.734529, 32.434691 ], [ -83.734819, 32.434718 ], [ -83.734962, 32.434758 ], [ -83.735083, 32.434822 ], [ -83.735301, 32.435082 ], [ -83.735496, 32.435405 ], [ -83.735538, 32.435517 ], [ -83.735561, 32.435796 ], [ -83.735753, 32.43616 ], [ -83.735752, 32.436241 ], [ -83.735707, 32.436315 ], [ -83.73563, 32.436352 ], [ -83.735432, 32.436383 ], [ -83.73525, 32.436255 ], [ -83.735166, 32.436221 ], [ -83.735076, 32.436218 ], [ -83.734787, 32.436279 ], [ -83.734691, 32.436284 ], [ -83.734507, 32.436246 ], [ -83.734188, 32.436137 ], [ -83.734076, 32.435942 ], [ -83.733931, 32.435838 ], [ -83.73372, 32.435737 ], [ -83.73335, 32.435638 ], [ -83.732962, 32.435615 ], [ -83.732776, 32.435579 ], [ -83.732599, 32.435515 ], [ -83.732346, 32.435394 ], [ -83.73201, 32.435159 ], [ -83.731888, 32.435099 ], [ -83.731658, 32.435053 ], [ -83.731217, 32.435019 ], [ -83.731027, 32.43499 ], [ -83.730847, 32.434925 ], [ -83.730699, 32.434819 ], [ -83.73063, 32.434719 ], [ -83.730545, 32.434485 ], [ -83.730481, 32.434381 ], [ -83.730181, 32.434178 ], [ -83.729977, 32.43382 ], [ -83.729679, 32.433506 ], [ -83.729615, 32.433357 ], [ -83.729602, 32.433158 ], [ -83.729624, 32.433039 ], [ -83.729668, 32.432924 ], [ -83.729746, 32.432822 ], [ -83.729826, 32.43277 ], [ -83.730152, 32.432724 ], [ -83.730885, 32.432692 ], [ -83.730841, 32.433018 ], [ -83.730864, 32.433221 ], [ -83.730915, 32.433332 ], [ -83.731163, 32.43357 ], [ -83.731503, 32.433854 ], [ -83.731936, 32.434177 ], [ -83.732237, 32.434374 ], [ -83.732721, 32.434561 ], [ -83.73306, 32.434593 ], [ -83.733248, 32.434565 ], [ -83.733597, 32.434423 ] ] ] } },
{ "type": "Feature", "properties": { "ssurgo_musym": "Gul" }, "geometry": { "type": "Polygon", "coordinates": [ [ [ -83.727719, 32.438472 ], [ -83.727825, 32.43851 ], [ -83.727778, 32.438523 ], [ -83.727719, 32.438472 ] ] ] } },
{ "type": "Feature", "properties": { "ssurgo_musym": "OcC3" }, "geometry": { "type": "Polygon", "coordinates": [ ] } },
{ "type": "Feature", "properties": { "ssurgo_musym": "LqD" }, "geometry": { "type": "MultiPolygon", "coordinates": [ [ [ [ -83.723072, 32.43423 ], [ -83.723217, 32.434337 ], [ -83.723354, 32.434496 ], [ -83.723435, 32.434661 ], [ -83.722796, 32.434083 ], [ -83.723072, 32.43423 ] ] ], [ [ [ -83.724375, 32.435456 ], [ -83.724696, 32.435819 ], [ -83.724118, 32.435288 ], [ -83.724375, 32.435456 ] ] ] ] } },
{ "type": "Feature", "properties": { "ssurgo_musym": "OgB" }, "geometry": { "type": "MultiPolygon", "coordinates": [ [ [ [ -83.735812, 32.430553 ], [ -83.736333, 32.430737 ], [ -83.736343, 32.430891 ], [ -83.736264, 32.430911 ], [ -83.736198, 32.430972 ], [ -83.736155, 32.431094 ], [ -83.736198, 32.431328 ], [ -83.736312, 32.431547 ], [ -83.736446, 32.431627 ], [ -83.736478, 32.431729 ], [ -83.736527, 32.433223 ], [ -83.736462, 32.433079 ], [ -83.736344, 32.432525 ], [ -83.736268, 32.432296 ], [ -83.736025, 32.431864 ], [ -83.735693, 32.431426 ], [ -83.735568, 32.431304 ], [ -83.735382, 32.431172 ], [ -83.735221, 32.431088 ], [ -83.734859, 32.43097 ], [ -83.734689, 32.430891 ], [ -83.734536, 32.430789 ], [ -83.734461, 32.430692 ], [ -83.734376, 32.430476 ], [ -83.734836, 32.430478 ], [ -83.735326, 32.430551 ], [ -83.735812, 32.430553 ] ] ], [ [ [ -83.726975, 32.43075 ], [ -83.727061, 32.430779 ], [ -83.727134, 32.430831 ], [ -83.72722, 32.430931 ], [ -83.727293, 32.43111 ], [ -83.727196, 32.431247 ], [ -83.726728, 32.431593 ], [ -83.726337, 32.43183 ], [ -83.726072, 32.431935 ], [ -83.725934, 32.43195 ], [ -83.725742, 32.431939 ], [ -83.725263, 32.431845 ], [ -83.72505, 32.431749 ], [ -83.724845, 32.431566 ], [ -83.724774, 32.431526 ], [ -83.724674, 32.431547 ], [ -83.724634, 32.431579 ], [ -83.724624, 32.431614 ], [ -83.724724, 32.432124 ], [ -83.724688, 32.43256 ], [ -83.724707, 32.432635 ], [ -83.724762, 32.432704 ], [ -83.724919, 32.432797 ], [ -83.725313, 32.432958 ], [ -83.725515, 32.433066 ], [ -83.725689, 32.433201 ], [ -83.726073, 32.433561 ], [ -83.726218, 32.433664 ], [ -83.726489, 32.43376 ], [ -83.726629, 32.433789 ], [ -83.726868, 32.433787 ], [ -83.727288, 32.433753 ], [ -83.727667, 32.43412 ], [ -83.727586, 32.434948 ], [ -83.727525, 32.435179 ], [ -83.727368, 32.435624 ], [ -83.727024, 32.436149 ], [ -83.72669, 32.436311 ], [ -83.726501, 32.436347 ], [ -83.726306, 32.436354 ], [ -83.726017, 32.436322 ], [ -83.725602, 32.436217 ], [ -83.725446, 32.436096 ], [ -83.7253, 32.435677 ], [ -83.725204, 32.435538 ], [ -83.725049, 32.435385 ], [ -83.724935, 32.435311 ], [ -83.724764, 32.435236 ], [ -83.724342, 32.435137 ], [ -83.724209, 32.435092 ], [ -83.724034, 32.435006 ], [ -83.723932, 32.43492 ], [ -83.723862, 32.434701 ], [ -83.723829, 32.434178 ], [ -83.723773, 32.433897 ], [ -83.72369, 32.433659 ], [ -83.723593, 32.433542 ], [ -83.723455, 32.433515 ], [ -83.723244, 32.433531 ], [ -83.723055, 32.433565 ], [ -83.722827, 32.433634 ], [ -83.722651, 32.433708 ], [ -83.722535, 32.433777 ], [ -83.722501, 32.433815 ], [ -83.721355, 32.432774 ], [ -83.721403, 32.432471 ], [ -83.721638, 32.432282 ], [ -83.721824, 32.432291 ], [ -83.722255, 32.432211 ], [ -83.722445, 32.4322 ], [ -83.722682, 32.432236 ], [ -83.723201, 32.432371 ], [ -83.72343, 32.432409 ], [ -83.723521, 32.432386 ], [ -83.723612, 32.432284 ], [ -83.723643, 32.43213 ], [ -83.723629, 32.431928 ], [ -83.72349, 32.431543 ], [ -83.723467, 32.431389 ], [ -83.723508, 32.431155 ], [ -83.723555, 32.431004 ], [ -83.72401, 32.430823 ], [ -83.724371, 32.430708 ], [ -83.72474, 32.430613 ], [ -83.725338, 32.430505 ], [ -83.725496, 32.430527 ], [ -83.726256, 32.430486 ], [ -83.726346, 32.430549 ], [ -83.72664, 32.430692 ], [ -83.72673, 32.430719 ], [ -83.726975, 32.43075 ] ] ] ] } }
]
}
